id,node_id,object_type,contractor,name,is_work,model,vendor,address,description,road_type,is_checked,priority_level,latitude,longitude,node_distance,cost
FVF-V001,?,fvf,ООО Аэль РТС,RM019,TRUE,Вокорд,ЗАО Вокорд Телеком,"Республика Мордовия, ФАД М5 ""Урал"", 438км+200м (пгт.Зубова Поляна)",,,,,54.073611,42.811667,?,?
FVF-V002,?,fvf,ООО Аэль РТС,RM025,TRUE,Вокорд,ЗАО Вокорд Телеком,"Республика Мордовия, а/д Р178(г.Саранск-с.Сурское-г.Ульяновск), 13км+550м (с.Аксеново)",,,,,54.252167,45.332203,?,?
FVF-V003,?,fvf,ООО Аэль РТС,RM044,TRUE,Вокорд,ЗАО Вокорд Телеком,"Республика Мордовия, г.Саранск, пер. ул.Гагарина и пр.50 лет Октября",,,,,54.171111,45.152344,?,?
FVF-V004,?,fvf,ООО Аэль РТС,RM045,TRUE,Вокорд,ЗАО Вокорд Телеком,"Республика Мордовия, а/д Р178(г.Саранск-с.Сурское-г.Ульяновск), 25км+650м (с.Пятина)",,,,,54.31833300000000,45.47444400000000,?,?
FVF-V005,?,fvf,ООО Аэль РТС,W5078,TRUE,Вокорд Циклоп,ЗАО Вокорд Телеком,"Республика Мордовия, ФАД М5 ""Урал"", 451км (с.Новые Выселки)",,,,,54.01250900000000,42.95143,?,?
FVF-V006,?,fvf,ООО Аэль РТС,RM010,TRUE,Вокорд,ЗАО Вокорд Телеком,"Республика Мордовия, г.Саранск, пр.60 лет Октября, д.81     
Строим самостоятельно",,,,,54.22047200000000,45.134194,?,?
FVF-V007,?,fvf,ООО Аэль РТС,RM035,TRUE,Вокорд,ЗАО Вокорд Телеком,"Республика Мордовия, а/д Р178(г.Саранск-с.Сурское-г.Ульяновск), 40км",,,,,54.36138900000000,45.673056,?,?
FVF-P001,?,fvf,ООО Аэль РТС,R191,TRUE,Поток,ООО РОССИ,"Республика Мордовия, г.Саранск, Лямбирское шоссе, д.1Б",,,,,54.213531,45.143928,?,?
FVF-V008,?,fvf,ООО Аэль РТС,RM018,TRUE,Вокорд,ЗАО Вокорд Телеком,"Республика Мордовия, а/д Р180(Подъезд к г.Саранск от ФАД М5 ""Урал""), 138км+500м (с.Каменка)",,,,,54.288264,43.313811,?,?
FVF-P002,?,fvf,ООО Аэль РТС,"R185, R188",TRUE,Поток,ООО РОССИ,"Республика Мордовия, а/д г.Саранск-г.Рузаевка, 20км+900м (г.Рузаевка)",,,,,54.072889,44.991778,?,?
FVF-V009,?,fvf,ООО Аэль РТС,RM038,TRUE,Вокорд,ЗАО Вокорд Телеком,"Республика Мордовия, г.Саранск, ул.Волгоградская, д.51",,,,,54.18491300000000,45.208008,?,?
FVF-V010,?,fvf,ООО Аэль РТС,RM015,TRUE,Вокорд,ЗАО Вокорд Телеком,"Республика Мордовия, а/д Р180(Подъезд к г.Саранск от ФАД М5 ""Урал""), 162км+50м (п.Торбеево)",,,,,54.089612,43.253459,?,?
FVF-V011,?,fvf,ООО Аэль РТС,RM048,TRUE,Вокорд,ЗАО Вокорд Телеком,"Республика Мордовия, а/д Р180(Подъезд к г.Саранск от ФАД М5 ""Урал""), 26км+700м",,,,,54.335617,44.822767,?,?
FVF-V012,?,fvf,ООО Аэль РТС,RM024,TRUE,Вокорд,ЗАО Вокорд Телеком,"Республика Мордовия, г.Саранск, пер. Лямбирское шоссе и ул.Строительная",,,,,54.205062,45.138908,?,?
FVF-V013,?,fvf,ООО Аэль РТС,RM036,TRUE,Вокорд,ЗАО Вокорд Телеком,"Республика Мордовия, а/д Р180(Подъезд к г.Саранск от ФАД М5 ""Урал""), 78км+450м",,,,,54.356453,44.076453,?,?
FVF-P003,?,fvf,ООО Аэль РТС,"R204, R210, R219, R222",TRUE,Поток,ООО РОССИ,"Республика Мордовия, г.Саранск, пер. Северовосточное шоссе и Александровское шоссе",,,,,54.22326,45.213094,?,?
FVF-V014,?,fvf,ООО Аэль РТС,RM041,TRUE,Вокорд,ЗАО Вокорд Телеком,"Республика Мордовия, г.Саранск, пер. ул.Васенко и ул.Пролетарская
Строим самостоятельно",,,,,54.194774,45.178171,?,?
FVF-V015,?,fvf,ООО Аэль РТС,RM060,TRUE,Вокорд,ЗАО Вокорд Телеком,"Республика Мордовия, г.Саранск, пер. а/д Р180 и Александровское шоссе",,,,,54.24653900000000,45.235738,?,?
FVF-V016,?,fvf,ООО Аэль РТС,RM054,TRUE,Вокорд,ЗАО Вокорд Телеком,"Республика Мордовия, г.Саранск, пер. ул.Лодыгина и ул.Пролетарская",,,,,54.22063700000000,45.180731,?,?
FVF-V017,?,fvf,ООО Аэль РТС,RM026,TRUE,Вокорд,ЗАО Вокорд Телеком,"Республика Мордовия, г.Саранск, пер. ул.Осипенко и ул.Б.Академическая",,,,,54.15689500000000,45.16416700000000,?,?
FVF-V018,?,fvf,ООО Аэль РТС,RM059,TRUE,Вокорд,ЗАО Вокорд Телеком,"Республика Мордовия, г.Саранск, ул.Победы, д.16А",,,,,54.20864300000000,45.11316100000000,?,?
FVF-V019,?,fvf,ООО Аэль РТС,RM004,TRUE,Вокорд,ЗАО Вокорд Телеком,"Республика Мордовия, г.Саранск, ул.Московская, д.14",,,,,54.177667,45.185972,?,?
FVF-V020,?,fvf,ООО Аэль РТС,RM057,TRUE,Вокорд,ЗАО Вокорд Телеком,"Республика Мордовия, г.Саранск, пер. ул.Коммунистическая и ул.Ботевградская",,,,,54.184802,45.171696,?,?
FVF-P004,?,fvf,ООО Аэль РТС,"R166, R171",TRUE,Поток,ООО РОССИ,"Республика Мордовия, г.о.Саранск, п.Ялга, ул.Пионерская, д.39",,,,,54.12936100000000,45.12858300000000,?,?
FVF-P005,?,fvf,ООО Аэль РТС,R190,TRUE,Поток,ООО РОССИ,"Республика Мордовия, г.о.Саранск, п.Луховка, ул.Октябрьская, д.7Б",,,,,54.140028,45.257389,?,?
FVF-V021,?,fvf,ООО Аэль РТС,W5078/1,TRUE,Вокорд Циклоп,ЗАО Вокорд Телеком,"Республика Мордовия, а/д Р180(Подъезд к г.Саранск от ФАД М5 ""Урал""), 21км+750м",,,,,54.307952,44.878165,?,?
FVF-V022,?,fvf,ООО Аэль РТС,RM049,TRUE,Вокорд,ЗАО Вокорд Телеком,"Республика Мордовия, а/д Р180(Подъезд к г.Саранск от ФАД М5 ""Урал""), 129км+550м",,,,,54.337496,43.417438,?,?
FVF-P006,?,fvf,ООО Аэль РТС,"R170, R175",TRUE,Поток,ООО РОССИ,"Республика Мордовия, г.о.Саранск, п.Николаевка, ул.Ленина, д.142",,,,,54.142167,45.144139,?,?
FVF-P007,?,fvf,ООО Аэль РТС,"R214, R216, R217, R223",TRUE,Поток,ООО РОССИ,"Республика Мордовия, г.Саранск, пер. ул.Полежаева и ул.Ботевградская",,,,,54.189837,45.172129,?,?
FVF-P008,?,fvf,ООО Аэль РТС,"R176, R180",TRUE,Поток,ООО РОССИ,"Республика Мордовия, г.Саранск, ул.Лодыгина, д.11",,,,,54.223333,45.1925,?,?
FVF-V023,?,fvf,ООО Аэль РТС,RM014,TRUE,Вокорд,ЗАО Вокорд Телеком,"Республика Мордовия, а/д Р158(г.Н.Новгород-г.Саратов), 255км+800м (с.Первомайское)",,,,,54.42314400000000,45.032697,?,?
FVF-F001,?,fvf,ООО Аэль РТС,"F122, F140, F166",TRUE,Форсаж,ООО ИКВА,"Республика Мордовия, г.Саранск, пер. ул.Победы и ул.Коваленко
Строим самостоятельно",,,,,54.208579,45.118284,?,?
FVF-V024,?,fvf,ООО Аэль РТС,RM005,TRUE,Вокорд,ЗАО Вокорд Телеком,"Республика Мордовия, г.Саранск, пер. ул.Веселовского и ул.Семашко",,,,,54.225889,45.130417,?,?
FVF-P009,?,fvf,ООО Аэль РТС,R213,TRUE,Поток,ООО РОССИ,"г.Рузаевка, Школьный бульвар, д.2Б",,,,,54.07315900000000,44.975671,?,?
FVF-V025,?,fvf,ООО Аэль РТС,RM003,TRUE,Вокорд,ЗАО Вокорд Телеком,"Республика Мордовия, г.Саранск, пер. ул.Косарева и ул.Сущинского",,,,,54.199847,45.247492,?,?
FVF-V026,?,fvf,ООО Аэль РТС,RM055,TRUE,Вокорд,ЗАО Вокорд Телеком,"Республика Мордовия, г.Саранск, пер. ул.Невского и ул.Новая",,,,,54.169948,45.171955,?,?
FVF-V027,?,fvf,ООО Аэль РТС,RM052,TRUE,Вокорд,ЗАО Вокорд Телеком,"Республика Мордовия, г.Саранск, пер. ул.Полежаева и ул.Гагарина",,,,,54.19072000000000,45.15945000000000,?,?
FVF-V028,?,fvf,ООО Аэль РТС,RM047,TRUE,Вокорд,ЗАО Вокорд Телеком,"Республика Мордовия, а/д Р158(г.Н.Новгород-г.Саратов), 308км+800м",,,,,54.068608,44.878059,?,?
FVF-P010,?,fvf,ООО Аэль РТС,"R206, R212, R215, R221",TRUE,Поток,ООО РОССИ,"Республика Мордовия, г.Саранск, пер. ул.Полежаева и ул.Титова",,,,,54.19018,45.16197200000000,?,?
FVF-F002,?,fvf,ООО Аэль РТС,"F142, F150, F151, F153",TRUE,Форсаж,ООО ИКВА,"Республика Мордовия, г.Саранск, пер. пр.70 лет Октября и ул.Севастопольская",,,,,54.192671,45.2239,?,?
FVF-F003,?,fvf,ООО Аэль РТС,"F163, F165",TRUE,Форсаж,ООО ИКВА,"Республика Мордовия, г.Саранск, пер. ул.Полежаева и ул.Пролетарская",,,,,54.189635,45.177327,?,?
FVF-F004,?,fvf,ООО Аэль РТС,"F118, F156, F160, F164",TRUE,Форсаж,ООО ИКВА,"Республика Мордовия, г.Саранск, пер. ул.Титова и ул.Строительная 
Строим самостоятельно",,,,,54.204932,45.165954,?,?
FVF-V029,?,fvf,ООО Аэль РТС,RM011,TRUE,Вокорд,ЗАО Вокорд Телеком,"Республика Мордовия, г.Саранск, ул.Полежаева, д.120",,,,,54.191917,45.153917,?,?
FVF-V030,?,fvf,ООО Аэль РТС,RM058,TRUE,Вокорд,ЗАО Вокорд Телеком,"Республика Мордовия, г.Саранск, ул.А.Невского (между ул.Ворошилова и ул.Пожарского)",,,,,54.16959,45.19155300000000,?,?
FVF-F005,?,fvf,ООО Аэль РТС,"F109, F119, F124, F149",TRUE,Форсаж,ООО ИКВА,"Республика Мордовия, г.Саранск, пер. ул.Коваленко и ул.Воинова",,,,,54.215088,45.118469,?,?
FVF-V031,?,fvf,ООО Аэль РТС,RM029,TRUE,Вокорд,ЗАО Вокорд Телеком,"Республика Мордовия, а/д Р178(г.Саранск-с.Сурское-г.Ульяновск), 82км+800м",,,,,54.423527,46.299732,?,?
FVF-V032,?,fvf,ООО Аэль РТС,RM042,TRUE,Вокорд,ЗАО Вокорд Телеком,"Республика Мордовия, г.Саранск, пер. ул.Гагарина и ул.Ульянова",,,,,54.163454,45.151225,?,?
FVF-V033,?,fvf,ООО Аэль РТС,RM021,TRUE,Вокорд,ЗАО Вокорд Телеком,"Республика Мордовия, г.Саранск, пер. ул.Полежаева и ул.Чапаева",,,,,54.192713,45.150243,?,?
FVF-V034,?,fvf,ООО Аэль РТС,RM043,TRUE,Вокорд,ЗАО Вокорд Телеком,"Республика Мордовия, г.Саранск, пер. ул.Коммунистическая и ул.Пролетарская
Строим самостоятельно",,,,,54.184585,45.176882,?,?
FVF-F006,?,fvf,ООО Аэль РТС,"F154, F161, F171, F173",TRUE,Форсаж,ООО ИКВА,"Республика Мордовия, г.Саранск, пер. ул.Б.Хмельницкого и ул.Ботевградская
Строим самостоятельно",,,,,54.186843,45.171865,?,?
FVF-V035,?,fvf,ООО Аэль РТС,RM050,TRUE,Вокорд,ЗАО Вокорд Телеком,"Республика Мордовия, г.Рузаевка, пер. ул.Луначарского и ул.Красноармейская",,,,,54.06849500000000,44.938467,?,?
FVF-F007,?,fvf,ООО Аэль РТС,"F103, F132, F133, F167",TRUE,Форсаж,ООО ИКВА,"Республика Мордовия, г.Саранск, пер. ул.Б.Хмельницкого и пр.Ленина",,,,,54.186637,45.187729,?,?
FVF-V036,?,fvf,ООО Аэль РТС,RM009,TRUE,Вокорд,ЗАО Вокорд Телеком,"Республика Мордовия, г.Саранск, пер. пр.60 лет Октября и б-р Веденяпиных",,,,,54.220417,45.136639,?,?
FVF-P011,?,fvf,ООО Аэль РТС,"R140, R141, R173, R177",TRUE,Поток,ООО РОССИ,"Республика Мордовия, г.Саранск, пер. ул.Коммунистическая и пр.Ленина",,,,,54.184087,45.18748700000000,?,?
FVF-P012,?,fvf,ООО Аэль РТС,R181,TRUE,Поток,ООО РОССИ,"Республика Мордовия, г.Саранск, пер. ул.Титова и ул.Советская",,,,,54.182667,45.160778,?,?
FVF-F008,?,fvf,ООО Аэль РТС,"F129, F130, F134, F138",TRUE,Форсаж,ООО ИКВА,"Республика Мордовия, г.Саранск, пер. ул.Васенко и пр.Ленина",,,,,54.194413,45.188565,?,?
FVF-P013,?,fvf,ООО Аэль РТС,"R200, R201, R202, R211, R220",TRUE,Поток,ООО РОССИ,"Республика Мордовия, г.Саранск, пер. ул.Веселовского и ул.Пушкина",,,,,54.224386,45.142082,?,?
FVF-V037,?,fvf,ООО Аэль РТС,RM022,TRUE,Вокорд,ЗАО Вокорд Телеком,"Республика Мордовия, а/д г.Саранск-п.Ромоданово-с.Ичалки-с.Б.Игнатово, 59км+100м (с.Рождественно)",,,,,54.675872,45.29509200000000,?,?
FVF-P014,?,fvf,ООО Аэль РТС,R184,TRUE,Поток,ООО РОССИ,"Республика Мордовия, а/д Р180(Подъезд к г.Саранск от ФАД М5 ""Урал""), 8км+950м",,,,,54.231667,45.01533300000000,?,?
FVF-PR001,?,fvf,ООО Аэль РТС,"CR2215, CR2216",FALSE,Перекресток,ООО Элвис Неотек,"Республика Мордовия, г.о.Саранск, п.Зыково, ж/д переезд 12 км Рузаевской дистанции пути",Планируется к замене,,,,54.08787,45.099047,?,?
FVF-V038,?,fvf,ООО Аэль РТС,RM027,TRUE,Вокорд,ЗАО Вокорд Телеком,"Республика Мордовия, а/д г.Саранск-п.Ромоданово-с.Ичалки-с.Б.Игнатово, 18км+50м",,,,,54.332778,45.246944,?,?
FVF-V039,?,fvf,ООО Аэль РТС,RM034,TRUE,Вокорд,ЗАО Вокорд Телеком,"Республика Мордовия, а/д г.Саранск-п.Ромоданово-с.Ичалки-с.Б.Игнатово, 21км+700м",,,,,54.33255200000000,45.246565,?,?
FVF-V040,?,fvf,ООО Аэль РТС,RM030,TRUE,Вокорд,ЗАО Вокорд Телеком,"Республика Мордовия, а/д г.Рузаевка-г.Ковылкино-п.Торбеево, 39км+100м (с.Латышовка)",,,,,53.95426700000000,44.411533,?,?
FVF-F009,?,fvf,ООО Аэль РТС,"F121, F125, F145, F158",TRUE,Форсаж,ООО ИКВА,"Республика Мордовия, г.Саранск, пер. ул.Коммунистическая и ул.Рабочая",,,,,54.18398700000000,45.19320400000000,?,?
FVF-V041,?,fvf,ООО Аэль РТС,RM037,TRUE,Вокорд,ЗАО Вокорд Телеком,"Республика Мордовия, а/д г.Саранск-г.Рузаевка, 13км+550м",,,,,54.08989,45.099831,?,?
FVF-F010,?,fvf,ООО Аэль РТС,"F117, F123",TRUE,Форсаж,ООО ИКВА,"Республика Мордовия, г.о.Саранск, п.Луховка, ул.Октябрьская, д.10",,,,,54.14793,45.245882,?,?
FVF-F011,?,fvf,ООО Аэль РТС,"F136, F141, F159, F168",TRUE,Форсаж,ООО ИКВА,"Республика Мордовия, г.Саранск, пер. ул.Б.Хмельницкого и ул.Пролетарская",,,,,54.186827,45.177082,?,?
FVF-V042,?,fvf,ООО Аэль РТС,RM031,TRUE,Вокорд,ЗАО Вокорд Телеком,"Республика Мордовия, а/д г.Рузаевка-г.Ковылкино-п.Торбеево, 17км+500м",,,,,53.998076,44.721189,?,?
FVF-V043,?,fvf,ООО Аэль РТС,RM006,TRUE,Вокорд,ЗАО Вокорд Телеком,"Республика Мордовия, г.Саранск, пер. ул.Полежаева и пер.Чернышевского",,,,,54.196028,45.140444,?,?
FVF-V044,?,fvf,ООО Аэль РТС,RM013,TRUE,Вокорд,ЗАО Вокорд Телеком,"Республика Мордовия, ФАД М5 ""Урал"", 445км+100м (с.Аким-Сергеевка)",,,,,54.048953,42.89082,?,?
FVF-P015,?,fvf,ООО Аэль РТС,R192,TRUE,Поток,ООО РОССИ,"Республика Мордовия, а/д г.Саранск-п.Ромоданово-с.Ичалки-с.Б.Игнатово, 9км+100м",,,,,54.25210800000000,45.23516100000000,?,?
FVF-V045,?,fvf,ООО Аэль РТС,RM039,TRUE,Вокорд,ЗАО Вокорд Телеком,"Республика Мордовия, г.Саранск, пер. ул.Московская и ул.Республиканская
Строим самостоятельно",,,,,54.172183,45.18741900000000,?,?
FVF-P016,?,fvf,ООО Аэль РТС,"R203, R207, R208",TRUE,Поток,ООО РОССИ,"Республика Мордовия, г.Саранск, пер. ул.Лодыгина и ул.Титова
Строим самостоятельно",,,,,54.220621,45.166486,?,?
FVF-V046,?,fvf,ООО Аэль РТС,RM051,TRUE,Вокорд,ЗАО Вокорд Телеком,"Республика Мордовия, а/д Р180(Подъезд к г.Саранск от ФАД М5 ""Урал""), 96км+700м",,,,,54.401176,43.821584,?,?
FVF-PR002,?,fvf,ООО Аэль РТС,"CR2203, CR2204, CR2224, CR2225",FALSE,Перекресток,ООО Элвис Неотек,"Республика Мордовия, г.Саранск, пер. ул.Советская и ул.Рабочая
Строим самостоятельно",Планируется к замене,,,,54.180408,45.192638,?,?
FVF-P017,?,fvf,ООО Аэль РТС,R018,TRUE,Поток,ООО РОССИ,"г. Саранск, ул. Лодыгина, д. 4",,,,,54.288264,43.313811,?,?
FVF-V047,?,fvf,ООО Аэль РТС,RM056,TRUE,Вокорд,ЗАО Вокорд Телеком,"Республика Мордовия, г.Саранск, пер. ул.Республиканская и ул.Грузинская",,,,,54.172583,45.173976,?,?
FVF-F012,?,fvf,ООО Аэль РТС,"F112, F126, F139, F146",TRUE,Форсаж,ООО ИКВА,"Республика Мордовия, г.Саранск, пер. ул.Полежаева и пр.Ленина",,,,,54.189351,45.18802900000000,?,?
FVF-V048,?,fvf,ООО Аэль РТС,RM001,TRUE,Вокорд,ЗАО Вокорд Телеком,"Республика Мордовия, г.Саранск, ул.Победы, д.3А",,,,,54.208278,45.126778,?,?
FVF-V049,?,fvf,ООО Аэль РТС,RM007,TRUE,Вокорд,ЗАО Вокорд Телеком,"Республика Мордовия, г.Саранск, ул.Волгоградская, д.163",,,,,54.18531,45.230127,?,?
FVF-P018,?,fvf,ООО Аэль РТС,"R174, R178",TRUE,Поток,ООО РОССИ,"Республика Мордовия, г.Саранск, ул.Коваленко, д.50А",,,,,54.211275,45.118228,?,?
FVF-P019,?,fvf,ООО Аэль РТС,"R205, R209",TRUE,Поток,ООО РОССИ,"Республика Мордовия, г.Саранск, пер. ул.Энгельса и ул.Попова",,,,,54.172662,45.128758,?,?
FVF-F013,?,fvf,ООО Аэль РТС,"F127, F128, F135, F172, F174",TRUE,Форсаж,ООО ИКВА,"Республика Мордовия, г.Саранск, пер. ул.Косарева и ул.Гожувская",,,,,54.194444,45.23830400000000,?,?
FVF-P020,?,fvf,ООО Аэль РТС,R186,TRUE,Поток,ООО РОССИ,"Республика Мордовия, г.Саранск, Северовосточное шоссе, д.15",,,,,54.211361,45.239528,?,?
FVF-F014,?,fvf,ООО Аэль РТС,"F157, F170",TRUE,Форсаж,ООО ИКВА,"Республика Мордовия, г.Саранск, пер. ул.Полежаева и ул.Большевистская",,,,,54.189474,45.182593,?,?
FVF-V050,?,fvf,ООО Аэль РТС,RM053,TRUE,Вокорд,ЗАО Вокорд Телеком,"Республика Мордовия, г.Саранск, пер. ул.Васенко и ул.Большевистская",,,,,54.19454400000000,45.183058,?,?
FVF-P021,?,fvf,ООО Аэль РТС,R182,TRUE,Поток,ООО РОССИ,"Республика Мордовия, а/д Р178(г.Саранск-с.Сурское-г.Ульяновск), 9км+900м",,,,,54.22675,45.298611,?,?
FVF-V051,?,fvf,ООО Аэль РТС,RM017,TRUE,Вокорд,ЗАО Вокорд Телеком,"Республика Мордовия, а/д Р180(Подъезд к г.Саранск от ФАД М5 ""Урал""), 170км+650м (с.Никольское)",,,,,54.052414,43.138703,?,?
FVF-V052,?,fvf,ООО Аэль РТС,RM020,TRUE,Вокорд,ЗАО Вокорд Телеком,"Республика Мордовия, г.Саранск, пер. ул.Косарева и ул.Т.Бибиной",,,,,54.20119200000000,45.249955,?,?
FVF-F015,?,fvf,ООО Аэль РТС,"F105, F106, F110, F115",TRUE,Форсаж,ООО ИКВА,"Республика Мордовия, г.Саранск, пер. ул.Васенко и ул.Ботевградская",,,,,54.194879,45.17271900000000,?,?
FVF-V053,?,fvf,ООО Аэль РТС,RM032,TRUE,Вокорд,ЗАО Вокорд Телеком,"Республика Мордовия, а/д Р180(Подъезд к г.Саранск от ФАД М5 ""Урал""), 70км+250м",,,,,54.335931,44.199644,?,?
FVF-V054,?,fvf,ООО Аэль РТС,RM033,TRUE,Вокорд,ЗАО Вокорд Телеком,"Республика Мордовия, а/д Р158(г.Н.Новгород-г.Саратов), 276км+300м",,,,,54.25833300000000,45.132778,?,?
FVF-P022,?,fvf,ООО Аэль РТС,R187,TRUE,Поток,ООО РОССИ,"Республика Мордовия, а/д Р158(г.Н.Новгород-г.Саратов), 277км+550м",,,,,54.24932200000000,45.14675,?,?
FVF-P023,?,fvf,ООО Аэль РТС,"R167, R172",TRUE,Поток,ООО РОССИ,"Республика Мордовия, г.Саранск, Лямбирское шоссе, д.10А",,,,,54.229506,45.152472,?,?
FVF-V055,?,fvf,ООО Аэль РТС,RM008,TRUE,Вокорд,ЗАО Вокорд Телеком,"Республика Мордовия, г.Саранск, пер. ул.Коммунистическая и ул.Большевистская
Строим самостоятельно",,,,,54.184389,45.182167,?,?
FVF-V056,?,fvf,ООО Аэль РТС,RM016,TRUE,Вокорд,ЗАО Вокорд Телеком,"Республика Мордовия, ФАД М5 ""Урал"", 427км+550м (п.Умет)",,,,,54.128386,42.6881,?,?
FVF-P024,?,fvf,ООО Аэль РТС,"R199, R218",TRUE,Поток,ООО РОССИ,"Республика Мордовия, г.о.Саранск, п.Луховка, ул.Красная, д.58А",,,,,54.16754300000000,45.225975,?,?
FVF-F016,?,fvf,ООО Аэль РТС,"F101, F111, F114, F143, F152",TRUE,Форсаж,ООО ИКВА,"Республика Мордовия, г.Саранск, пер. ул.Гагарина и ул.Коммунистическая",,,,,54.185502,45.155999,?,?
FVF-F017,?,fvf,ООО Аэль РТС,"F108, F116, F120, F147",TRUE,Форсаж,ООО ИКВА,"Республика Мордовия, г.Саранск, пер. пр.50 лет Октября и ул.М.Расковой",,,,,54.172805,45.144892,?,?
FVF-F018,?,fvf,ООО Аэль РТС,"F107, F113, F137",TRUE,Форсаж,ООО ИКВА,"Республика Мордовия, г.о.Саранск, п.Ялга, пер. ул.Пионерская и ул.Российская",,,,,54.126933,45.124991,?,?
FVF-F019,?,fvf,ООО Аэль РТС,"F148, F155",TRUE,Форсаж,ООО ИКВА,"Республика Мордовия, г.Саранск, пер. ул.Коммунистическая и ул.Титова",,,,,54.185285,45.161377,?,?
FVF-V057,?,fvf,ООО Аэль РТС,RM040,TRUE,Вокорд,ЗАО Вокорд Телеком,"Республика Мордовия, г.Саранск, пер. пр.50 лет Октября и ул.Серадзская",,,,,54.174964,45.138342,?,?
FVF-F020,?,fvf,ООО Аэль РТС,"F102, F131, F144, F162",TRUE,Форсаж,ООО ИКВА,"Республика Мордовия, г.Саранск, пер. ул.Ботевградская и ул.Советская
Строим самостоятельно",,,,,54.181834,45.17130100000000,?,?
FVF-PR003,?,fvf,ООО Аэль РТС,"CR2007, CR2221, CR2229",FALSE,Перекресток,ООО Элвис Неотек,"Республика Мордовия, г.Саранск, Лямбирское шоссе, 2 км",Планируется к замене,,,,54.23318500000000,45.151948,?,?
FVF-PR004,?,fvf,ООО Аэль РТС,"CR2217, CR2219",FALSE,Перекресток,ООО Элвис Неотек,"Республика Мордовия, с.Качелай, ж/д 678 км Рузаевской дистанции пути",Планируется к замене,,,,53.93319,45.673491,?,?
FVF-PR005,?,fvf,ООО Аэль РТС,"CR2206, CR2207",FALSE,Перекресток,ООО Элвис Неотек,"Республика Мордовия, с.Семилей, ж/д 649 км Рузаевской дистанции пути",Планируется к замене,,,,53.95292400000000,45.350365,?,?
FVF-PR006,?,fvf,ООО Аэль РТС,"CR2209, CR2211",FALSE,Перекресток,ООО Элвис Неотек,"Республика Мордовия, г.Саранск, ж/д переезд «Ромодановский» Рузаевской дистанции пути",Планируется к замене,,,,54.208549,45.192338,?,?
FVF-P025,?,fvf,ООО Аэль РТС,R169,TRUE,Поток,ООО РОССИ,"Республика Мордовия, г.Саранск, ул.Лодыгина, д.3 
Строим самостоятельно",,,,,54.22075,45.15875,?,?
FVF-F021,?,fvf,ООО Аэль РТС,"F104, F169",TRUE,Форсаж,ООО ИКВА,"Республика Мордовия, г.Саранск, ул.Осипенко, д.81А",,,,,54.160846,45.16549700000000,?,?
FVF-P026,?,fvf,ООО Аэль РТС,R168,TRUE,Поток,ООО РОССИ,"Республика Мордовия, г.Саранск, пер. ул.Гагарина и ул.Мичурина",,,,,54.17786100000000,45.153278,?,?
FVF-P027,?,fvf,ООО Аэль РТС,R179,TRUE,Поток,ООО РОССИ,"Республика Мордовия, г.Саранск, пер. ул.Титова и ул.Мичурина",,,,,54.177469,45.159798,?,?
FVF-V058,?,fvf,ООО Аэль РТС,RM046,TRUE,Вокорд,ЗАО Вокорд Телеком,"Республика Мордовия, а/д Р158(г.Н.Новгород-г.Саратов), 304км+300м",,,,,54.108333,44.880317,?,?
FVF-PR007,?,fvf,ООО Аэль РТС,"CR2212, CR2213",FALSE,Перекресток,ООО Элвис Неотек,"Республика Мордовия, г.о.Саранск, п.Ялга, ж/д переезд 17 км Рузаевской дистанции пути",Планируется к замене,,,,54.123799,45.134544,?,?
FVF-PR008,?,fvf,ООО Аэль РТС,"CR2210, CR2218",FALSE,Перекресток,ООО Элвис Неотек,ж/д 589 км станция Хованщина,Планируется к замене,,,,54.06909400000000,44.593839,?,?
FVF-P028,?,fvf,ООО Аэль РТС,R189,TRUE,Поток,ООО РОССИ,"Республика Мордовия, а/д г.Саранск-с.Б.Березники-с.Дубенки, 3км+700м (г.Саранск)",,,,,54.19777200000000,45.301472,?,?
FVF-V059,?,fvf,ООО Аэль РТС,RM023,TRUE,Вокорд,ЗАО Вокорд Телеком,"Республика Мордовия, а/д г.Саранск-п.Ромоданово-с.Ичалки-с.Б.Игнатово, 42км+800м",,,,,54.538058,45.361667,?,?
FVF-PR009,?,fvf,ООО Аэль РТС,"CR2202, CR2205",FALSE,Перекресток,ООО Элвис Неотек,"Республика Мордовия, г.о.Саранск, п.Николаевка, ж/д переезд 19 км Рузаевской дистанции пути",Планируется к замене,,,,54.140093,45.148626,?,?
FVF-R001,?,fvf,ООО Аэль РТС,Робот MultаRadar  593-072/71199,FALSE,MultаRadar,ООО Трафитек,"Республика Мордовия, г. Саранск, ул. Ульянова ,85",Планируется к замене,,,,54.166259,45.141203,?,?
FVF-P029,?,fvf,ООО Аэль РТС,R183,TRUE,Поток,ООО РОССИ,"Республика Мордовия, а/д Р158(г.Н.Новгород-г.Саратов), 287км+150м",,,,,54.229111,45.018389,?,?
FVF-ST001,?,fvf,ГУП РМ НПЦ ИНТ,S001-102000440219,TRUE,Стрелка-М,СтройИнвестПроект,Автомобильная дорога Р-158 313+100 км+м,,,,,54.034477683144300,44.90070012228530,?,?
FVF-ST002,?,fvf,ГУП РМ НПЦ ИНТ,S002-102000510219,TRUE,Стрелка-М,СтройИнвестПроект,Автомобильная дорога Р-158 313+000 км+м,,,,,54.03534923707320,44.89935901777790,?,?
FVF-ST003,?,fvf,ГУП РМ НПЦ ИНТ,S003-102000570219,TRUE,Стрелка-М,СтройИнвестПроект,Автомобильная дорога Р-158 287+200 км+м,,,,,54.228675641620000,45.01806285994110,?,?
FVF-ST004,?,fvf,ГУП РМ НПЦ ИНТ,S004-102000520219,TRUE,Стрелка-М,СтройИнвестПроект,Автомобильная дорога Р-178 82+530 км+м,,,,,54.423405323673200,46.296907931733800,?,?
FVF-ST005,?,fvf,ГУП РМ НПЦ ИНТ,S005-102000610219,TRUE,Стрелка-М,СтройИнвестПроект,Автомобильная дорога Р-178 82+580 км+м,,,,,54.42360552084480,46.29750874655310,?,?
FVF-ST006,?,fvf,ГУП РМ НПЦ ИНТ,S006-102000590219,TRUE,Стрелка-М,СтройИнвестПроект,Подъезд к г. Саранск от М-5 76+680 км+м,,,,,54.43174382740730,43.69637754576310,?,?
FVF-ST007,?,fvf,ГУП РМ НПЦ ИНТ,S007-102000410219,FALSE,Стрелка-М,СтройИнвестПроект,Автомобильная дорога Р-158 266+150 км+м,Рубеж не работает,,,,54.33110378789030,45.06211546080250,?,?
FVF-ST008,?,fvf,ГУП РМ НПЦ ИНТ,S008-102000600219,FALSE,Стрелка-М,СтройИнвестПроект,Подъезд к г. Саранск от М-5 21+800 км+м,Рубеж не работает,,,,54.08711054397030,43.23524144308730,?,?
FVF-ST009,?,fvf,ГУП РМ НПЦ ИНТ,S009-102000470219,TRUE,Стрелка-М,СтройИнвестПроект,Подъезд к г. Саранск от М-5 21+600 км+м,,,,,54.086694237690900,43.23171702044190,?,?
FVF-ST010,?,fvf,ГУП РМ НПЦ ИНТ,S010-102000460219,TRUE,Стрелка-М,СтройИнвестПроект,"Подъезд к г. Саранск от М-5, обход г. Краснослободск 80+700 км+м",,,,,54.42693986664830,43.71258345263210,?,?
FVF-ST011,?,fvf,ГУП РМ НПЦ ИНТ,S011-102000450219,TRUE,Стрелка-М,СтройИнвестПроект,"Подъезд к г. Саранск от М-5, обход г. Краснослободск 89+500  км+м",,,,,54.39129212210130,43.82715770606030,?,?
FVF-ST012,?,fvf,ГУП РМ НПЦ ИНТ,S012-102000530219,TRUE,Стрелка-М,СтройИнвестПроект,"Подъезд к г. Саранск от М-5, обход г. Краснослободск 89+500 км+м",,,,,54.391104288668,43.82714161280620,?,?
FVF-ST013,?,fvf,ГУП РМ НПЦ ИНТ,S013-102000210219,FALSE,Стрелка-М,СтройИнвестПроект,Автомобильная дорога Р-178 25+650 км+м,Рубеж не работает,,,,54.318200481844100,45.474565118589900,?,?
FVF-ST014,?,fvf,ГУП РМ НПЦ ИНТ,S014-102000290219,TRUE,Стрелка-М,СтройИнвестПроект,Автомобильная дорога Р-178 13+800 км+м,,,,,54.25339720392970,45.334612816611200,?,?
FVF-ST015,?,fvf,ГУП РМ НПЦ ИНТ,S015-102000230219,TRUE,Стрелка-М,СтройИнвестПроект,Автомобильная дорога Р-178 12+980 км+м,,,,,54.24901826355050,45.327032893935300,?,?
FVF-ST016,?,fvf,ГУП РМ НПЦ ИНТ,S016-102000560219,TRUE,Стрелка-М,СтройИнвестПроект,Автомобильная дорога Р-178 8+600 км+м,,,,,54.21831487634920,45.28584489230300,?,?
FVF-ST017,?,fvf,ГУП РМ НПЦ ИНТ,S017-102000620219,TRUE,Стрелка-М,СтройИнвестПроект,Автомобильная дорога Р-178 9+050 км+м,,,,,54.22087384449040,45.29052266482500,?,?
FVF-ST018,?,fvf,ГУП РМ НПЦ ИНТ,S018-102000550219,TRUE,Стрелка-М,СтройИнвестПроект,Подъезд к г. Саранск от М-5 194+700 км+м,,,,,54.220572058017300,45.28535136584430,?,?
FVF-ST019,?,fvf,ГУП РМ НПЦ ИНТ,S019-102000540219,TRUE,Стрелка-М,СтройИнвестПроект,Подъезд к г. Саранск от М-5 185+400 км+м,,,,,54.2434386787937,45.15295752886940,?,?
FVF-ST020,?,fvf,ГУП РМ НПЦ ИНТ,S020-102000630219,TRUE,Стрелка-М,СтройИнвестПроект,Подъезд к г. Саранск от М-5 185+160 км+м,,,,,54.24068630705660,45.150339692870800,?,?
FVF-ST021,?,fvf,ГУП РМ НПЦ ИНТ,S021-102000580219,TRUE,Стрелка-М,СтройИнвестПроект,Подъезд к г. Саранск от М-5 185+020 км+м,,,,,54.24298624680450,45.14761456851170,?,?
FVF-ST022,?,fvf,ГУП РМ НПЦ ИНТ,S022-102000260219,TRUE,Стрелка-М,СтройИнвестПроект,Автомобильная дорога Р-158 278+060 км+м,,,,,54.24508498652610,45.149653047363,?,?
FVF-ST023,?,fvf,ГУП РМ НПЦ ИНТ,S023-102000420219,TRUE,Стрелка-М,СтройИнвестПроект,Подъезд к г. Саранск от М-5 46+220 км+м,,,,,54.288870124879100,43.31424960498030,?,?
FVF-PLC001,?,fvf,,КПроМ-Стац-PM0420,,Кордон Про М,Семикон,"г. Саранск, Юго-Западное шоссе (между ул. Победа и а/д Саранск-Ключарево)",После Ключевского поворота (примерно посередине),М,TRUE,2,54.20032142151620,45.120644398116900,?,?
FVF-PLC002,?,fvf,,КПроМ-Стац-PM0421,,Кордон Про М,Семикон,"Россия, Республика Мордовия, Саранск, Юго-Западное шоссе, 10",До Ключаревского поворота (АЗС Газнпромнефть) +/- 200м,М,TRUE,2,54.18074752246650,45.131008453750400,?,?
FVF-PLC003,?,fvf,,КПроМ-Стац-PM0422,,Кордон Про М,Семикон,"г. Саранск, ул. Севастопольская (между ул. Серова и ул. Кочкуровская)",Установка на место существующего комплекса (в случае демонтажа Аэль РТС),М,TRUE,2,54.17156632569060,45.20842790466280,?,?
FVF-PLC004,?,fvf,,КПроМ-Стац-PM0423,,Кордон Про М,Семикон,"г. Саранск, ул. Севастопольская (между ул. Кочкуровская и ул. Волгоградская)",Установка на место существующего комплекса (в случае демонтажа Аэль РТС),М,TRUE,2,54.18191986327100,45.22133469444230,?,?
FVF-PLC005,?,fvf,,КПроМ-Стац-PM0424,,Кордон Про М,Семикон,"г. Саранск, ул. Победы (Между ЦОП и АЗС)",Между ЦОП и АЗС Ситиойл (примерно посередине),М,TRUE,2,54.2071488698357,45.13156742068380,?,?
FVF-PLC006,?,fvf,,Предлагаемое место МВД 6,,Модель комплекса будет известна после закупки,,"Россия, Республика Мордовия, Саранск, Александровское шоссе, 10",Нет уточняющего комментария,М,,4,54.227606037567800,45.21634978440850,?,?
FVF-PLC007,?,fvf,,КПроМ-Стац-PM0425,,Кордон Про М,Семикон,"г. Саранск, ул. Косарева, 130 (район магазина «Вираж»)",Установка на место существующего комплекса (в случае демонтажа Аэль РТС),М,TRUE,2,54.21040641838890,45.26873089947500,?,?
FVF-PLC008,?,fvf,,КПроМ-Стац-PM0426,,Кордон Про М,Семикон,"Россия, Республика Мордовия, Саранск, Севастопольская улица, 40",Установка на место существующего комплекса (в случае демонтажа Аэль РТС),М,TRUE,2,54.189203086525100,45.22289495478040,?,?
FVF-PLC009,?,fvf,,КПроМ-Стац-PM0427,,Кордон Про М,Семикон,а/д Восточный обход го Саранск (участок от а/д Саранск- Кочкурово до ул. Пионерская п.Ялга),На месте размещения Автодории (два варианта на выбор - возможно задействовать оба),Р,TRUE,2,54.144697768510900,45.18922418566830,?,?
FVF-PLC010,?,fvf,,КПроМ-Стац-PM0428,,Кордон Про М,Семикон,а/д Восточный обход го Саранск (участок от а/д Саранск Б. Березники до а/д Саранск-Кочкурово),Любое место от а/д Саранск Б. Березники до а/д Саранск-Кочкурово (возможно в районе перехватывающей парковки),Р,TRUE,2,54.1783849545214,45.27887433978180,?,?
FVF-PLC011,?,fvf,,КПроМ-Стац-PM0406,,Кордон Про М,Семикон,"а/д Берсеневка- Пензятка, 5-7 км",Между постом ГИБДД и поворотом на с. Татарская Свербейка (установить в верхней точке “оврага”),Р,TRUE,1,54.22545085881920,45.03237097367170,?,?
FVF-PLC013,?,fvf,,Предлагаемое место МВД 13,,Модель комплекса будет известна после закупки,,"а/д Р178 (г.Саранск-с.Сурское-г.Ульяновск), 21-22 км",Нет уточняющего комментария,Ф (НН),TRUE,3,54.299236197825600,45.43160918588880,?,?
FVF-PLC014,?,fvf,,КПроМ-Стац-PM0407,,Кордон Про М,Семикон,"а/д Р178 (г.Саранск-с.Сурское-г.Ульяновск), 32-34 км",Поворот на Б. Ремезенки +/- 1000м,Ф (НН),TRUE,1,54.349034260845200,45.57033742871080,?,?
FVF-PLC015,?,fvf,,Предлагаемое место МВД 15,,Модель комплекса будет известна после закупки,,"а/д Р178 (г.Саранск-с.Сурское-г.Ульяновск), 45-46 км",Нет уточняющего комментария,Ф (НН),,4,54.38420003671840,45.74471940481550,?,?
FVF-PLC016,?,fvf,,Предлагаемое место МВД 16,,Модель комплекса будет известна после закупки,,"а/д Р178 (г.Саранск-с.Сурское-г.Ульяновск), 59-61 км",Нет уточняющего комментария,Ф (НН),TRUE,3,54.41361271267420,45.98421033731450,?,?
FVF-PLC017,?,fvf,,Предлагаемое место МВД 17,,Модель комплекса будет известна после закупки,,"а/д Р178 (г.Саранск-с.Сурское-г.Ульяновск), 92км (поворот на с. Морга)",Нет уточняющего комментария,Ф (НН),TRUE,3,54.41109704841870,46.43730622488400,?,?
FVF-PLC018,?,fvf,,КПроМ-Стац-PM0408,,Кордон Про М,Семикон,"а/д Р158 (Н.Новгород-Саратов), 270-273 км",Ориентировочно перекресток на с. Лямбирь (ул. Спортивная) +/- 500м,Ф,TRUE,1,54.29164922817510,45.08569613953150,?,?
FVF-PLC019,?,fvf,,Предлагаемое место МВД 19,,Модель комплекса будет известна после закупки,,"а/д Р158 (Н.Новгород-Саратов), 317-318 км",Нет уточняющего комментария,Ф,,4,54.00334796459490,44.89873456344580,?,?
FVF-PLC020,?,fvf,,КПроМ-Стац-PM0409,,Кордон Про М,Семикон,"а/д Комсомольский - Атяшево - Ардатов, 8-15 км",На месте размещения Автодории (с. Большие Манадыши),Р,TRUE,1,54.5626646047316,45.98102739685050,?,?
FVF-PLC021,?,fvf,,КПроМ-Стац-PM0410,,Кордон Про М,Семикон,"а/д Комсомольский - Атяшево - Ардатов, 20-37 км",Между с. Алашеевка и поворотом на с. Селищи (выбрать прямой участок),Р,TRUE,1,54.64162614582570,46.23202986404930,?,?
FVF-PLC022,?,fvf,,КПроМ-Стац-PM0411,,Кордон Про М,Семикон,"а/д Комсомольский - Атяшево - Ардатов, 64-77 км",После знака с. Баево 50 м (со стороны Чувашии),Р,TRUE,1,54.85236529936660,46.393386193966700,?,?
FVF-PLC023,?,fvf,,КПроМ-Стац-PM0412,,Кордон Про М,Семикон,"а/д Саранск-Ромоданово-Ичалки-Б.Игнатово, 25-40 км",От АЗС Лукойл +200м в сторону  c. Ичалки,Р,TRUE,1,54.42845731999600,45.31609504326750,?,?
FVF-PLC024,?,fvf,,Предлагаемое место МВД 24,,Модель комплекса будет известна после закупки,,"а/д Саранск-Ромоданово-Ичалки-Б.Игнатово, 70-93 км",Нет уточняющего комментария,Р,,4,54.85854529303610,45.4347042976376,?,?
FVF-PLC025,?,fvf,,Предлагаемое место МВД 25,,Модель комплекса будет известна после закупки,,"а/д М-5 Урал Москва - Рязань - Пенза - Самара -Уфа - Челябинск, подъезд к г. Саранск, 50 км",Нет уточняющего комментария,Ф (НН),,4,54.31401037376640,43.35694676196290,?,?
FVF-PLC026,?,fvf,,Предлагаемое место МВД 26,,Модель комплекса будет известна после закупки,,"а/д М-5 Урал Москва - Рязань - Пенза - Самара -Уфа - Челябинск, подъезд к г. Саранск, 124-125 км",Нет уточняющего комментария,Ф (НН),,4,54.31941729161820,44.35266857897930,?,?
FVF-PLC027,?,fvf,,Предлагаемое место МВД 27,,Модель комплекса будет известна после закупки,,"а/д М-5 Урал Москва - Рязань - Пенза - Самара -Уфа - Челябинск, подъезд к г. Саранск, 152-153 км",Нет уточняющего комментария,Ф (НН),,4,54.3586220803203,44.75143434133910,?,?
FVF-PLC028,?,fvf,,Предлагаемое место МВД 28,,Модель комплекса будет известна после закупки,,"а/д М-5 Урал Москва - Рязань - Пенза - Самара -Уфа - Челябинск, подъезд к г. Саранск, 158-162 км",Нет уточняющего комментария,Ф (НН),,4,54.329948395865800,44.82887164556880,?,?
FVF-PLC029,?,fvf,,КПроМ-Стац-PM0413,,Кордон Про М,Семикон,"а/д М-5 Урал Москва - Рязань - Пенза - Самара -Уфа - Челябинск, подъезд к г. Саранск, 168-172 км",Между первым заездом на с. Болотниково от г. Саранск и прудом,Ф (НН),TRUE,1,54.2696352487194,44.93883983154970,?,?
FVF-PLC030,?,fvf,,КПроМ-Стац-PM0414,,Кордон Про М,Семикон,"а/д М-5 Урал Москва - Рязань - Пенза - Самара -Уфа - Челябинск, подъезд к г. Саранск, 176-177 км",Напротив АЗС Башнефть (допустимо отступить в сторону г. Саранск примерно на 300-500м),Ф (НН),TRUE,1,54.23008403777050,45.030214477623700,?,?
FVF-PLC031,?,fvf,,Предлагаемое место МВД 31,,Модель комплекса будет известна после закупки,,"а/д М-5 Урал Москва - Рязань - Пенза - Самара -Уфа - Челябинск, подъезд к г. Саранск, 187-188 км",Нет уточняющего комментария,Ф (НН),TRUE,3,54.2464573514198,45.195915519774800,?,?
FVF-PLC032,?,fvf,,Предлагаемое место МВД 32,,Модель комплекса будет известна после закупки,,"а/д М-5 Урал Москва - Рязань - Пенза - Самара -Уфа - Челябинск, подъезд к г. Саранск, 193 км (район п. «Корчагинец»)",Нет уточняющего комментария,Ф (НН),TRUE,3,54.2328832208351,45.26925784307780,?,?
FVF-PLC033,?,fvf,,Предлагаемое место МВД 33,,Модель комплекса будет известна после закупки,,"а/д М-5 Урал Москва - Рязань - Пенза - Самара -Уфа - Челябинск, подъезд к г. Саранск, 195 км",Нет уточняющего комментария,Ф (НН),,4,54.21933281265780,45.28765059362750,?,?
FVF-PLC034,?,fvf,,КПроМ-Стац-PM0429,,Кордон Про М,Семикон,"а/д М-5 Урал Москва - Рязань - Пенза - Самара -Уфа - Челябинск, 456-459 км",На месте размещения Автодории (перед выездом из с. Новые выселки),Ф (Пенза),TRUE,2,53.969193798433000,43.000318940566800,?,?
FVF-PLC035,?,fvf,,Предлагаемое место МВД 35,,Модель комплекса будет известна после закупки,,"а/д Зубова Поляна-Потьма, 3-4",Нет уточняющего комментария,Р,,4,54.09124864399160,42.88082934271190,?,?
FVF-PLC036,?,fvf,,Предлагаемое место МВД 36,,Модель комплекса будет известна после закупки,,"а/д Ковылкино-Краснослободск-Ельники, 79-93 км",Нет уточняющего комментария,Р,,4,54.61714661382760,43.844153255597000,?,?
FVF-PLC037,?,fvf,,Предлагаемое место МВД 37,,Модель комплекса будет известна после закупки,,"а/д Краснослободск-Темников, 27-31 км",Нет уточняющего комментария,Р,,4,54.537918845833600,43.40946373380730,?,?
FVF-PLC038,?,fvf,,Предлагаемое место МВД 38,,Модель комплекса будет известна после закупки,,"а/д Темников-Барашево-Теньгушево,6 -11 км",Нет уточняющего комментария,Р,,4,54.591208551581200,43.186793491257800,?,?
FVF-PLC039,?,fvf,,Предлагаемое место МВД 39,,Модель комплекса будет известна после закупки,,"а/д Рузаевка-Ковылкино-Торбеево, 5-12 км",Нет уточняющего комментария,Р,,4,54.00565779948860,44.770455524338500,?,?
FVF-PLC040,?,fvf,,Предлагаемое место МВД 40,,Модель комплекса будет известна после закупки,,"а/д Рузаевка-Ковылкино-Торбеево, 45-48 км",Нет уточняющего комментария,Р,,4,53.96276023855240,44.329457446945700,?,?
FVF-PLC041,?,fvf,,КПроМ-Стац-PM0415,,Кордон Про М,Семикон,"а/д Рузаевка-Ковылкино-Торбеево, 56-62 км",Поворот на Паево +/-500м (После Адашево в сторону Ковылкино - между Адашево и Ямщина),Р,TRUE,1,53.959197941876600,44.26435480627630,?,?
FVF-PLC042,?,fvf,,КПроМ-Стац-PM0416,,Кордон Про М,Семикон,"а/д Рузаевка-Ковылкино-Торбеево, 70-78 км",Между поворотом на с. Казенный Майдан и поворотом на с. Кочелаево,Р,TRUE,1,54.00308026889580,44.05581928520290,?,?
FVF-PLC043,?,fvf,,Предлагаемое место МВД 43,,Модель комплекса будет известна после закупки,,"а/д Рузаевка-Ковылкино-Торбеево, 120-126 км",Нет уточняющего комментария,Р,,4,54.0445206409116,43.37965504828790,?,?
FVF-PLC044,?,fvf,,Предлагаемое место МВД 44,,Модель комплекса будет известна после закупки,,"а/д Саранск-Б.Березники-Дубенки, 10 км",Нет уточняющего комментария,Р,,4,54.24261158695290,46.06049077216430,?,?
FVF-PLC045,?,fvf,,Предлагаемое место МВД 45,,Модель комплекса будет известна после закупки,,"а/д Саранск-Б.Березники-Дубенки, 10 км",Нет уточняющего комментария,Р,,4,54.403213879192200,46.295237705147600,?,?
FVF-PLC046,?,fvf,,КПроМ-Стац-PM0417,,Кордон Про М,Семикон,"а/д Саранск-Рузаевка, 15-19 км",До поворота на кирзаводской карьер 200-500 м со стороны Саранска,Р,TRUE,1,54.08543191061980,45.044697736669500,?,?
FVF-PLC047,?,fvf,,КПроМ-Стац-PM0430,,Кордон Про М,Семикон,"а/д Саранск-Кочкурово, 10-19 км",Между Танеевкой и поворотом на Тавлу +-300м (выбрать прямой участок),Р,TRUE,2,54.096837964814200,45.36228292791670,?,?
FVF-PLC048,?,fvf,,Предлагаемое место МВД 48,,Модель комплекса будет известна после закупки,,"а/д Саранск-Кочкурово, 30-32 км",Нет уточняющего комментария,Р,TRUE,3,53.97521940449900,45.37209907960530,?,?
FVF-PLC049,?,fvf,,Предлагаемое место МВД 49,,Модель комплекса будет известна после закупки,,"а/д Ардатов-Большое Игнатово, 8 км",Нет уточняющего комментария,Р,,4,54.903240791769800,46.2154151648643,?,?
FVF-PLC050,?,fvf,,КПроМ-Стац-PM0418,,Кордон Про М,Семикон,а/д подъезд к г. Саранску от а/д М-5 Урал,Между АЗС Лукойл и стоянкой большегрузов (ориентир - поворот на рыбную базу +/- 500м),Ф,TRUE,1,54.246660690762000,45.19901410599300,?,?
FVF-PLC051,?,fvf,,КПроМ-Стац-PM0419,,Кордон Про М,Семикон,Волгоградская - Короленко Саранск,Установка комплекса на перекрестке Волгоградская - Короленко,М,TRUE,1,54.18625827624960,45.215225585804800,?,?
FVF-PLC052,?,fvf,,Предлагаемое место Минцифры 1,,Модель комплекса будет известна после закупки,,"г. Саранск, перекресток ул. Московская - ул. Невского",Нет уточняющего комментария,М,TRUE,3,54.16967049405710,45.18837312650290,?,?
FVF-PLC053,?,fvf,,Неработоспособный рубеж “Перекресток” 1,,Модель комплекса будет известна после закупки,,"Республика Мордовия, г.Саранск, Лямбирское шоссе, 2 км",Нет уточняющего комментария,М,TRUE,3,54.23271359888520,45.152141119049000,?,?
FVF-PLC054,?,fvf,,Неработоспособный рубеж “Перекресток” 2,,Модель комплекса будет известна после закупки,,"Республика Мордовия, г.Саранск, пер. ул.Советская и ул.Рабочая",Нет уточняющего комментария,М,TRUE,3,54.18043317352260,45.19287582735810,?,?