"node_id","inn","name","note","type","type_description","address","latitude","longitude","is_contracted","is_built","plan_2022","node_distance","cost"
"РУС01","1326233740","ГКУ РМ ""СЛУЖБА ЗАКАЗЧИКА” (112-ДДС-01 Ардатовский)","LTE","ПВ ОГВ","Прочее","г. Ардатов, ул. Ленинская, 85","54.846721","46.234204","да","нет","","?","?"
"РУС01","1326233740","ГКУ РМ ""СЛУЖБА ЗАКАЗЧИКА” (112-ЕДДС Ардатовский)","LTE","ПВ ОГВ","Прочее","г. Ардатов, ул. Комсомольская, 132","54.850329","46.243726","да","нет","","?","?"
"РУС02","1326233740","ГКУ РМ ""СЛУЖБА ЗАКАЗЧИКА” (112-ЕДДС Атюрьевский)","VLAN Районы","ПВ ОГВ","Прочее","с. Атюрьево, Парковый переулок, 1","54.322741","43.340856","да","да","","0","0"
"РУС02","1326233740","ГКУ РМ ""СЛУЖБА ЗАКАЗЧИКА” (112-ДДС-01 Атюрьевский)","ШПД ГУП","ПВ ОГВ","Прочее","с. Атюрьево, ул. Центральная, 16","54.319843","43.330507","да","нет","","?","?"
"РУС03","1326233740","ГКУ РМ ""СЛУЖБА ЗАКАЗЧИКА” (112-ДДС-01 Атяшевский)","LTE","ПВ ОГВ","Прочее","п. Атяшево, пер. Советский, 2","54.591157","46.089269","да","нет","","?","?"
"РУС03","1326233740","ГКУ РМ ""СЛУЖБА ЗАКАЗЧИКА” (112-ЕДДС Атяшевский)","VLAN Районы","ПВ ОГВ","Прочее","п. Атяшево, Центральная, 8","54.588585","46.086215","да","да","","0","0"
"РУС04","1326233740","ГКУ РМ ""СЛУЖБА ЗАКАЗЧИКА” (112-ЕДДС Большеберезниковский)","LTE","ПВ ОГВ","Прочее","с. Б. Березники, ул. Ульяновская, 19","54.174175","45.966344","да","нет","","?","?"
"РУС04","1326233740","ГКУ РМ ""СЛУЖБА ЗАКАЗЧИКА” (112-ДДС-01 Большеберезниковский)","LTE","ПВ ОГВ","Прочее","с. Б. Березники, ул. Ленина, 8","54.171803","45.969111","да","нет","","?","?"
"РУС05","1326233740","ГКУ РМ ""СЛУЖБА ЗАКАЗЧИКА” (112-ЕДДС Большеигнатовский)","VLAN Районы","ПВ ОГВ","Прочее","с. Б. Игнатово, ул. Советская, 32","55.013596","45.563872","да","да","","0","0"
"РУС05","1326233740","ГКУ РМ ""СЛУЖБА ЗАКАЗЧИКА” (112-ДДС-01 Большеигнатовский)","ШПД ГУП","ПВ ОГВ","Прочее","с. Б. Игнатово, ул. Советская, 27а","55.013647","45.567474","да","нет","","?","?"
"РУС06","1326233740","ГКУ РМ ""СЛУЖБА ЗАКАЗЧИКА” (112-ЕДДС Дубёнский)","LTE","ПВ ОГВ","Прочее","с. Дубенки, ул. Жадейкина, 9","54.431809","46.298568","да","нет","","?","?"
"РУС06","1326233740","ГКУ РМ ""СЛУЖБА ЗАКАЗЧИКА” (112-ДДС-01 Дубёнский)","LTE","ПВ ОГВ","Прочее","с. Дубенки, ул. Бровцева, 138","54.430065","46.306419","да","нет","","?","?"
"РУС07","1326233740","ГКУ РМ ""СЛУЖБА ЗАКАЗЧИКА” (112-ЕДДС Ельниковский)","VLAN Районы","ПВ ОГВ","Прочее","с. Ельники, ул. Ленина, 18","54.619755","43.868814","да","да","","0","0"
"РУС07","1326233740","ГКУ РМ ""СЛУЖБА ЗАКАЗЧИКА” (112-ДДС-01 Ельниковский)","ШПД ГУП","ПВ ОГВ","Прочее","с. Ельники, ул. Королева, 11","54.623248","43.874823","да","нет","","?","?"
"РУС08","1326233740","ГКУ РМ ""СЛУЖБА ЗАКАЗЧИКА” (112-ЕДДС Зубово-Полянский)","VLAN Районы","ПВ ОГВ","Прочее","п. Зубово-Поляна, ул. Новикова Прибоя, 4","54.078172","42.838599","да","да","","0","0"
"РУС08","1326233740","ГКУ РМ ""СЛУЖБА ЗАКАЗЧИКА” (112-ДДС-01 Зубово-Полянский)","ШПД ГУП","ПВ ОГВ","Прочее","п. Зубово-Поляна, ул. Парковая, 30","54.079926","42.830640","да","нет","","?","?"
"РУС09","1326233740","ГКУ РМ ""СЛУЖБА ЗАКАЗЧИКА” (112-ДДС-01 Инсарский)","LTE","ПВ ОГВ","Прочее","г. Инсар, ул. БИБИШЕВА 1","53.871254","44.361108","да","нет","","?","?"
"РУС09","1326233740","ГКУ РМ ""СЛУЖБА ЗАКАЗЧИКА” (112-ЕДДС Инсарский)","VLAN Районы","ПВ ОГВ","Прочее","г. Инсар, ул. Гагарина, 28","53.869115","44.368484","да","да","","0","0"
"РУС10","1326233740","ГКУ РМ ""СЛУЖБА ЗАКАЗЧИКА” (112-ДДС-01 Ичалковский)","LTE","ПВ ОГВ","Прочее","п. Кемля, ул. Первомайская, 1","54.695190","45.266799","да","нет","","?","?"
"РУС10","1326233740","ГКУ РМ ""СЛУЖБА ЗАКАЗЧИКА” (112-ЕДДС Ичалковский)","VLAN Районы","ПВ ОГВ","Прочее","п. Кемля, ул.Советская,62","54.694462","45.256810","да","да","","0","0"
"РУС11","1326233740","ГКУ РМ ""СЛУЖБА ЗАКАЗЧИКА” (112-ЕДДС Кадошкинский)","LTE","ПВ ОГВ","Прочее","п. Кадошкино, ул. Гражданская, 50","54.020749","44.419059","да","нет","","?","?"
"РУС11","1326233740","ГКУ РМ ""СЛУЖБА ЗАКАЗЧИКА” (112-ДДС-01 Кадошкинский)","ШПД ГУП","ПВ ОГВ","Прочее","п. Кадошкино, ул. Болдина, 28","54.027080","44.416597","да","нет","","?","?"
"РУС12","1326233740","ГКУ РМ ""СЛУЖБА ЗАКАЗЧИКА” (112-ДДС-01 Ковылкинский)","LTE","ПВ ОГВ","Прочее","г. Ковылкино, ул. Советская, 11","54.035896","43.919946","да","нет","","?","?"
"РУС12","1326233740","ГКУ РМ ""СЛУЖБА ЗАКАЗЧИКА” (112-ЕДДС Ковылкинский)","ШПД Абонент","ПВ ОГВ","Прочее","г. Ковылкино, ул. Пролетарская, 70","54.040835","43.921599","да","нет","","?","?"
"РУС13","1326233740","ГКУ РМ ""СЛУЖБА ЗАКАЗЧИКА” (112-ДДС-01 Кочкуровский)","LTE","ПВ ОГВ","Прочее","с. Кочкурово, ул. Советская, 71","54.049182","45.441863","да","нет","","?","?"
"РУС13","1326233740","ГКУ РМ ""СЛУЖБА ЗАКАЗЧИКА” (112-ЕДДС Кочкуровский)","VLAN Районы","ПВ ОГВ","Прочее","с. Кочкурово, ул.Советская, 16","54.037176","45.434425","да","да","","0","0"
"РУС14","1326233740","ГКУ РМ ""СЛУЖБА ЗАКАЗЧИКА” (112-ДДС-01 Краснослободский)","LTE","ПВ ОГВ","Прочее","г. Краснослободск, ул. К.Маркса, 21","54.423885","43.790103","да","нет","","?","?"
"РУС14","1326233740","ГКУ РМ ""СЛУЖБА ЗАКАЗЧИКА” (112-ЕДДС Краснослободский)","VLAN Районы","ПВ ОГВ","Прочее","г. Краснослободск, ул. Интернациональная, 64","54.423523","43.793831","да","да","","0","0"
"РУС15","1326233740","ГКУ РМ ""СЛУЖБА ЗАКАЗЧИКА” (112-ДДС-01 Лямбирский)","LTE","ПВ ОГВ","Прочее","с. Лямбирь, ул. Советская, 1","54.279780","45.124173","да","нет","","?","?"
"РУС15","1326233740","ГКУ РМ ""СЛУЖБА ЗАКАЗЧИКА” (112-ЕДДС Лямбирский)","VLAN Районы","ПВ ОГВ","Прочее","с. Лямбирь, ул. Ленина, 13","54.288127","45.120526","да","да","","0","0"
"РУС16","1326233740","ГКУ РМ ""СЛУЖБА ЗАКАЗЧИКА” (112-ДДС-01 Рузаевка)","LTE","ПВ ОГВ","Прочее","г. Рузаевка, ул. 40 Лет Победы, 8","54.078817","44.949774","да","нет","","?","?"
"РУС16","1326233740","ГКУ РМ ""СЛУЖБА ЗАКАЗЧИКА” (112-ЕДДС Рузаевский)","VLAN Районы","ПВ ОГВ","Прочее","г. Рузаевка, ул. Ленина, 61","54.058469","44.949613","да","да","","0","0"
"РУС17","1326233740","ГКУ РМ ""СЛУЖБА ЗАКАЗЧИКА” (112-ЕДДС Ромодановский)","LTE","ПВ ОГВ","Прочее","п. Ромоданово, ул. Ленина, 165","54.424917","45.334316","да","нет","","?","?"
"РУС17","1326233740","ГКУ РМ ""СЛУЖБА ЗАКАЗЧИКА” (112-ДДС-01 Ромодановский)","LTE","ПВ ОГВ","Прочее","п. Ромоданово, ул. Полежаева, 33","54.422491","45.324498","да","нет","","?","?"
"РУС18","1326233740","ГКУ РМ ""СЛУЖБА ЗАКАЗЧИКА” (112-ДДС-01 Старошайговский)","LTE","ПВ ОГВ","Прочее","с. Ст. Шайгово, ул. Пионерская, 1а","54.311739","44.472949","да","нет","","?","?"
"РУС18","1326233740","ГКУ РМ ""СЛУЖБА ЗАКАЗЧИКА” (112-ЕДДС Старошайговский)","ШПД Абонент","ПВ ОГВ","Прочее","с. Ст. Шайгово, ул. Ленина, 9","54.304248","44.467846","да","нет","","?","?"
"РУС19","1326233740","ГКУ РМ ""СЛУЖБА ЗАКАЗЧИКА” (112-ДДС-01 Темниковский)","LTE","ПВ ОГВ","Прочее","г. Темников, ул. Октябрьская, 26","54.629768","43.213852","да","нет","","?","?"
"РУС19","1326233740","ГКУ РМ ""СЛУЖБА ЗАКАЗЧИКА” (112-ЕДДС Темниковский)","VLAN Районы","ПВ ОГВ","Прочее","г. Темников, ул. Кирова, 26","54.628127","43.204456","да","да","","0","0"
"РУС20","1326233740","ГКУ РМ ""СЛУЖБА ЗАКАЗЧИКА” (112-ДДС-01 Теньгушевский)","LTE","ПВ ОГВ","Прочее","с. Теньгушево, ул. Ленина, 123","54.763212","42.711550","да","нет","","?","?"
"РУС20","1326233740","ГКУ РМ ""СЛУЖБА ЗАКАЗЧИКА” (112-ЕДДС Теньгушевский)","VLAN Районы","ПВ ОГВ","Прочее","с. Теньгушево, ул. Социалистическая, 45","54.769326","42.719527","да","да","","0","0"
"РУС21","1326233740","ГКУ РМ ""СЛУЖБА ЗАКАЗЧИКА” (112-ДДС-01 Торбеевский)","LTE","ПВ ОГВ","Прочее","п. Торбеево, 3-й Микрорайон, д. 9","54.082995","43.254501","да","нет","","?","?"
"РУС21","1326233740","ГКУ РМ ""СЛУЖБА ЗАКАЗЧИКА” (112-ЕДДС Торбеевский)","VLAN Районы","ПВ ОГВ","Прочее","п. Торбеево, ул. К.Маркса, 7","54.074849","43.245446","да","да","","0","0"
"РУС22","1326233740","ГКУ РМ ""СЛУЖБА ЗАКАЗЧИКА” (112-ДДС-01 Чамзинский)","LTE","ПВ ОГВ","Прочее","п. Комсомольский, ул. Парковая, 1","52.762245","41.288681","да","нет","","?","?"
"РУС22","1326233740","ГКУ РМ ""СЛУЖБА ЗАКАЗЧИКА” (112-ЕДДС Чамзинский)","VLAN Районы","ПВ ОГВ","Прочее","пгт. Чамзинка, ул. Победы, д. 1","54.404295","45.774652","да","да","","0","0"
"УС01","1300050357","АДМИНИСТРАЦИЯ ГЛАВЫ РМ","","ОГВ","","г. Саранск Ул. СОВЕТСКАЯ 35","54.181600","45.186373","да","да","","0","0"
"УС01","1325039482","МП ГОРОДСКОГО ОКРУГА САРАНСК ""РАДУГА - РИТУАЛЬНЫЕ УСЛУГИ""","","ПВ ОМСУ","Прочее","г. Саранск Ул. СТРОИТЕЛЬНАЯ 2","54.204267","45.177866","нет","нет","да","390","97500"
"УС01","1325046232","ГБУК ""МОРДОВСКАЯ ГОСУДАРСТВЕННАЯ ФИЛАРМОНИЯ - РЕСПУБЛИКАНСКИЙ ДВОРЕЦ КУЛЬТУРЫ""","","ПВ ОГВ","Прочее","г. Саранск Ул. ПРОЛЕТАРСКАЯ 39","54.185673","45.178099","нет","нет","","330","82500"
"УС01","1325128809","МУ ""АВТОБАЗА АДМИНИСТРАЦИИ ГОРОДСКОГО ОКРУГА САРАНСК""","","ПВ ОМСУ","Прочее","г. Саранск Ул. КРУПСКОЙ 25","54.182211","45.195482","нет","нет","","350","87500"
"УС01","1326000463","ГБУК ""МОРДОВСКИЙ ГОСУДАРСТВЕННЫЙ НАЦИОНАЛЬНЫЙ ДРАМАТИЧЕСКИЙ ТЕАТР""","","ПВ ОГВ","Прочее","г. Саранск Ул. СОВЕТСКАЯ 27","54.180720","45.191592","нет","нет","","700","175000"
"УС01","1326002012","ГБУК ""МОРДОВСКИЙ ГОСУДАРСТВЕННЫЙ АНСАМБЛЬ ПЕСНИ И ТАНЦА ""УМАРИНА""","","ПВ ОГВ","Прочее","г. Саранск Ул. ПРОЛЕТАРСКАЯ 39","54.185673","45.178099","нет","нет","","400","100000"
"УС01","1326022788","ГБУК ""ГОСУДАРСТВЕННЫЙ РУССКИЙ ДРАМАТИЧЕСКИЙ ТЕАТР РМ""","","ПВ ОГВ","Прочее","г. Саранск Ул. СОВЕТСКАЯ 60","54.181115","45.175054","нет","нет","да","220","55000"
"УС01","1326028941","МБУК ""ГОРОДСКОЙ ДЕТСКИЙ ЦЕНТР ТЕАТРА И КИНО ""КРОШКА""","","ПВ ОМСУ","Прочее","г. Саранск Ул. ПОЛЕЖАЕВА 159Г","54.19033","45.166852","нет","нет","","100","25000"
"УС01","1326036501","МАОУ ""ПРОГИМНАЗИЯ № 119""","","ПВ ОМСУ","Школы","г. Саранск Ул. Б.ХМЕЛЬНИЦКОГО 37","54.187469","45.189661","нет","нет","","120","30000"
"УС01","1326045383","ГБУЗ РМ ""РЕСПУБЛИКАНСКАЯ КЛИНИЧЕСКАЯ БОЛЬНИЦА ИМЕНИ С.В. КАТКОВА” (поликлиническое отделение 1)","","ПВ ОГВ","ЛПУ","г. Саранск Ул. БОТЕВГРАДСКАЯ 21","54.182612","45.172152","нет","да","","0","0"
"УС01","1326045383","ГБУЗ РМ ""РЕСПУБЛИКАНСКАЯ КЛИНИЧЕСКАЯ БОЛЬНИЦА ИМЕНИ С.В. КАТКОВА” (хирургический корпус)","","ПВ ОГВ","ЛПУ","г. Саранск Ул. КОММУНИСТИЧЕСКАЯ 64","54.184282","45.170185","нет","да","","0","0"
"УС01","1326045383","ГБУЗ РМ ""РЕСПУБЛИКАНСКАЯ КЛИНИЧЕСКАЯ БОЛЬНИЦА ИМЕНИ С.В. КАТКОВА” (поликлиническое отделение 2)","","ПВ ОГВ","ЛПУ","г. Саранск Ул. СОВЕТСКАЯ 79","54.181932","45.17226","нет","да","","0","0"
"УС01","1326045792","ГАУЗ РМ “РВФД"" (отделение 1)","","ПВ ОГВ","ЛПУ","г. Саранск Ул. БОТЕВГРАДСКАЯ 25","54.183276","45.172368","нет","да","","0","0"
"УС01","1326047246","ГБУК ""МОРДОВСКИЙ РЕСПУБЛИКАНСКИЙ МУЗЕЙ  ИЗОБРАЗИТЕЛЬНЫХ ИСКУССТВ ИМЕНИ С.Д.ЭРЬЗИ""","","ПВ ОГВ","Прочее","г. Саранск Ул. КОММУНИСТИЧЕСКАЯ 61","54.185199","45.179833","нет","нет","да","100","25000"
"УС01","1326134121","ГБУЗ РМ ""СТАНЦИЯ СКОРОЙ МЕДИЦИНСКОЙ ПОМОЩИ""","","ПВ ОГВ","ЛПУ","г. Саранск Ул. КОММУНИСТИЧЕСКАЯ 86","54.18396084073580","45.16497665872080","нет","да","","0","0"
"УС01","1326134160","ГАОУДПО РМ ""МРЦПКСЗ""","","ПВ ОГВ","Прочее","г. Саранск Ул. КОММУНИСТИЧЕСКАЯ 66","54.184456","45.167831","нет","нет","","390","97500"
"УС01","1326134450","ГОСУКС РМ","","ПВ ОГВ","Прочее","г. Саранск Ул. СТЕПАНА РАЗИНА 17","54.1867832347858","45.16631650793420","да","да","","0","0"
"УС01","1326135164","МДОУ ""ДЕТСКИЙ САД №40""","","ПВ ОМСУ","Дет. сады","г. Саранск Ул. СТЕПАНА РАЗИНА 40А","54.188971","45.168658","нет","нет","","130","32500"
"УС01","1326135510","МДОУ ""ДЕТСКИЙ САД №1""","","ПВ ОМСУ","Дет. сады","г. Саранск Ул. РАБОЧАЯ 7","54.181547","45.193694","нет","нет","","250","62500"
"УС01","1326135735","МОУ ""ГИМНАЗИЯ № 19""","","ПВ ОМСУ","Школы","г. Саранск Ул. КОММУНИСТИЧЕСКАЯ 103","54.185457","45.164032","да","да","","0","0"
"УС01","1326136016","ГБПОУ РМ ""САРАНСКИЙ МЕДИЦИНСКИЙ КОЛЛЕДЖ""","","ПВ ОГВ","Прочее","г. Саранск Ул. СТЕПАНА РАЗИНА 21","54.187954","45.166628","нет","нет","","100","25000"
"УС01","1326136947","ГБУЗ РМ ""ДЕТСКАЯ ПОЛИКЛИНИКА №1” (отделение 1)","","ПВ ОГВ","ЛПУ","г. Саранск Ул. СТЕПАНА РАЗИНА 19","54.187369","45.166664","нет","нет","","360","90000"
"УС01","1326137041","ГКУ РМ “НИИ ГУМАНИТАРНЫХ НАУК ПРИ ПРАВИТЕЛЬСТВЕ РМ”","","ПВ ОГВ","Прочее","г. Саранск Ул. Л.ТОЛСТОГО 3","54.182522","45.185313","нет","нет","","100","25000"
"УС01","1326137281","ГКУЗ РМ ""РБ СМЭ""","","ПВ ОГВ","ЛПУ","г. Саранск Ул. БОЛЬШЕВИСТСКАЯ 120","54.197631","45.182905","нет","нет","","100","25000"
"УС01","1326137612","МОУ ""ГИМНАЗИЯ № 20 ИМЕНИ ГЕРОЯ СОВЕТСКОГО СОЮЗА В.Б. МИРОНОВА""","","ПВ ОМСУ","Школы","г. Саранск Ул. СОВЕТСКАЯ 77","54.181974","45.173608","нет","да","","0","0"
"УС01","1326140397","ГБУК ""МОРДОВСКИЙ РЕСПУБЛИКАНСКИЙ ОБЪЕДИНЕННЫЙ КРАЕВЕДЧЕСКИЙ МУЗЕЙ ИМЕНИ И.Д.ВОРОНИНА""","","ПВ ОГВ","Прочее","г. Саранск Ул. САРАНСКАЯ 2","54.177748","45.179689","да","да","","0","0"
"УС01","1326141231","МБУДО ""ДХШ № 1 ИМ. П.Ф. РЯБОВА""","","ПВ ОМСУ","Школы","г. Саранск Ул. МОСКОВСКАЯ 5","54.179197","45.185546","нет","нет","","100","25000"
"УС01","1326141263","ГБУ РМ ""СПОРТИВНАЯ ШКОЛА ОЛИМПИЙСКОГО РЕЗЕРВА СПОРТИВНОЙ БОРЬБЫ И ДЗЮДО А.В. МИШИНА""","","ПВ ОГВ","Спорт","г. Саранск Ул. ПРОЛЕТАРСКАЯ 39","54.185673","45.178099","да","нет","","400","100000"
"УС01","1326141986","МДОУ ""ДЕТСКИЙ САД №32""","","ПВ ОМСУ","Дет. сады","г. Саранск Ул. ФЕДОСЕЕНКО 10","54.193238","45.182258","нет","нет","","100","25000"
"УС01","1326143567","МБУК ""ЦГБС ДЛЯ ДЕТЕЙ""","","ПВ ОМСУ","Прочее","г. Саранск Ул. ПОЛЕЖАЕВА 70","54.189608","45.164598","нет","нет","","100","25000"
"УС01","1326183136","МАДОУ ""ЦЕНТР РАЗВИТИЯ РЕБЕНКА - ДЕТСКИЙ САД № 73""","","ПВ ОМСУ","Дет. сады","г. Саранск Ул. ФЕДОСЕЕНКО 12","54.193259","45.180947","нет","нет","","160","40000"
"УС01","1326183993","КУ ""ГОРОДСКОЕ ЖИЛИЩНОЕ АГЕНТСТВО""","","ПВ ОМСУ","Прочее","г. Саранск Ул. ПОЛЕЖАЕВА 161","54.190520","45.164714","нет","нет","","400","100000"
"УС01","1326186232","МП ГОРОДСКОГО ОКРУГА САРАНСК ""ГОРОДСКОЙ ЗООПАРК""","","ПВ ОМСУ","Прочее","г. Саранск Ул. Первомайская 6","54.17373854711460","45.18476901206570","нет","нет","","290","72500"
"УС01","1326186465","ГБУ РМ ""КОМПЛЕКСНАЯ СПОРТИВНАЯ ШКОЛА ОЛИМПИЙСКОГО РЕЗЕРВА""","","ПВ ОГВ","Спорт","г. Саранск Ул. ТЕРЕШКОВОЙ 24А","54.191942","45.168981","да","нет","","550","137500"
"УС01","1326186480","ГБУК ""РЕСПУБЛИКАНСКИЙ ДОМ НАРОДНОГО ТВОРЧЕСТВА""","","ПВ ОГВ","Прочее","г. Саранск Ул. ПРОЛЕТАРСКАЯ 39","54.185673","45.178099","нет","нет","","400","100000"
"УС01","1326192268","Управление Росреестра по Республике Мордовия","","Прочее","","г. Саранск Ул. СТЕПАНА РАЗИНА 17","54.1867832347858","45.16631650793420","нет","да","да","0","0"
"УС01","1326193913","ГКАУ ""ГАДЛС РМ""","","ПВ ОГВ","Прочее","г. Саранск Ул. САРАНСКАЯ 2","54.177748","45.179689","да","да","да","0","0"
"УС01","1326196375","Территориальный Орган Росздравнадзора по Республике Мордовия","","Прочее","","г. Саранск Ул. ВАСЕНКО 11","54.195171","45.169143","нет","да","да","0","0"
"УС01","1326196801","КУ Г.О. САРАНСК ""ГОРОДСКАЯ НЕДВИЖИМОСТЬ""","","ПВ ОМСУ","Прочее","г. Саранск Ул. СОВЕТСКАЯ 75А","54.182448","45.17509","нет","нет","","130","32500"
"УС01","1326198767","СЧЕТНАЯ ПАЛАТА РМ","","ОГВ","","г. Саранск Ул. СОВЕТСКАЯ 35","54.181600","45.186373","да","да","","0","0"
"УС01","1326199753","ГБУ РМ ""СПОРТИВНАЯ ШКОЛА ОЛИМПИЙСКОГО РЕЗЕРВА ПО ХОККЕЮ""","","ПВ ОГВ","Спорт","г. Саранск Ул. КРАСНАЯ 40","54.177590","45.190792","да","нет","","980","245000"
"УС01","1326200279","ГАУ ""ГОСЭКСПЕРТИЗА РМ""","","ПВ ОГВ","Прочее","г. Саранск Ул. СОВЕТСКАЯ 109","54.182591","45.166807","да","да","","0","0"
"УС01","1326201272","ГАУ РМ ""ЛЕДОВЫЙ ДВОРЕЦ""","","ПВ ОГВ","Спорт","г. Саранск Ул. КРАСНАЯ 40","54.177590","45.190792","да","нет","","980","245000"
"УС01","1326201635","МП ГОРОДСКОГО ОКРУГА САРАНСК ""ДЕТСКАЯ ПИЩЕВАЯ СТАНЦИЯ""","","ПВ ОМСУ","Прочее","г. Саранск Ул. ПОЛЕЖАЕВА 159Б","54.191468","45.166709","нет","нет","","100","25000"
"УС01","1326206383","ГУП РМ ""КОМБИНАТ ПИТАНИЯ ""МОРДОВИЯ""","","ПВ ОГВ","Прочее","г. Саранск Ул. СОВЕТСКАЯ 35","54.181600","45.186373","да","да","","0","0"
"УС01","1326209433","МБУК ""ДВОРЕЦ КУЛЬТУРЫ Г. О. САРАНСК""","","ПВ ОМСУ","Прочее","г. Саранск Ул. ТИТОВА 23","54.186005","45.162379","нет","нет","","330","82500"
"УС01","1326209761","ГКУ ""СОЦЗАЩИТА НАСЕЛЕНИЯ ПО Г.О. САРАНСК""","","ПВ ОГВ","Прочее","г. Саранск Ул. ПРОЛЕТАРСКАЯ 21","54.180999","45.177174","да","да","","0","0"
"УС01","1326211136","МАУК ""ГОРОДСКИЕ ПАРКИ""","","ПВ ОМСУ","Прочее","г. Саранск Ул. КРАСНОАРМЕЙСКАЯ 12","54.175271","45.181639","нет","нет","","210","52500"
"УС01","1326222642","ГАУ ""ФОЛЬКЛОРНЫЙ АНСАМБЛЬ ""ТОРАМА""","","ПВ ОГВ","Прочее","г. Саранск Ул. СОВЕТСКАЯ 27","54.18072","45.191592","нет","нет","","280","70000"
"УС01","1326233531","ГКУ РМ ""УПРАВЛЕНИЕ ПО ОБЕСПЕЧЕНИЮ ДЕЯТЕЛЬНОСТИ ЖКК РМ""","","ПВ ОГВ","Прочее","г. Саранск Пр. ЛЕНИНА 2","54.182396","45.186274","да","да","","0","0"
"УС01","1326235232","МАДОУ ""ЦЕНТР РАЗВИТИЯ РЕБЕНКА-ДЕТСКИЙ САД № 2""","","ПВ ОМСУ","Дет. сады","г. Саранск Ул. МОРДОВСКАЯ 1","54.17437","45.18269","нет","нет","","215","53750"
"УС01","1326251107","МБУ Г.О. САРАНСК ""УЮТ""","","ПВ ОМСУ","Прочее","г. Саранск Пр. ЛЕНИНА 42б","54.196172","45.186732","нет","нет","","240","60000"
"УС01","1326252534","ГКУ РМ ""ЦБ УЧРЕЖДЕНИЙ МИНСПОРТА РМ""","","ПВ ОГВ","Спорт","г. Саранск Ул. КРАСНАЯ 22","54.177226","45.194251","нет","нет","","900","225000"
"УС01","1326254620","МАДОУ ""ЦЕНТР РАЗВИТИЯ РЕБЕНКА - ДЕТСКИЙ САД № 10""","","ПВ ОМСУ","Дет. сады","г. Саранск Ул. Б.ХМЕЛЬНИЦКОГО 96","54.17840848975270","45.12309492565910","нет","нет","","240","60000"
"УС01","1327007790","ГБУ РМ ""КОМПЛЕКСНЫЙ ЦЕНТР СОЦИАЛЬНОГО ОБСЛУЖИВАНИЯ ПО ГОРОДСКОМУ ОКРУГУ САРАНСК""","","ПВ ОГВ","Прочее","г. Саранск Ул. СОВЕТСКАЯ 65","54.181674","45.175566","да","да","","0","0"
"УС01","1327007976","ООО “Спектр"" (Поликлиника Ким)","","Прочее","","г. Саранск Ул. ВАСЕНКО 11","54.195171","45.169143","нет","да","да","0","0"
"УС01","1328048044","МОУ ""СРЕДНЯЯ ШКОЛА № 6""","","ПВ ОМСУ","Школы","г. Саранск Ул. РАБОЧАЯ 33А","54.164666","45.218272","нет","нет","","1400","350000"
"УС01","1328160582","МДОУ ""ДЕТСКИЙ САД №83 КОМБИНИРОВАННОГО ВИДА""","","ПВ ОМСУ","Дет. сады","г. Саранск Ул. РАБОЧАЯ 31","54.16587943582290","45.21860166731980","нет","нет","","120","30000"
"УС01","1328166746","ГУП РМ ""ЛУХОВСКОЕ""","","ПВ ОГВ","Прочее","г. Саранск Ул. КРУПСКОЙ 127","54.132920","45.252534","нет","нет","","5000","1250000"
"УС02","1300050357","АДМИНИСТРАЦИЯ ГЛАВЫ РМ (Сенатор)","","ОГВ","","г. Саранск Ул. СОВЕТСКАЯ 26","54.18024","45.188816","да","да","","0","0"
"УС02","1325031067","ГБУ РМ ""ФОНД ИМУЩЕСТВА""","","ПВ ОГВ","Прочее","г. Саранск Ул. СОВЕТСКАЯ 26","54.18024","45.188816","да","да","","0","0"
"УС02","1325031476","ГОСКОМИМУЩЕСТВО РМ","","ОГВ","","г. Саранск Ул. СОВЕТСКАЯ 26","54.18024","45.188816","да","да","","0","0"
"УС02","1325126350","ЦЕНТРАЛЬНАЯ ИЗБИРАТЕЛЬНАЯ КОМИССИЯ РМ","","ОГВ","","г. Саранск Ул. СОВЕТСКАЯ 26","54.18024","45.188816","нет","да","да","0","0"
"УС02","1326135968","МИНЭКОНОМИКИ РМ","","ОГВ","","г. Саранск Ул. СОВЕТСКАЯ 26","54.18024","45.188816","да","да","","0","0"
"УС02","1326221529","АППАРАТ ГОСУДАРСТВЕННОГО СОБРАНИЯ РМ","","ОГВ","","г. Саранск Ул. СОВЕТСКАЯ 26","54.18024","45.188816","да","да","","0","0"
"УС02","1326250209","ГКУ РМ ""РЕГИОНАЛЬНЫЙ ЦЕНТР ОРГАНИЗАЦИИ ЗАКУПОК""","","ПВ ОГВ","Прочее","г. Саранск Ул. СОВЕТСКАЯ 26","54.18024","45.188816","да","да","","0","0"
"УС02","1328160293","ГБУЗ РМ ""РОДИЛЬНЫЙ ДОМ” (Женская консультация №1)","","ПВ ОГВ","ЛПУ","г. Саранск Ул. ВОЛОДАРСКОГО 2","54.1814","45.189265","нет","нет","","250","62500"
"УС03","1300002949","ГУП РМ ""ФАРМАЦИЯ""","","ПВ ОГВ","ЛПУ","г. Саранск Ул. 1-АЯ ПРОМЫШЛЕННАЯ 8","54.232548","45.174111","нет","нет","","980","245000"
"УС03","1325012787","МП ГОРОДСКОГО ОКРУГА САРАНСК ""КАДАСТР""","","ПВ ОМСУ","Прочее","г. Саранск Пр. ЛЕНИНА 4","54.182475","45.186993","нет","нет","","100","25000"
"УС03","1325031067","ГБУ РМ ""ФОНД ИМУЩЕСТВА""","","ПВ ОГВ","Прочее","г. Саранск Ул. БОЛЬШЕВИСТСКАЯ 81А","54.190662","45.184091","нет","да","да","0","0"
"УС03","1325031067","ГБУ РМ ""ФОНД ИМУЩЕСТВА""","","ПВ ОГВ","Прочее","г. Саранск Ул. МОСКОВСКАЯ 14","54.177427","45.18648","нет","да","да","0","0"
"УС03","1325031645","ГБУЗ РМ ""РЕСПУБЛИКАНСКАЯ КЛИНИЧЕСКАЯ БОЛЬНИЦА №1""","","ПВ ОГВ","ЛПУ","г. Саранск Ул. Л.ТОЛСТОГО 57","54.190198","45.186058","нет","нет","","300","75000"
"УС03","1325031645","ГБУЗ РМ ""РЕСПУБЛИКАНСКАЯ КЛИНИЧЕСКАЯ БОЛЬНИЦА №1” (поликлиническое отделение №2)","","ПВ ОГВ","ЛПУ","г. Саранск Ул. ПРОЛЕТАРСКАЯ 87","54.194265","45.178674","нет","да","","0","0"
"УС03","1325033434","СОЮЗ ""ТОРГОВО-ПРОМЫШЛЕННАЯ ПАЛАТА РЕСПУБЛИКИ МОРДОВИЯ""","","Прочее","","г. Саранск Ул. МОСКОВСКАЯ 14","54.177427","45.18648","да","да","да","0","0"
"УС03","1325126174","АДМИНИСТРАЦИЯ ГОРОДСКОГО ОКРУГА САРАНСК","","ОМСУ","","г. Саранск Ул. СОВЕТСКАЯ 30","54.180599","45.185420","да","да","да","0","0"
"УС03","1325127361","КУ Г.О. САРАНСК ""ДИРЕКЦИЯ КОММУНАЛЬНОГО ХОЗЯЙСТВА И БЛАГОУСТРОЙСТВА""","","ПВ ОМСУ","Прочее","г. Саранск Ул. ТЕРЕШКОВОЙ 5","54.192690","45.178863","да","да","да","0","0"
"УС03","1326022770","ГБУК ""ГОСУДАРСТВЕННЫЙ ТЕАТР КУКОЛ РМ""","","ПВ ОГВ","Прочее","г. Саранск Ул. ВОЛОДАРСКОГО 90 А","54.191921","45.18975","нет","нет","","100","25000"
"УС03","1326024626","ГБПОУ РМ ""САРАНСКИЙ ТЕХНИКУМ ЭНЕРГЕТИКИ И ЭЛЕКТРОННОЙ ТЕХНИКИ ИМ. А.И. ПОЛЕЖАЕВА""","","ПВ ОГВ","Прочее","г. Саранск Пр. ЛЕНИНА 10","54.185399","45.186894","нет","нет","","100","25000"
"УС03","1326024954","ГАУЗ РМ ""МИАЦ""","","ПВ ОГВ","ЛПУ","г. Саранск Ул. ГОЖУВСКАЯ 27А","54.194671","45.242733","да","нет","","390","97500"
"УС03","1326038210","ГБУЗ РМ ""РЕСПУБЛИКАНСКИЙ ГЕРИАТРИЧЕСКИЙ ЦЕНТР""","","ПВ ОГВ","ЛПУ","г. Саранск Пр. ЛЕНИНА 31","54.191932","45.188753","нет","нет","","270","67500"
"УС03","1326045792","ГАУЗ РМ “РВФД"" (отделение 2)","","ПВ ОГВ","ЛПУ","г. Саранск Пр. ЖУКОВСКОГО 10","54.19151","45.185609","да","нет","","200","50000"
"УС03","1326045792","ГАУЗ РМ “РВФД"" (отделение 3)","","ПВ ОГВ","ЛПУ","г. Саранск Ул. ПРОЛЕТАРСКАЯ 92А","54.188718","45.176806","да","да","","0","0"
"УС03","1326045802","ГБУЗ РМ ""ДЕТСКАЯ ПОЛИКЛИНИКА №2” (отделение 1)","","ПВ ОГВ","ЛПУ","г. Саранск Ул. ПОПОВА 73","54.173158","45.127282","нет","нет","","200","50000"
"УС03","1326048176","МОУ ""ЛИЦЕЙ № 4""","","ПВ ОМСУ","Школы","г. Саранск Ул. Б.ХМЕЛЬНИЦКОГО 57","54.187217","45.176069","да","да","","0","0"
"УС03","1326048497","МБУК ""МЕМОРИАЛЬНЫЙ МУЗЕЙ В И ТП 1941-1945 ГГ.""","","ПВ ОМСУ","Прочее","г. Саранск Ул. СОВЕТСКАЯ 34А","54.180483","45.184037","нет","да","да","0","0"
"УС03","1326048507","ГКУ РМ ""ЦЗН САРАНСКИЙ""","","ПВ ОГВ","Прочее","г. Саранск Ул. ХАЛТУРИНА 74","54.187996","45.174775","да","да","да","0","0"
"УС03","1326049170","ГБПОУ РМ ""САРАНСКИЙ ГОСУДАРСТВЕННЫЙ ПРОМЫШЛЕННО-ЭКОНОМИЧЕСКИЙ КОЛЛЕДЖ""","","ПВ ОГВ","Прочее","г. Саранск Пр. ЛЕНИНА 24","54.190177","45.187469","нет","нет","да","200","50000"
"УС03","1326136400","МДОУ ""ДЕТСКИЙ САД №43""","","ПВ ОМСУ","Дет. сады","г. Саранск Ул. ПОЛЕЖАЕВА 54А","54.188602","45.174784","нет","нет","","120","30000"
"УС03","1326136908","ГБПОУ РМ ""САРАНСКИЙ ПОЛИТЕХНИЧЕСКИЙ ТЕХНИКУМ""","","ПВ ОГВ","Прочее","г. Саранск Ул. ВОЛОДАРСКОГО 20","54.182322","45.189292","нет","нет","да","300","75000"
"УС03","1326136947","ГБУЗ РМ ""ДЕТСКАЯ ПОЛИКЛИНИКА №1” (отделение 2)","","ПВ ОГВ","ЛПУ","г. Саранск Ул. БОТЕВГРАДСКАЯ 86","54.190472","45.171820","нет","нет","","400","100000"
"УС03","1326137066","ГБУЗ РМ ""ДЕТСКАЯ СТОМАТОЛОГИЧЕСКАЯ ПОЛИКЛИНИКА” (отделение 1)","","ПВ ОГВ","ЛПУ","г. Саранск Ул. БОТЕВГРАДСКАЯ 77","54.188808","45.173176","нет","нет","","200","50000"
"УС03","1326137436","МОУ ""СРЕДНЯЯ ШКОЛА №16""","","ПВ ОМСУ","Школы","г. Саранск Ул. БОТЕВГРАДСКАЯ 102","54.191315","45.171326","нет","нет","","120","30000"
"УС03","1326137891","ГКОУ РМ ""САРАНСКАЯ ОБЩЕОБРАЗОВАТЕЛЬНАЯ ШКОЛА-ИНТЕРНАТ ДЛЯ ДЕТЕЙ С НАРУШЕНИЯМИ СЛУХА""","","ПВ ОГВ","Прочее","г. Саранск Пр. 50 ЛЕТ ОКТЯБРЯ 32","54.173332","45.139373","нет","нет","","740","185000"
"УС03","1326140037","МУДО ""СДЮСШ № 4""","","ПВ ОМСУ","Школы","г. Саранск Пр. ЛЕНИНА 1 А","54.181479","45.188376","нет","нет","","100","25000"
"УС03","1326140735","ГКУ РМ ДО ""РДМШИ""","","ПВ ОГВ","Прочее","г. Саранск Ул. Б.ХМЕЛЬНИЦКОГО 70","54.186558","45.163502","нет","нет","","270","67500"
"УС03","1326143574","МБУК ""ЦГБС ДЛЯ ВЗРОСЛЫХ""","","ПВ ОМСУ","Прочее","г. Саранск Ул. ЭНГЕЛЬСА 9А","54.174428","45.129779","нет","нет","","1800","450000"
"УС03","1326165144","ГБУЗ РМ ""ДЕТСКАЯ ПОЛИКЛИНИКА №4” (отделение 1)","","ПВ ОГВ","ЛПУ","г. Саранск Ул. Волгоградская 92","54.186237","45.226914","нет","нет","","300","75000"
"УС03","1326165144","ГБУЗ РМ ""ДЕТСКАЯ ПОЛИКЛИНИКА №4” (отделение 2)","","ПВ ОГВ","ЛПУ","г. Саранск Ул. ГОЖУВСКАЯ 27А","54.194671","45.242733","нет","нет","","390","97500"
"УС03","1326176724","ГОСУДАРСТВЕННАЯ БЮДЖЕТНАЯ ОРГАНИЗАЦИЯ ДОПОЛНИТЕЛЬНОГО ОБРАЗОВАНИЯ РМ ""РЕСПУБЛИКАНСКИЙ ЦЕНТР ДОПОЛНИТЕЛЬНОГО ОБРАЗОВАНИЯ ДЕТЕЙ""","","ПВ ОГВ","Прочее","г. Саранск Ул. НАБЕРЕЖНАЯ 1-Я 27","54.179729","45.128386","нет","нет","","1600","400000"
"УС03","1326179676","МУ ""РЕМОНТНО-СТРОИТЕЛЬНАЯ СЛУЖБА""","","ПВ ОМСУ","Прочее","г. Саранск Ул. Б.ХМЕЛЬНИЦКОГО 57","54.187217","45.176069","нет","да","да","0","0"
"УС03","1326179725","МУ ""ИНФОРМАЦИОННО-МЕТОДИЧЕСКИЙ ЦЕНТР""","","ПВ ОМСУ","Прочее","г. Саранск Ул. Б.ХМЕЛЬНИЦКОГО 57","54.187217","45.176069","нет","да","да","0","0"
"УС03","1326179845","КУ ""ГРАДОСТРОИТЕЛЬСТВО""","","ПВ ОМСУ","Прочее","г. Саранск Пр. ЛЕНИНА 4","54.182475","45.186993","нет","да","да","0","0"
"УС03","1326189794","СОВЕТ ДЕПУТАТОВ ГОРОДСКОГО ОКРУГА САРАНСК","","ПВ ОМСУ","Прочее","г. Саранск Ул. СОВЕТСКАЯ 30","54.180599","45.18542","нет","да","да","0","0"
"УС03","1326192290","УФССП России по Республике Мордовия","","Прочее","","г. Саранск Ул. ТЕРЕШКОВОЙ 1","54.192537","45.181594","нет","да","да","0","0"
"УС03","1326195893","ДЕПАРТАМЕНТ ФИНАНСОВ АДМИНИСТРАЦИИ ГОРОДСКОГО ОКРУГА САРАНСК","","ПВ ОМСУ","Прочее","г. Саранск Ул. СОВЕТСКАЯ 30","54.180599","45.18542","нет","да","да","0","0"
"УС03","1326195942","ДЕПАРТАМЕНТ ПО СОЦИАЛЬНОЙ ПОЛИТИКЕ АДМИНИСТРАЦИИ ГОРОДСКОГО ОКРУГА САРАНСК","","ПВ ОМСУ","Прочее","г. Саранск Ул. Б.ХМЕЛЬНИЦКОГО 57","54.187217","45.176069","нет","да","да","0","0"
"УС03","1326196304","АДМИНИСТРАЦИЯ ЛЕНИНСКОГО РАЙОНА ГОРОДСКОГО ОКРУГА САРАНСК","","ОМСУ","","г. Саранск Ул. ПРОЛЕТАРСКАЯ 21","54.180999","45.177174","да","да","да","0","0"
"УС03","1326200776","ГКУ РМ ""НЦСЭМ""","","ПВ ОГВ","Прочее","г. Саранск Ул. Б.ХМЕЛЬНИЦКОГО 39А","54.187022","45.179986","нет","нет","","420","105000"
"УС03","1326208415","КУ ГОРОДСКОГО ОКРУГА САРАНСК ""ТУ ГОРОДСКОГО ОКРУГА САРАНСК""","","ПВ ОМСУ","Прочее","г. Саранск Ул. СОВЕТСКАЯ 34","54.179956","45.184091","нет","да","","0","0"
"УС03","1326209761","ГКУ ""СОЦЗАЩИТА НАСЕЛЕНИЯ ПО Г.О. САРАНСК""","","ПВ ОГВ","Прочее","г. Саранск Ул. СУЩИНСКОГО 9А","54.200038","45.238439","нет","нет","","200","50000"
"УС03","1326210397","КУ Г.О. САРАНСК ""ЦЕНТР СОЦИАЛЬНЫХ ВЫПЛАТ И ИНФОРМИРОВАНИЯ НАСЕЛЕНИЯ""","","ПВ ОМСУ","Прочее","г. Саранск Ул. ПРОЛЕТАРСКАЯ 92А","54.188718","45.176806","нет","да","да","0","0"
"УС03","1326210615","КУ ""ГОРОДСКАЯ ОБЩЕСТВЕННАЯ ПРИЕМНАЯ""","","ПВ ОМСУ","Прочее","г. Саранск Пр. ЛЕНИНА 4","54.182475","45.186993","да","да","","0","0"
"УС03","1326217434","МКУ ""ЦЕНТР ФИНАНСОВО-ЭКОНОМИЧЕСКОГО ОБЕСПЕЧЕНИЯ УЧРЕЖДЕНИЙ СОЦИАЛЬНОЙ СФЕРЫ""","","ПВ ОМСУ","Прочее","г. Саранск Ул. Б.ХМЕЛЬНИЦКОГО 57","54.187217","45.176069","нет","да","да","0","0"
"УС03","1326220483","ГБУЗ РМ ""ДЕТСКАЯ РЕСПУБЛИКАНСКАЯ КЛИНИЧЕСКАЯ БОЛЬНИЦА” (травматологический пункт)","","ПВ ОГВ","ЛПУ","г. Саранск Ул. ПОЛЕЖАЕВА 113","54.190214","45.17535","нет","нет","","300","75000"
"УС03","1326222120","КОНТРОЛЬНО-СЧЕТНАЯ ПАЛАТА ГОРОДСКОГО ОКРУГА САРАНСК","","ПВ ОМСУ","Прочее","г. Саранск Ул. СОВЕТСКАЯ 30","54.180599","45.18542","нет","да","да","0","0"
"УС03","1326223607","ДЕПАРТАМЕНТ ПЕРСПЕКТИВНОГО РАЗВИТИЯ АДМИНИСТРАЦИИ ГОРОДСКОГО ОКРУГА САРАНСК","","ПВ ОМСУ","Прочее","г. Саранск Пр. ЛЕНИНА 4","54.182475","45.186993","нет","да","да","0","0"
"УС03","1326223660","ДЕПАРТАМЕНТ ГОРОДСКОГО ХОЗЯЙСТВА АДМИНИСТРАЦИИ ГОРОДСКОГО ОКРУГА САРАНСК","","ПВ ОМСУ","Прочее","г. Саранск Ул. СОВЕТСКАЯ 34","54.179956","45.184091","нет","да","","0","0"
"УС03","1326226990","АУ ""АИР РМ""","","ПВ ОГВ","Прочее","г. Саранск Ул. ПСКОВСКАЯ 2А","54.185657","45.226447","нет","нет","да","200","50000"
"УС03","1326233588","ООО ""ГК ""Спас""","","Прочее","","г. Саранск Ул. МОСКОВСКАЯ 14","54.177427","45.18648","да","да","да","0","0"
"УС03","1326233740","ГКУ РМ ""СЛУЖБА ЗАКАЗЧИКА” (112-ЕДДС Саранск)","VLAN ГУП","ПВ ОГВ","Прочее","г. Саранск Ул. СОВЕТСКАЯ 34","54.179956","45.184091","да","да","","0","0"
"УС03","1326233740","ГКУ РМ ""СЛУЖБА ЗАКАЗЧИКА” (112-Пожарно-спасательная служба Саранск)","ШПД Абонент","ПВ ОГВ","Прочее","г. Саранск Ул. КОСАРЕВА 40","54.190141","45.237199","да","нет","","?","?"
"УС03","1326234888","ООО ""ЦЕНТР ЭКСПЕРТИЗ И ПРАВОВЫХ УСЛУГ”","","Прочее","","г. Саранск Ул. МОСКОВСКАЯ 14","54.177427","45.18648","нет","да","да","0","0"
"УС03","1326248344","МКУ ""ЕДДС Г.О. САРАНСК""","","ПВ ОМСУ","Прочее","г. Саранск Ул. СОВЕТСКАЯ 34","54.179956","45.184091","нет","да","","0","0"
"УС03","1326249838","ООО ""Стандарт Безопасности""","","Прочее","","г. Саранск Ул. МОСКОВСКАЯ 14","54.177427","45.18648","да","да","да","0","0"
"УС03","1326251749","ГАУЗ РМ ""МОРДОВСКАЯ РЕСПУБЛИКАНСКАЯ СТОМАТОЛОГИЧЕСКАЯ ПОЛИКЛИНИКА” (отделение 4)","","ПВ ОГВ","ЛПУ","г. Саранск Ул. ГОЖУВСКАЯ 28","54.196794","45.229788","нет","нет","","200","50000"
"УС03","1326251749","ГАУЗ РМ ""МОРДОВСКАЯ РЕСПУБЛИКАНСКАЯ СТОМАТОЛОГИЧЕСКАЯ ПОЛИКЛИНИКА” (отделение 1)","","ПВ ОГВ","ЛПУ","г. Саранск Ул. ПРОЛЕТАРСКАЯ 94","54.189277","45.176886","нет","да","","0","0"
"УС03","1326251749","ГАУЗ РМ ""МОРДОВСКАЯ РЕСПУБЛИКАНСКАЯ СТОМАТОЛОГИЧЕСКАЯ ПОЛИКЛИНИКА” (ортопедическое отделение)","","ПВ ОГВ","ЛПУ","г. Саранск Ул. ПРОЛЕТАРСКАЯ 94А","54.188302","45.176303","нет","да","","0","0"
"УС03","1326251749","ГАУЗ РМ ""МОРДОВСКАЯ РЕСПУБЛИКАНСКАЯ СТОМАТОЛОГИЧЕСКАЯ ПОЛИКЛИНИКА” (отделение 2)","","ПВ ОГВ","ЛПУ","г. Саранск Ул. СЕРАДЗСКАЯ 22","54.173216","45.137118","нет","нет","","850","212500"
"УС03","1326960625","МКК Фонд Поддержки Предпринимательства РМ","","Прочее","","г. Саранск Ул. МОСКОВСКАЯ 14","54.177427","45.18648","да","да","да","0","0"
"УС03","1327001318","АДМИНИСТРАЦИЯ ПРОЛЕТАРСКОГО РАЙОНА ГОРОДСКОГО ОКРУГА САРАНСК","","ОМСУ","","г. Саранск Ул. КОВАЛЕНКО 20А","54.213187","45.118757","да","да","да","0","0"
"УС03","1327049503","МДОУ ""ДЕТСКИЙ САД №125""","","ПВ ОМСУ","Дет. сады","г. Саранск Ул. ВОИНОВА 40","54.217752","45.111058","нет","нет","","190","47500"
"УС03","1327149106","МАДОУ ""ДЕТСКИЙ САД № 36""","","ПВ ОМСУ","Дет. сады","г. Саранск Ул. ВОИНОВА 4","54.213614","45.123760","нет","нет","","450","112500"
"УС03","1327149240","ГКУСО РМ ""РЕСПУБЛИКАНСКИЙ СОЦИАЛЬНЫЙ ПРИЮТ ДЛЯ ДЕТЕЙ И ПОДРОСТКОВ ""НАДЕЖДА""","","ПВ ОГВ","Прочее","г. Саранск Ул. СУЩИНСКОГО 10","54.200781","45.244063","нет","нет","","400","100000"
"УС03","1328008789","МАДОУ ""ДЕТСКИЙ САД № 80""","","ПВ ОМСУ","Дет. сады","г. Саранск Ул. Т.БИБИНОЙ 22","54.196046","45.251015","нет","нет","","1100","275000"
"УС03","1328011252","МАДОУ ""ЦЕНТР РАЗВИТИЯ РЕБЕНКА - ДЕТСКИЙ САД №13""","","ПВ ОМСУ","Дет. сады","г. Саранск Ул. ВОЛГОГРАДСКАЯ 87","54.183876","45.217418","нет","нет","","560","140000"
"УС03","1328011870","МАДОУ ""ЦЕНТР РАЗВИТИЯ РЕБЕНКА - ДЕТСКИЙ САД № 7""","","ПВ ОМСУ","Дет. сады","г. Саранск Пр. 70 ЛЕТ ОКТЯБРЯ 71а","54.190994","45.220563","нет","нет","","725","181250"
"УС03","1328014253","МОУ Г.О. САРАНСК ""ЦЕНТР ОБРАЗОВАНИЯ ""ТАВЛА"" - СРЕДНЯЯ ОБЩЕОБРАЗОВАТЕЛЬНАЯ ШКОЛА №17""","","ПВ ОМСУ","Школы","г. Саранск ЮБИЛЕЙНЫЙ Пр. РОССИЙСКОЙ АРМИИ 7","54.180651","45.216888","нет","нет","","400","100000"
"УС03","1328014599","МАДОУ ""ЦЕНТР РАЗВИТИЯ РЕБЕНКА - ДЕТСКИЙ САД № 17""","","ПВ ОМСУ","Дет. сады","г. Саранск ЮБИЛЕЙНЫЙ Пр. РОССИЙСКОЙ АРМИИ 14а","54.178449","45.215622","нет","нет","","1000","250000"
"УС03","1328016109","АО ""Тепличное"" ","","ПВ ОГВ","Прочее","г. Саранск П Озерный","54.234038","45.287846","нет","нет","","5000","1250000"
"УС03","1328016187","МАДОУ ""ЦЕНТР РАЗВИТИЯ РЕБЕНКА - ДЕТСКИЙ САД № 3""","","ПВ ОМСУ","Дет. сады","г. Саранск Пр. РОССИЙСКОЙ АРМИИ 8","54.179619","45.213062","нет","нет","","100","25000"
"УС03","1328017448","МАДОУ ""ЦЕНТР РАЗВИТИЯ РЕБЕНКА - ДЕТСКИЙ САД № 8""","","ПВ ОМСУ","Дет. сады","г. Саранск Ул. Т.БИБИНОЙ 3","54.193712","45.252866","нет","нет","","170","42500"
"УС03","1328019847","ООО ""Саранский Ветсанутильзавод"" ","","ПВ ОГВ","Прочее","г. Саранск Ш. АЛЕКСАНДРОВСКОЕ 51","54.240920","45.235600","нет","нет","","4500","1125000"
"УС03","1328048037","ГБУЗ РМ ""РЕСПУБЛИКАНСКАЯ ИНФЕКЦИОННАЯ КЛИНИЧЕСКАЯ БОЛЬНИЦА""","","ПВ ОГВ","ЛПУ","г. Саранск Ул. КОСАРЕВА 118","54.201824","45.258193","нет","нет","","390","97500"
"УС03","1328048598","МОУ ""СРЕДНЯЯ ШКОЛА № 30""","","ПВ ОМСУ","Школы","г. Саранск Ул. СУЩИНСКОГО 5","54.199064","45.239715","нет","нет","","100","25000"
"УС03","1328048608","МДОУ ""ДЕТСКИЙ САД №88""","","ПВ ОМСУ","Дет. сады","г. Саранск Ул. ЛИХАЧЕВА 30","54.196715","45.236687","нет","нет","","150","37500"
"УС03","1328048615","МАДОУ ""ДЕТСКИЙ САД №82""","","ПВ ОМСУ","Дет. сады","г. Саранск Ул. КОСАРЕВА 27","54.198774","45.241323","нет","нет","","430","107500"
"УС03","1328048615","МАДОУ ""ДЕТСКИЙ САД №82""","","ПВ ОМСУ","Дет. сады","г. Саранск Ул. СУЩИНСКОГО 13","54.199912","45.236741","нет","нет","","720","180000"
"УС03","1328048647","МДОУ ""ДЕТСКИЙ САД №97""","","ПВ ОМСУ","Дет. сады","г. Саранск Ул. ГОЖУВСКАЯ 26","54.196446","45.231765","нет","нет","","120","30000"
"УС03","1328048654","МДОУ ""ДЕТСКИЙ САД № 99""","","ПВ ОМСУ","Дет. сады","г. Саранск Ул. ЛИХАЧЕВА 36","54.19811","45.234639","нет","нет","","130","32500"
"УС03","1328049249","МАДОУ ""ЦЕНТР РАЗВИТИЯ РЕБЕНКА-ДЕТСКИЙ САД №90""","","ПВ ОМСУ","Дет. сады","г. Саранск Ул. ЯРОСЛАВСКАЯ 13","54.188855","45.229285","нет","нет","","270","67500"
"УС03","1328159026","МОУ ""СРЕДНЯЯ ШКОЛА № 11""","","ПВ ОМСУ","Школы","г. Саранск Б-Р ЭРЬЗИ 28а","54.197468","45.251249","нет","нет","","180","45000"
"УС03","1328159202","МДОУ ""ДЕТСКИЙ САД №120""","","ПВ ОМСУ","Дет. сады","г. Саранск Ул. СУЩИНСКОГО 2","54.200786","45.246335","нет","нет","","240","60000"
"УС03","1328159202","МДОУ ""ДЕТСКИЙ САД №85""","","ПВ ОМСУ","Дет. сады","г. Саранск Пр. 70 ЛЕТ ОКТЯБРЯ 120","54.193633","45.234451","нет","нет","","210","52500"
"УС03","1328159442","МОУ ""СРЕДНЯЯ ШКОЛА № 13""","","ПВ ОМСУ","Школы","г. Саранск Ул. ЛЕНИНГРАДСКАЯ 34","54.178280","45.239912","нет","нет","","1900","475000"
"УС03","1328159636","МДОУ ""ДЕТСКИЙ САД № 5""","","ПВ ОМСУ","Дет. сады","г. Саранск Ул. СЕВАСТОПОЛЬСКАЯ 86А","54.197700","45.226986","нет","нет","","470","117500"
"УС03","1328159643","МОУ ""СРЕДНЯЯ ШКОЛА № 2 ИМ. ГЕРОЯ СОВЕТСКОГО СОЮЗА П.И. ОРЛОВА""","","ПВ ОМСУ","Школы","г. Саранск Ул. ВОЛГОГРАДСКАЯ 88","54.185936","45.223419","нет","нет","","610","152500"
"УС03","1328159690","МОУ ""СРЕДНЯЯ ШКОЛА № 36""","","ПВ ОМСУ","Школы","г. Саранск Ул. СЕВАСТОПОЛЬСКАЯ 74","54.196283","45.227507","нет","нет","","160","40000"
"УС03","1328159763","МОУ ""СРЕДНЯЯ ШКОЛА №32""","","ПВ ОМСУ","Школы","г. Саранск Ул. ЛИХАЧЕВА 40","54.199933","45.233067","нет","нет","","210","52500"
"УС03","1328159820","МДОУ ""ДЕТСКИЙ САД №16""","","ПВ ОМСУ","Дет. сады","г. Саранск Ул. КАЧАЛОВА 1","54.179714","45.242472","нет","нет","","380","95000"
"УС03","1328159932","МОУ ""ЛИЦЕЙ № 7""","","ПВ ОМСУ","Школы","г. Саранск Пр. 70 ЛЕТ ОКТЯБРЯ 102","54.19432","45.231858","нет","нет","","350","87500"
"УС03","1328160085","МОУ ""СРЕДНЯЯ ШКОЛА №28""","","ПВ ОМСУ","Школы","г. Саранск Пр. 70 ЛЕТ ОКТЯБРЯ 160","54.192933","45.241143","нет","нет","","180","45000"
"УС03","1328160092","МОУ ""СРЕДНЯЯ ШКОЛА № 40""","","ПВ ОМСУ","Школы","г. Саранск Ул. СЕВАСТОПОЛЬСКАЯ 46","54.190625","45.225818","нет","нет","","370","92500"
"УС03","1328160102","МДОУ ""ДЕТСКИЙ САД №127""","","ПВ ОМСУ","Дет. сады","г. Саранск Пр. 70 ЛЕТ ОКТЯБРЯ 105","54.190757","45.234424","нет","нет","","170","42500"
"УС03","1328160293","ГБУЗ РМ ""РОДИЛЬНЫЙ ДОМ""","","ПВ ОГВ","ЛПУ","г. Саранск Ул. КОСАРЕВА 122","54.203767","45.256837","нет","нет","","120","30000"
"УС03","1328160381","МОУ ""ОЗЕРНАЯ ОСНОВНАЯ ОБЩЕОБРАЗОВАТЕЛЬНАЯ ШКОЛА""","","ПВ ОМСУ","Школы","г. Саранск ОЗЕРНЫЙ Ул. ТЕПЛИЧНАЯ 16","54.232375","45.290946","нет","нет","","4900","1225000"
"УС03","1328160663","МАДОУ ""ЦЕНТР РАЗВИТИЯ РЕБЕНКА - ДЕТСКИЙ САД № 46""","","ПВ ОМСУ","Дет. сады","г. Саранск Пр. 70 ЛЕТ ОКТЯБРЯ 82","54.194618","45.227453","нет","нет","","150","37500"
"УС03","1328160670","МДОУ ""ДЕТСКИЙ САД №66""","","ПВ ОМСУ","Дет. сады","г. Саранск Ул. ЛИХАЧЕВА 13а","54.19601112881780","45.2472393240811","нет","нет","","370","92500"
"УС03","1328160688","МДОУ ""ДЕТСКИЙ САД №93""","","ПВ ОМСУ","Дет. сады","г. Саранск ЛУХОВКА Ул. ОКТЯБРЬСКАЯ 17А","54.147009","45.252390","нет","нет","","2000","500000"
"УС03","1328160695","ГБУЗ РМ ""РЕСПУБЛИКАНСКАЯ КЛИНИЧЕСКАЯ БОЛЬНИЦА №5""","","ПВ ОГВ","ЛПУ","г. Саранск Ул. КОСАРЕВА 116А","54.205689","45.261139","нет","нет","","490","97500"
"УС03","1328160695","ГБУЗ РМ ""РЕСПУБЛИКАНСКАЯ КЛИНИЧЕСКАЯ БОЛЬНИЦА №5” (поликлиническое отделение №2)","","ПВ ОГВ","ЛПУ","г. Саранск Ул. ЯРОСЛАВСКАЯ 2А","54.190393","45.228288","нет","нет","","700","175000"
"УС03","1328160945","МДОУ ""ДЕТСКИЙ САД №117""","","ПВ ОМСУ","Дет. сады","г. Саранск Ул. МИЧУРИНА 39","54.126236","45.126958","нет","нет","","5600","1400000"
"УС03","1328169641","МБУДО ""ДХШ № 3""","","ПВ ОМСУ","Школы","г. Саранск Ул. СУЩИНСКОГО 24А","54.20126","45.239203","нет","нет","","200","50000"
"УС03","1328169698","МБУДО ""ДМШ № 6""","","ПВ ОМСУ","Школы","г. Саранск Ул. ГОЖУВСКАЯ 25","54.194265","45.241448","нет","нет","","100","25000"
"УС03","1328170005","ИФНС России по Октябрьскому району Г. Саранска","","Прочее","","г. Саранск Ул. ГОЖУВСКАЯ 36А","54.198284","45.230237","нет","нет","да","200","50000"
"УС03","1328902523","МП ГОРОДСКОГО ОКРУГА САРАНСК ""ЖИЛИЩНОЕ РЕМОНТНО-СТРОИТЕЛЬНОЕ УПРАВЛЕНИЕ ОКТЯБРЬСКОГО РАЙОНА Г. САРАНСКА""","","ПВ ОМСУ","Прочее","г. Саранск Пр. 70 ЛЕТ ОКТЯБРЯ 161","54.191115","45.242922","нет","нет","","530","132500"
"УС03","1328904859","АДМИНИСТРАЦИЯ ОКТЯБРЬСКОГО РАЙОНА ГОРОДСКОГО ОКРУГА САРАНСК","","ОМСУ","","г. Саранск Ул. ГОЖУВСКАЯ 40","54.197083","45.228962","да","да","да","0","0"
"УС03","1328904961","МБУК ""ДОМ КУЛЬТУРЫ ""ЗАРЕЧЬЕ""","","ПВ ОМСУ","Прочее","г. Саранск Б-р ЭРЬЗИ 19","54.198226","45.248554","нет","нет","","270","67500"
"УС03","1328909991","ГБУ РМ ""СПОРТИВНАЯ ШКОЛА ОЛИМПИЙСКОГО РЕЗЕРВА ПО БАСКЕТБОЛУ И ВОЛЕЙБОЛУ""","","ПВ ОГВ","Спорт","г. Саранск Пр. 70 ЛЕТ ОКТЯБРЯ 102А","54.195398","45.229519","да","нет","","230","57500"
"УС04","1326135950","УФСБ России по Республике Мордовия","","Прочее","","г. Саранск Ул. БОТЕВГРАДСКАЯ 80А","54.187211","45.170742","нет","нет","","0","0"
"УС04","1326194466","МИНЮСТ РМ (отдел ЗАГС)","","ОГВ","","г. Саранск Ул. ФЕДОСЕЕНКО 2А","54.193291","45.187271","да","да","да","0","0"
"УС04","1326233740","ГКУ РМ ""СЛУЖБА ЗАКАЗЧИКА” (112-УФСБ по РМ Саранск)","VLAN МВД","ПВ ОГВ","Прочее","г. Саранск Ул. БОТЕВГРАДСКАЯ 80А","54.187211","45.170742","да","нет","","0","0"
"УС05","1300050357","АДМИНИСТРАЦИЯ ГЛАВЫ РМ (Депутат Ком 33/3 - 605)","","ОГВ","","г. Саранск Ул. КОММУНИСТИЧЕСКАЯ 33/3","54.185325","45.185627","да","да","","0","0"
"УС05","1325126625","МИНЗДРАВ РМ","","ОГВ","","г. Саранск Ул. КОММУНИСТИЧЕСКАЯ 33/3","54.185325","45.185627","нет","да","","0","0"
"УС05","1325127820","МИНСТРОЙ РМ","","ОГВ","","г. Саранск Ул. КОММУНИСТИЧЕСКАЯ 33/3","54.185325","45.185627","да","да","","0","0"
"УС05","1325127837","МИНЖИЛКОМХОЗ РМ","","ОГВ","","г. Саранск Ул. КОММУНИСТИЧЕСКАЯ 33/3","54.185325","45.185627","да","да","","0","0"
"УС05","1325128750","МБУДО ""ДМШ № 1""","","ПВ ОМСУ","Школы","г. Саранск Ул. Л.ТОЛСТОГО 13","54.18298","45.185367","нет","нет","","100","25000"
"УС05","1326022795","ГБУК ""ГОСУДАРСТВЕННЫЙ МУЗЫКАЛЬНЫЙ ТЕАТР ИМ.И.М.ЯУШЕВА РМ""","","ПВ ОГВ","Прочее","г. Саранск Ул. Б.ХМЕЛЬНИЦКОГО 36","54.186068","45.180138","нет","нет","да","100","25000"
"УС05","1326024721","ГУ-Ро Фонда Социального Страхования Российской Федерации по Республике Мордовия","","Прочее","","г. Саранск Пр. ЛЕНИНА 12А","54.186026","45.186939","да","нет","","100","25000"
"УС05","1326028934","МОУ ""ЛИЦЕЙ №43""","","ПВ ОМСУ","Школы","г. Саранск Ул. ПРОЛЕТАРСКАЯ 101а","54.191674","45.179213","нет","нет","","330","82500"
"УС05","1326031020","Мордовиястат","","Прочее","","г. Саранск Ул. ВАСЕНКО 7В","54.195192","45.179608","нет","да","да","0","0"
"УС05","1326047197","МИНОБРАЗОВАНИЕ РМ","","ОГВ","","г. Саранск Ул. КОММУНИСТИЧЕСКАЯ 33/2","54.184893","45.186301","да","да","","0","0"
"УС05","1326049116","Гострудинспекция в Республике Мордовия","","Прочее","","г. Саранск Ул. КОММУНИСТИЧЕСКАЯ 33/2","54.184893","45.186301","да","да","","0","0"
"УС05","1326049130","ГБУК ""МОРДОВСКАЯ РЕСПУБЛИКАНСКАЯ ДЕТСКАЯ БИБЛИОТЕКА""","","ПВ ОГВ","Прочее","г. Саранск Ул. БОЛЬШЕВИСТСКАЯ 39","54.185784","45.182986","нет","нет","","100","25000"
"УС05","1326134450","ГОСУКС РМ","","ПВ ОГВ","Прочее","г. Саранск Ул. КОММУНИСТИЧЕСКАЯ 33/3","54.185325","45.185627","да","да","","0","0"
"УС05","1326137080","МОУ ""СРЕДНЯЯ ШКОЛА № 39""","","ПВ ОМСУ","Школы","г. Саранск Ул. ВОЛОДАРСКОГО 5","54.182259","45.190649","нет","нет","","100","25000"
"УС05","1326137154","МОУ ""ГИМНАЗИЯ № 12""","","ПВ ОМСУ","Школы","г. Саранск Пр. ЛЕНИНА 11","54.185262","45.188933","нет","нет","","210","52500"
"УС05","1326137309","МИНСПОРТ РМ","","ОГВ","","г. Саранск Ул. КОММУНИСТИЧЕСКАЯ 33/3","54.185325","45.185627","да","да","","0","0"
"УС05","1326138535","Мордовская Республиканская Общественная Организация Всероссийской Организации Ветеранов","","Прочее","","г. Саранск Ул. КОММУНИСТИЧЕСКАЯ 33/3","54.185325","45.185627","да","да","","0","0"
"УС05","1326141143","ГБПОУ РМ ""САРАНСКОЕ ХУДОЖЕСТВЕННОЕ УЧИЛИЩЕ ИМЕНИ Ф.В.СЫЧКОВА""","","ПВ ОГВ","Прочее","г. Саранск Ул. ВАСЕНКО 3","54.194955","45.185915","нет","нет","","260","65000"
"УС05","1326141577","ГБУ ""МОРДОВСКИЙ РЕСПУБЛИКАНСКИЙ МОЛОДЕЖНЫЙ ЦЕНТР""","","ПВ ОГВ","Прочее","г. Саранск Ул. БОЛЬШЕВИСТСКАЯ 33","54.185193","45.182905","нет","нет","","130","32500"
"УС05","1326145370","ГБУ ДОПОЛНИТЕЛЬНОГО ОБРАЗОВАНИЯ ""МОРДОВСКАЯ РЕСПУБЛИКАНСКАЯ ДЕТСКАЯ ХОРЕОГРАФИЧЕСКАЯ ШКОЛА""","","ПВ ОГВ","Прочее","г. Саранск Ул. Л.ТОЛСТОГО 19","54.183729","45.185438","нет","нет","","140","35000"
"УС05","1326145388","ГБУК ""НАЦИОНАЛЬНАЯ БИБЛИОТЕКА ИМЕНИ А.С.ПУШКИНА РМ""","","ПВ ОГВ","Прочее","г. Саранск Ул. Б.ХМЕЛЬНИЦКОГО 26","54.185773","45.183956","нет","да","да","0","0"
"УС05","1326148340","ГКУК РМ ""МРСБС""","","ПВ ОГВ","Прочее","г. Саранск Ул. РАБОЧАЯ 36","54.185610","45.192921","нет","нет","","500","125000"
"УС05","1326176428","МАДОУ ""ДЕТСКИЙ САД №112""","","ПВ ОМСУ","Дет. сады","г. Саранск Ул. ВОЛОДАРСКОГО 37","54.18513","45.191403","нет","нет","","150","37500"
"УС05","1326176435","МДОУ ""ДЕТСКИЙ САД №29""","","ПВ ОМСУ","Дет. сады","г. Саранск Ул. ПРОЛЕТАРСКАЯ 40А","54.183428","45.175431","нет","нет","","380","95000"
"УС05","1326184034","МБУДО ""ДМШ № 2""","","ПВ ОМСУ","Школы","г. Саранск Ул. ВАСЕНКО 3","54.194955","45.185915","нет","нет","","650","162500"
"УС05","1326189297","ГАУ ""ТЕАТР ПЕСНИ ""РОСИЧИ""","","ПВ ОГВ","Прочее","г. Саранск Ул. Б.ХМЕЛЬНИЦКОГО 26","54.185773","45.183956","нет","да","","0","0"
"УС05","1326194152","АУ ""ДЖАЗОВЫЙ ОРКЕСТР ""БИГ-БЕНД ""САРАНСК""","","ПВ ОГВ","Прочее","г. Саранск Ул. КОММУНИСТИЧЕСКАЯ 33/3","54.185325","45.185627","нет","да","да","0","0"
"УС05","1326194466","МИНЮСТ РМ","","ОГВ","","г. Саранск Ул. КОММУНИСТИЧЕСКАЯ 33/2","54.184893","45.186301","да","да","да","0","0"
"УС05","1326196456","ГКУ ""ЦБУМКРМ""","","ПВ ОГВ","Прочее","г. Саранск Ул. Б.ХМЕЛЬНИЦКОГО 26","54.185773","45.183956","да","да","","0","0"
"УС05","1326198365","НА""ПОВОЛЖСКИЙ ЦКФУН"" ","","Прочее","","г. Саранск Ул. Б.ХМЕЛЬНИЦКОГО 26","54.185773","45.183956","да","да","","0","0"
"УС05","1326198598","Ассоциация ""СМО РМ""","","Прочее","","г. Саранск Ул. КОММУНИСТИЧЕСКАЯ 33/2","54.184893","45.186301","да","да","","0","0"
"УС05","1326199584","МИНКУЛЬТНАЦ РМ","","ОГВ","","г. Саранск Ул. КОММУНИСТИЧЕСКАЯ 33/3","54.185325","45.185627","да","да","","0","0"
"УС05","1326200624","АППАРАТ УПОЛНОМОЧЕННОГО ПО ПРАВАМ ЧЕЛОВЕКА В РЕСПУБЛИКЕ МОРДОВИЯ","","ОГВ","","г. Саранск Ул. КОММУНИСТИЧЕСКАЯ 33/3","54.185325","45.185627","да","да","","0","0"
"УС05","1326205661","МИНПРОМНАУКИ РМ","","ОГВ","","г. Саранск Ул. КОММУНИСТИЧЕСКАЯ 33/2","54.184893","45.186301","да","да","","0","0"
"УС05","1326208542","ГКУ ""УПРДОР РМ""","","ПВ ОГВ","Прочее","г. Саранск Ул. КОММУНИСТИЧЕСКАЯ 33/3","54.185325","45.185627","да","да","","0","0"
"УС05","1326211383","КУ Г.О. САРАНСК ""ГОРКАПСТРОЙЗАКАЗЧИК""","","ПВ ОМСУ","Прочее","г. Саранск Ул. КОММУНИСТИЧЕСКАЯ 14","54.183233","45.191888","нет","нет","да","250","62500"
"УС05","1326214602","ГБУ РМ ""ЦЕНТР ОЦЕНКИ КАЧЕСТВА ОБРАЗОВАНИЯ - ""ПЕРСПЕКТИВА""","","ПВ ОГВ","Прочее","г. Саранск Ул. ФЕДОСЕЕНКО 19","54.193818","45.176536","нет","нет","","200","50000"
"УС05","1326221952","МИНЦИФРЫ РМ","","ОГВ","","г. Саранск Ул. КОММУНИСТИЧЕСКАЯ 33/3","54.185325","45.185627","да","да","","0","0"
"УС05","1326227834","ГБУ ""ТУРИСТСКО-ИНФОРМАЦИОННЫЙ ЦЕНТР РМ""","","ПВ ОГВ","Прочее","г. Саранск Ул. Б.ХМЕЛЬНИЦКОГО 26","54.185773","45.183956","нет","да","да","0","0"
"УС05","1326233531","ГКУ РМ ""УПРАВЛЕНИЕ ПО ОБЕСПЕЧЕНИЮ ДЕЯТЕЛЬНОСТИ ЖКК РМ""","","ПВ ОГВ","Прочее","г. Саранск Ул. КОММУНИСТИЧЕСКАЯ 33/3","54.185325","45.185627","да","да","","0","0"
"УС05","1326233740","ГКУ РМ ""СЛУЖБА ЗАКАЗЧИКА”","","ПВ ОГВ","Прочее","г. Саранск Ул. КОММУНИСТИЧЕСКАЯ 33/3","54.185325","45.185627","нет","да","","0","0"
"УС05","1326233740","ГКУ РМ ""СЛУЖБА ЗАКАЗЧИКА” (112-Глонасс Саранск)","VLAN РТК","ПВ ОГВ","Прочее","г. Саранск Ул. БОЛЬШЕВИСТСКАЯ 27","54.183602","45.182887","да","нет","","0","0"
"УС05","1326250576","РСТ РМ","","ОГВ","","г. Саранск Ул. КОММУНИСТИЧЕСКАЯ 33/2","54.184893","45.186301","да","да","","0","0"
"УС05","1326251202","ГКУ ""АППАРАТ ОБЩЕСТВЕННОЙ ПАЛАТЫ РМ""","","ПВ ОГВ","Прочее","г. Саранск Ул. Б.ХМЕЛЬНИЦКОГО 26","54.185773","45.183956","да","да","","0","0"
"УС05","1326255302","ГКУ РМ ""ЦЕНТР КОМПЕТЕНЦИЙ В СФЕРЕ ЖКХ И ЭНЕРГЕТИКИ""","","ПВ ОГВ","Прочее","г. Саранск Ул. КОММУНИСТИЧЕСКАЯ 33/3","54.185325","45.185627","да","да","","0","0"
"УС05","1327012704","ООО ""Центр Стоматологии""","","Прочее","","г. Саранск Ул. ВАСЕНКО 13","54.195219","45.167742","нет","да","да","0","0"
"УС05","5260107770","Межрегиональное Управление Росприроднадзора по Нижегородской области и Республике Мордовия","","Прочее","","г. Саранск Пр. ЛЕНИНА 14","54.186869","45.187379","да","нет","","100","25000"
"УС05","5260354434","Представительство МИД России в Г.Нижнем Новгороде","","Прочее","","г. Саранск Ул. КОММУНИСТИЧЕСКАЯ 33/2","54.184893","45.186301","да","да","","0","0"
"УС07","1325050006","Управление Федеральной налоговой службы по Республике Мордовия","","Прочее","","г. Саранск Ул. МОСКОВСКАЯ 3/1","54.179761","45.185097","нет","да","да","0","0"
"УС09","1325026620","ОПФР по Республике Мордовия","","Прочее","","г. Саранск Ул. КОММУНИСТИЧЕСКАЯ 52","54.184003","45.179069","да","нет","","100","25000"
"УС09","1326134322","МИНСЕЛЬХОЗПРОД РМ","","ОГВ","","г. Саранск Ул. КОММУНИСТИЧЕСКАЯ 50","54.184013","45.180390","да","да","","0","0"
"УС09","1326184348","АКФХ РМ ""Нива""","","Прочее","","г. Саранск Ул. КОММУНИСТИЧЕСКАЯ 50","54.184013","45.180390","нет","да","да","0","0"
"УС09","1326186338","ООО ""Энергснаб""","","Прочее","","г. Саранск Ул. КОММУНИСТИЧЕСКАЯ 50","54.184013","45.180390","нет","да","да","0","0"
"УС09","1326194787","МИНЛЕСХОЗ РМ","","ОГВ","","г. Саранск Ул. КОММУНИСТИЧЕСКАЯ 50","54.184013","45.180390","да","да","","0","0"
"УС09","1326211305","МТУ Росимущества в Республике Мордовия, Республике Марий Эл, Чувашской Республике и Пензенской области","","Прочее","","г. Саранск Ул. КОММУНИСТИЧЕСКАЯ 50","54.184013","45.180390","нет","да","да","0","0"
"УС09","1326215613","АО ""Мордовавтодор""","","Прочее","","г. Саранск Ул. КОММУНИСТИЧЕСКАЯ 50","54.184013","45.180390","нет","да","да","0","0"
"УС09","1326224216","Управление Россельхознадзора по Республике Мордовия и Пензенской области","","Прочее","","г. Саранск Ул. КОММУНИСТИЧЕСКАЯ 50","54.184013","45.180390","нет","да","да","0","0"
"УС09","1326225410","ГАУ РМ “МФЦ""","","ПВ ОГВ","Прочее","г. Саранск Ул. БОЛЬШЕВИСТСКАЯ 31","54.183971","45.182779","да","нет","","390","97500"
"УС09","1326232143","АССОЦИАЦИЯ МЕДИАТОРОВ РЕСПУБЛИКИ МОРДОВИЯ","","Прочее","","г. Саранск Ул. КОММУНИСТИЧЕСКАЯ 50","54.184013","45.180390","нет","да","да","0","0"
"УС09","1326961234","РОР ""Агропромобъединение Республики Мордовия""","","Прочее","","г. Саранск Ул. КОММУНИСТИЧЕСКАЯ 50","54.184013","45.180390","нет","да","да","0","0"
"УС09","5902202276","АО ЭР ТЕЛЕКОМ ХОЛДИНГ","","Прочее","","г. Саранск Ул. БОЛЬШЕВИСТСКАЯ 30","54.183033","45.180893","да","да","","0","0"
"УС10","1326136577","МВД по Республике Мордовия","","Прочее","","г. Саранск Ул. КОММУНИСТИЧЕСКАЯ 75","54.185078","45.173787","нет","да","","0","0"
"УС10","1326175167","ГАУ РМ ""РСТЦ ""СТАРТ""","","ПВ ОГВ","Спорт","г. Саранск Ул. ВОЛГОГРАДСКАЯ 1","54.182554","45.203710","да","да","","0","0"
"УС10","1326233740","ГКУ РМ ""СЛУЖБА ЗАКАЗЧИКА” (112-МВД по го Саранск)","VLAN МВД","ПВ ОГВ","Прочее","г. Саранск Ул. КОЧКУРОВСКАЯ 1","54.178949","45.210115","да","нет","","0","0"
"УС10","132709760286","ИП Мухин Игорь Александрович","","Прочее","","г. Саранск Ул. ВОЛГОГРАДСКАЯ 1","54.182554","45.203710","да","да","","0","0"
"УС10","132810471099","ИП Кирдяшова Ольга Викторовна","","Прочее","","г. Саранск Ул. ВОЛГОГРАДСКАЯ 1","54.182554","45.203710","да","да","","0","0"
"УС10","132810773043","ИП Марычев Родион Михайлович","","Прочее","","г. Саранск Ул. ВОЛГОГРАДСКАЯ 1","54.182554","45.203710","да","да","","0","0"
"УС11","1326136577","МВД по Республике Мордовия (Управление ГИБДД по РМ)","","Прочее","","г. Саранск Ул. СТРОИТЕЛЬНАЯ 6","54.204462","45.167535","нет","да","","0","0"
"УС11","1326137563","ГБУ РМ ""СПОРТИВНО-АДАПТИВНАЯ ШКОЛА Е.В.ШВЕЦОВА СУРДЛИМПИЙСКОГО И ПАРАЛИМПИЙСКОГО РЕЗЕРВА""","","ПВ ОГВ","Спорт","г. Саранск Ул. СТРОИТЕЛЬНАЯ 13","54.206305","45.156324","да","нет","","950","237500"
"УС11","1326148710","ГБУ РМ ""СПОРТИВНАЯ ШКОЛА ОЛИМПИЙСКОГО РЕЗЕРВА ПО ВЕЛОСПОРТУ""","","ПВ ОГВ","Спорт","г. Саранск Ул. СТРОИТЕЛЬНАЯ 13А","54.208085","45.156567","нет","нет","","350","87500"
"УС11","1327013722","ГБУ РМ ""СПОРТИВНАЯ ШКОЛА ОЛИМПИЙСКОГО РЕЗЕРВА ""АКАДЕМИЯ И.ВИНЕР ПО ХУДОЖЕСТВЕННОЙ ГИМНАСТИКЕ""","","ПВ ОГВ","Спорт","г. Саранск Ул. СТРОИТЕЛЬНАЯ 13","54.206305","45.156324","да","нет","","950","237500"
"УС11","1327157820","АУ РМ ""СК ""МОРДОВИЯ""","","ПВ ОГВ","Спорт","г. Саранск Ул. СТРОИТЕЛЬНАЯ 13","54.206305","45.156324","да","нет","","950","237500"
"УС12","1300050318","МИНФИН РМ","","ОГВ","","г. Саранск Ул. КОММУНИСТИЧЕСКАЯ 33/1","54.184835","45.187091","да","да","","0","0"
"УС12","1326135326","УФК по Республике Мордовия","","Прочее","","г. Саранск Ул. КОММУНИСТИЧЕСКАЯ 33/1","54.184835","45.187091","нет","да","да","0","0"
"УС13","1326004588","ГУП РМ ""ГАЗЕТНО-ЖУРНАЛЬНОЕ ИЗДАТЕЛЬСТВО""","","ПВ ОГВ","Прочее","г. Саранск Ул. СОВЕТСКАЯ 22","54.180024","45.193541","да","да","","0","0"
"УС13","1326029060","Общественная организация «Союз писателей Республики Мордовия»","","Прочее","","г. Саранск Ул. СОВЕТСКАЯ 22","54.180024","45.193541","да","да","","0","0"
"УС13","1326033469","РОО ""Союз Журналистов РМ""","","Прочее","","г. Саранск Ул. СОВЕТСКАЯ 22","54.180024","45.193541","да","да","","0","0"
"УС13","1326034776","ГБУ РМ ""РЕДАКЦИЯ ЖУРНАЛА ""ЧИЛИСЕМА"" (""ВОСХОД"")","","ПВ ОГВ","Прочее","г. Саранск Ул. СОВЕТСКАЯ 22","54.180024","45.193541","да","да","","0","0"
"УС13","1326134509","ИФНС России по Ленинскому району Г. Саранска","","Прочее","","г. Саранск Ул. СОВЕТСКАЯ 7","54.180541","45.196101","нет","нет","да","250","62500"
"УС13","1326135453","ГБУ РМ ""РЕДАКЦИЯ ЖУРНАЛА ""СЯТКО""","","ПВ ОГВ","Прочее","г. Саранск Ул. СОВЕТСКАЯ 22","54.180024","45.193541","да","да","","0","0"
"УС13","1326135990","ГБУ РМ ""ЖУРНАЛЫ ""МОКША"" И ""ЯКСТЕРЬ ТЯШТЕНЯ""","","ПВ ОГВ","Прочее","г. Саранск Ул. СОВЕТСКАЯ 22","54.180024","45.193541","да","да","","0","0"
"УС13","1326136880","АВТОНОМНОЕ УЧРЕЖДЕНИЕ ""ИЗВЕСТИЯ МОРДОВИИ""","","ПВ ОГВ","Прочее","г. Саранск Ул. СОВЕТСКАЯ 22","54.180024","45.193541","нет","да","да","0","0"
"УС13","1326136961","ГБУ РМ ""РЕДАКЦИЯ ГАЗЕТЫ ""ЭРЗЯНЬ ПРАВДА""","","ПВ ОГВ","Прочее","г. Саранск Ул. СОВЕТСКАЯ 22","54.180024","45.193541","да","да","","0","0"
"УС13","1326136979","ГБУ РМ ""РЕДАКЦИЯ ГАЗЕТЫ ""МОКШЕНЬ ПРАВДА""","","ПВ ОГВ","Прочее","г. Саранск Ул. СОВЕТСКАЯ 22","54.180024","45.193541","да","да","","0","0"
"УС13","1326193173","ГБУ РМ ""РЕДАКЦИЯ ГАЗЕТЫ ""ЮЛДАШ"" (""СПУТНИК"")","","ПВ ОГВ","Прочее","г. Саранск Ул. СОВЕТСКАЯ 22","54.180024","45.193541","да","да","","0","0"
"УС13","1326226559","ГБУ ПО ОКАЗАНИЮ ГОСУДАРСТВЕННЫХ УСЛУГ В СФЕРЕ СРЕДСТВ МАССОВОЙ ИНФОРМАЦИИ ""ПРЕСС-ЦЕНТР РМ""","","ПВ ОГВ","Прочее","г. Саранск Ул. СОВЕТСКАЯ 22","54.180024","45.193541","да","да","","0","0"
"УС13","1326236596","АНО ""Региональный центр судебных экспертиз""","","Прочее","","г. Саранск Ул. СОВЕТСКАЯ 22","54.180024","45.193541","да","да","","0","0"
"УС13","1326253947","ООО «ЮК «Прозащита»","","Прочее","","г. Саранск Ул. СОВЕТСКАЯ 22","54.180024","45.193541","да","да","","0","0"
"УС13","1326256955","ООО ТЕХНО ТАЙМ","","Прочее","","г. Саранск Ул. СОВЕТСКАЯ 22","54.180024","45.193541","да","да","","0","0"
"УС13","1328017864","ООО «ГЕОГАРАНТ»","","Прочее","","г. Саранск Ул. СОВЕТСКАЯ 22","54.180024","45.193541","да","да","","0","0"
"УС13","1328043060","ГБУ РМ ""РЕДАКЦИЯ МОЛОДЕЖНОГО ЖУРНАЛА ""СТРАННИК""","","ПВ ОГВ","Прочее","г. Саранск Ул. СОВЕТСКАЯ 22","54.180024","45.193541","да","да","","0","0"
"УС13","1328160695","ГБУЗ РМ ""РЕСПУБЛИКАНСКАЯ КЛИНИЧЕСКАЯ БОЛЬНИЦА №5” (поликлиническое отделение №3)","","ПВ ОГВ","ЛПУ","г. Саранск Ул. РОССИЙСКОЙ АРМИИ 5","54.181358","45.213169","нет","нет","","700","175000"
"УС13","9701126826","ООО «Эксперт»","","Прочее","","г. Саранск Ул. СОВЕТСКАЯ 22","54.180024","45.193541","да","да","","0","0"
"УС13","132802596930","ИП Ошкова Олеся Юрьевна","","Прочее","","г. Саранск Ул. СОВЕТСКАЯ 22","54.180024","45.193541","да","да","","0","0"
"УС13","323305393306","ИП ДУДКО АРТЕМ ВЛАДИМИРОВИЧ","","Прочее","","г. Саранск Ул. СОВЕТСКАЯ 22","54.180024","45.193541","да","да","","0","0"
"УС14","1326251555","АО ""РАЗВИТИЕ СЕЛА""","","ПВ ОГВ","Прочее","г. Саранск Ул. МОСКОВСКАЯ 1","54.180109","45.185798","нет","да","да","0","0"
"УС15","1325126760","ФКУ Военный Комиссариат Республики Мордовия","","Прочее","","г. Саранск Ул. РЕСПУБЛИКАНСКАЯ 43","54.172483","45.186004","нет","нет","да","200","50000"
"УС15","1326137370","МОУ ""СРЕДНЯЯ ШКОЛА № 9""","","ПВ ОМСУ","Школы","г. Саранск Ул. МОСКОВСКАЯ 68","54.171925","45.188574","нет","нет","","100","25000"
"УС15","1326137901","ГБПОУ РМ ""САРАНСКИЙ ТЕХНИКУМ ПИЩЕВОЙ И ПЕРЕРАБАТЫВАЮЩЕЙ ПРОМЫШЛЕННОСТИ""","","ПВ ОГВ","Прочее","г. Саранск Ул. А.НЕВСКОГО 57","54.170354","45.174506","нет","нет","","600","150000"
"УС15","1326175167","ГАУ РМ ""РСТЦ ""СТАРТ""","","ПВ ОГВ","Спорт","г. Саранск Ул. МОСКОВСКАЯ 12","54.176346","45.190963","да","нет","","100","25000"
"УС15","1326184228","ГАУ РМ ""СШОРТ ШАМИЛЯ ТАРПИЩЕВА""","","ПВ ОГВ","Спорт","г. Саранск Ул. ГРУЗИНСКАЯ  25А","54.174628","45.173931","да","нет","","800","200000"
"УС15","1326193906","ГКАУ ""ЦГА РМ""","","ПВ ОГВ","Прочее","г. Саранск Ул. МОСКОВСКАЯ 31","54.171534","45.186642","да","да","","0","0"
"УС15","1326199584","МИНКУЛЬТНАЦ РМ","","ОГВ","","г. Саранск Ул. МОСКОВСКАЯ 31","54.171534","45.186642","да","да","","0","0"
"УС15","1326213983","ГБУ РМ ""АВТОБАЗА № 13""","","ПВ ОГВ","Прочее","г. Саранск Ул. РЕСПУБЛИКАНСКАЯ 35","54.173674","45.191628","нет","нет","","570","142500"
"УС15","1326222770","ООО ""Альянс Саранск""","","Прочее","","г. Саранск Ул. РЕСПУБЛИКАНСКАЯ 103","54.173622","45.170437","да","да","","0","0"
"УС15","1326233740","ГКУ РМ ""СЛУЖБА ЗАКАЗЧИКА” (112-Служба газа №1 Саранск)","LTE","ПВ ОГВ","Прочее","г. Саранск Ул. МОСКОВСКАЯ 115","54.161862","45.187505","да","нет","","?","?"
"УС15","1327011500","ГБОУ РМ ""РЕСПУБЛИКАНСКИЙ ЛИЦЕЙ ДЛЯ ОДАРЁННЫХ ДЕТЕЙ""","","ПВ ОГВ","Прочее","г. Саранск Ул. МОСКОВСКАЯ 46","54.174417","45.187711","нет","нет","","400","100000"
"УС15","1328017600","МАДОУ ""ЦЕНТР РАЗВИТИЯ РЕБЕНКА - ДЕТСКИЙ САД № 9""","","ПВ ОМСУ","Дет. сады","г. Саранск Ул. ЮРИЯ СВЯТКИНА 1","54.175166","45.221856","нет","нет","","700","175000"
"УС15","1328049305","МОУ ""ГОРЯЙНОВСКАЯ ОСНОВНАЯ ШКОЛА""","","ПВ ОМСУ","Школы","г. Саранск ГОРЯЙНОВКА Ул. ОРЛОВА 5г","54.105046","45.328163","нет","нет","","11000","2750000"
"УС15","1328160060","МОУ ""ЛУХОВСКИЙ ЛИЦЕЙ""","","ПВ ОМСУ","Школы","г. Саранск Ул. ОКТЯБРЬСКАЯ 27","54.19564","45.154357","нет","нет","","200","50000"
"УС15","1328160695","ГБУЗ РМ ""РЕСПУБЛИКАНСКАЯ КЛИНИЧЕСКАЯ БОЛЬНИЦА №5” (процедурный кабинет)","","ПВ ОГВ","ЛПУ","г. Саранск ЛУХОВКА Ул. ОКТЯБРЬСКАЯ 6","54.150215","45.249183","нет","нет","","6200","1550000"
"УС15","1328160695","ГБУЗ РМ ""РЕСПУБЛИКАНСКАЯ КЛИНИЧЕСКАЯ БОЛЬНИЦА №5” (поликлиническое отделение №4)","","ПВ ОГВ","ЛПУ","г. Саранск РЕМЗАВОД Ул. РАБОЧАЯ 15","54.169521","45.221048","нет","нет","","3300","825000"
"УС15","7812014560","ПАО Мегафон","","Прочее","","г. Саранск Ул. РЕСПУБЛИКАНСКАЯ 103","54.173622","45.170437","да","да","","0","0"
"УС17","1326026260","ФБУ Мордовская ЛСЭ Минюста России","","Прочее","","г. Саранск Ул. РЕСПУБЛИКАНСКАЯ 94","54.172926","45.159962","да","да","да","0","0"
"УС17","1326139320","МУДО ""ДВОРЕЦ ДЕТСКОГО ТВОРЧЕСТВА""","","ПВ ОМСУ","Прочее","г. Саранск Ул. ГРУЗИНСКАЯ 25","54.175334","45.174281","нет","нет","","220","55000"
"УС17","1326141930","МУ ДО ""ДЮСШ №1""","","ПВ ОМСУ","Школы","г. Саранск Ул. ГРУЗИНСКАЯ 25","54.175334","45.174281","нет","нет","","500","125000"
"УС17","1326192363","ФКУ ""ГБ МСЭ по Республике Мордовия"" Минтруда России (адрес 2)","","Прочее","","г. Саранск Ул. ВАСЕНКО 13А","54.195387","45.167104","нет","да","да","0","0"
"УС17","1326196216","МИНСОЦТРУДЗАНЯТОСТИ РМ","","ОГВ","","г. Саранск Ул. ТИТОВА 133","54.172805","45.159280","да","да","","0","0"
"УС18","1326045760","ГБУЗ РМ ""РЕСПУБЛИКАНСКИЙ НАРКОЛОГИЧЕСКИЙ ДИСПАНСЕР” (отделение 1)","","ПВ ОГВ","ЛПУ","г. Саранск Ул. СЫЧКОВА 7","54.178228","45.156360","нет","нет","","800","200000"
"УС18","1326135196","МОУ ""ЛИЦЕЙ № 26""","","ПВ ОМСУ","Школы","г. Саранск Ул. СЕРАДЗСКАЯ 21","54.173005","45.134441","нет","нет","","100","25000"
"УС18","1326135742","МДОУ ""ДЕТСКИЙ САД №44""","","ПВ ОМСУ","Дет. сады","г. Саранск Пр. 50 ЛЕТ ОКТЯБРЯ 5а","54.172309","45.14973","нет","нет","","300","75000"
"УС18","1326135767","МОУ ""СРЕДНЯЯ ШКОЛА № 24""","","ПВ ОМСУ","Школы","г. Саранск Ул. СЕРАДЗСКАЯ 26 А","54.171803","45.138519","нет","нет","","230","57500"
"УС18","1326136023","МОУ ""ГИМНАЗИЯ №23""","","ПВ ОМСУ","Школы","г. Саранск Ул. КОМАРОВА 7","54.168383","45.148212","нет","нет","","340","85000"
"УС18","1326136707","МДОУ ""ДЕТСКИЙ САД №55""","","ПВ ОМСУ","Дет. сады","г. Саранск Ул. КОМАРОВА 3а","54.169684","45.148563","нет","нет","","190","47500"
"УС18","1326137348","ГБУЗ РМ ""МОРДОВСКИЙ РЕСПУБЛИКАНСКИЙ  ЦЕНТР ПРОФИЛАКТИКИ И БОРЬБЫ СО СПИД""","","ПВ ОГВ","ЛПУ","г. Саранск Ул. ЩОРСА 35","54.175392","45.146191","нет","нет","","480","120000"
"УС18","1326138920","МДОУ ""ДЕТСКИЙ САД №71""","","ПВ ОМСУ","Дет. сады","г. Саранск Пр. 50 ЛЕТ ОКТЯБРЯ 44а","54.174438","45.134136","нет","нет","","270","67500"
"УС18","1326139602","МДОУ ""ДЕТСКИЙ САД №64""","","ПВ ОМСУ","Дет. сады","г. Саранск Пр. 50 ЛЕТ ОКТЯБРЯ 16","54.170807","45.145751","нет","нет","","405","101250"
"УС18","1326147850","ГБПОУ РМ ""САРАНСКОЕ МУЗЫКАЛЬНОЕ УЧИЛИЩЕ ИМЕНИ Л.П. КИРЮКОВА""","","ПВ ОГВ","Прочее","г. Саранск Ул. ГАГАРИНА 108","54.172019","45.153414","нет","нет","","300","75000"
"УС18","1326192363","ФКУ ""ГБ МСЭ по Республике Мордовия"" Минтруда России (адрес 1)","","Прочее","","г. Саранск Ул. М.РАСКОВОЙ 10","54.176467","45.148652","да","да","","0","0"
"УС18","1326193134","ГКУ РМ ""УПС""","","ПВ ОГВ","Прочее","г. Саранск Ул. ФУРМАНОВА 15","54.177058","45.150386","нет","да","да","0","0"
"УС18","1326193222","ГКУ РМ ""СУГЗ""","","ПВ ОГВ","Прочее","г. Саранск Ул. М.РАСКОВОЙ 2","54.176088","45.148940","да","да","","0","0"
"УС18","1326212411","МБУДО ""ДШИ № 1""","","ПВ ОМСУ","Школы","г. Саранск Ул. О.КОШЕВОГО 9","54.175724","45.144718","нет","нет","","120","30000"
"УС18","1326220469","МАДОУ ""ДЕТСКИЙ САД №59""","","ПВ ОМСУ","Дет. сады","г. Саранск Пр. 50 ЛЕТ ОКТЯБРЯ 23","54.175118","45.141466","нет","нет","","240","60000"
"УС18","1326220606","МАДОУ ""ДЕТСКИЙ САД №47""","","ПВ ОМСУ","Дет. сады","г. Саранск Ул. МАРИНИНА 34А","54.176878","45.168990","нет","нет","","780","195000"
"УС18","1326233740","ГКУ РМ ""СЛУЖБА ЗАКАЗЧИКА” (112-РЦОВ Саранск)","VLAN ГУП","ПВ ОГВ","Прочее","г. Саранск Ул. ЛАЗО 5А","54.176035","45.149946","да","да","","0","0"
"УС18","1326233740","ГКУ РМ ""СЛУЖБА ЗАКАЗЧИКА” (112-ДДС 01 Саранск)","VLAN ГУП","ПВ ОГВ","Прочее","г. Саранск Ул. ФУРМАНОВА 15","54.177058","45.150386","да","да","","0","0"
"УС18","1328160293","ГБУЗ РМ ""РОДИЛЬНЫЙ ДОМ” (Женская консультация №2)","","ПВ ОГВ","ЛПУ","г. Саранск Ул. М.РАСКОВОЙ 10","54.176467","45.148652","нет","да","","0","0"
"УС20","1325022400","МП ГОРОДСКОГО ОКРУГА САРАНСК ""САРАНСКОЕ ВОДОПРОВОДНО-КАНАЛИЗАЦИОННОЕ ХОЗЯЙСТВО""","","ПВ ОМСУ","Прочее","г. Саранск Пер.. ДАЧНЫЙ 2","54.188586","45.164759","нет","нет","","250","62500"
"УС20","1325026571","МП ГОРОДСКОГО ОКРУГА САРАНСК ""ЗЕЛЕНОЕ ХОЗЯЙСТВО""","","ПВ ОМСУ","Прочее","г. Саранск Ул. ГОНЧАРОВА 80","54.185183","45.136310","нет","нет","","830","207500"
"УС20","1326024898","ГБУЗ РМ ""РЕСПУБЛИКАНСКАЯ ОФТАЛЬМОЛОГИЧЕСКАЯ БОЛЬНИЦА""","","ПВ ОГВ","ЛПУ","г. Саранск Ул. ТИТОВА 28","54.188555","45.159684","нет","нет","","560","140000"
"УС20","1326045760","ГБУЗ РМ ""РЕСПУБЛИКАНСКИЙ НАРКОЛОГИЧЕСКИЙ ДИСПАНСЕР” (отделение 2)","","ПВ ОГВ","ЛПУ","г. Саранск Ул. ЛЕСНАЯ 2","54.19063","45.148742","нет","да","","0","0"
"УС20","1326048169","МОУ ""СРЕДНЯЯ ОБЩЕОБРАЗОВАТЕЛЬНАЯ ШКОЛА №18""","","ПВ ОМСУ","Школы","г. Саранск Ул. ГАГАРИНА 13","54.18876","45.15698","нет","нет","","100","25000"
"УС20","1326135301","МДОУ ""ДЕТСКИЙ САД №22""","","ПВ ОМСУ","Дет. сады","г. Саранск Пер.. ДАЧНЫЙ 7А","54.189456","45.163268","нет","нет","","470","117500"
"УС20","1326135333","ГКУЗ РМ ""РМЦ МР ""РЕЗЕРВ"" МИНЗДРАВА РМ""","","ПВ ОГВ","ЛПУ","г. Саранск Ул. ТИТОВА 28А","54.188133","45.159513","нет","нет","","700","175000"
"УС20","1326135615","ГБУЗ РМ ""МОРДОВСКАЯ РЕСПУБЛИКАНСКАЯ СТАНЦИЯ ПЕРЕЛИВАНИЯ КРОВИ""","","ПВ ОГВ","ЛПУ","г. Саранск Ул. ДАЛЬНЯЯ 3А","54.188671","45.153602","нет","да","","0","0"
"УС20","1326138006","МУ ""ТПМПК""","","ПВ ОМСУ","Прочее","г. Саранск Ул. Н.ЭРКАЯ 16","54.215773","45.111318","нет","нет","","230","57500"
"УС20","1326147868","МДОУ ""ДЕТСКИЙ САД №124""","","ПВ ОМСУ","Дет. сады","г. Саранск Ул. ЛЕСНАЯ 15","54.190125","45.157177","нет","нет","","140","35000"
"УС20","1326193381","Управление Роспотребнадзора по Республике Мордовия","","Прочее","","г. Саранск Ул. ДАЛЬНЯЯ 7","54.18811396021110","45.15338273547200","нет","да","да","0","0"
"УС20","1326194787","МИНЛЕСХОЗ РМ","","ОГВ","","г. Саранск Пер.. ЧЕРНЫШЕВСКОГО 10","54.19811","45.139561","да","да","","0","0"
"УС20","1326229736","МАДОУ ""ЦЕНТР РАЗВИТИЯ РЕБЕНКА - ДЕТСКИЙ САД №14""","","ПВ ОМСУ","Дет. сады","г. Саранск Ул. ПОЛЕЖАЕВА 115а","54.191157","45.173886","нет","нет","","430","107500"
"УС20","1326250470","ГКУ РМ ""ЛЕСОХОТОХРАНА""","","ПВ ОГВ","Прочее","г. Саранск Пер.. ЧЕРНЫШЕВСКОГО 10","54.19811","45.139561","нет","да","да","0","0"
"УС20","1326961097","НО ""РЕСПУБЛИКАНСКИЙ ФОНД КАПИТАЛЬНОГО РЕМОНТА МНОГОКВАРТИРНЫХ ДОМОВ""","","ПВ ОГВ","Прочее","г. Саранск Ул. ЛЕСНАЯ 6","54.189867","45.154447","нет","нет","","250","62500"
"УС20","1327027002","ГАУ РМ ""СШОР ПО ЛЕГКОЙ АТЛЕТИКЕ""","","ПВ ОГВ","Спорт","г. Саранск Ул. ПОБЕДЫ  3А","54.208938","45.126141","нет","нет","да","250","62500"
"УС20","1327049341","МОУ ""СРЕДНЯЯ ШКОЛА № 41""","","ПВ ОМСУ","Школы","г. Саранск Ул. Н.ЭРКАЯ 16","54.215773","45.111318","нет","нет","","1750","437500"
"УС20","1327049359","МОУ ""СРЕДНЯЯ ШКОЛА № 38""","","ПВ ОМСУ","Школы","г. Саранск Ул. МИРОНОВА 8","54.21244","45.112082","нет","нет","","150","37500"
"УС20","1327049447","МДОУ ""ДЕТСКИЙ САД №122""","","ПВ ОМСУ","Дет. сады","г. Саранск Ул. Н.ЭРКАЯ 44","54.210534","45.109576","нет","нет","","370","92500"
"УС20","1327049493","МОУ ""ЛИЦЕЙ №31""","","ПВ ОМСУ","Школы","г. Саранск Ул. МЕТАЛЛУРГОВ 2","54.216699","45.126006","нет","нет","","550","137500"
"УС20","1327149160","МДОУ ""ДЕТСКИЙ САД №20""","","ПВ ОМСУ","Дет. сады","г. Саранск Ул. МИРОНОВА 7","54.214756","45.111274","нет","нет","","100","25000"
"УС20","1327149240","ГКУСО РМ ""РЕСПУБЛИКАНСКИЙ СОЦИАЛЬНЫЙ ПРИЮТ ДЛЯ ДЕТЕЙ И ПОДРОСТКОВ ""НАДЕЖДА""","","ПВ ОГВ","Прочее","г. Саранск Ул. Н.ЭРКАЯ 30","54.214562","45.109073","нет","нет","","800","200000"
"УС20","1327150101","ГБУ СОЦИАЛЬНОГО ОБСЛУЖИВАНИЯ НАСЕЛЕНИЯ РМ ""САРАНСКИЙ ДОМ-ИНТЕРНАТ ДЛЯ ПРЕСТАРЕЛЫХ И ИНВАЛИДОВ""","","ПВ ОГВ","Прочее","г. Саранск Ул. ПОБЕДЫ 4","54.207311","45.120481","да","да","","0","0"
"УС20","1327150133","МУ ДО ""ЦЕНТР ЭСТЕТИЧЕСКОГО ВОСПИТАНИЯ ДЕТЕЙ""","","ПВ ОМСУ","Прочее","г. Саранск Ул. МИРОНОВА 10а","54.213108","45.111426","нет","нет","","100","25000"
"УС20","1328048580","ГБОУ РМ ДЛЯ ДЕТЕЙ-СИРОТ И ДЕТЕЙ, ОСТАВШИХСЯ БЕЗ ПОПЕЧЕНИЯ РОДИТЕЛЕЙ ""ЯЛГИНСКИЙ ДЕТСКИЙ ДОМ-ШКОЛА""","","ПВ ОГВ","Прочее","г. Саранск Ул. ПИОНЕРСКАЯ 45","54.120980","45.120993","нет","нет","","6000","1500000"
"УС20","1328159033","ГКУ РМ ""ЦБ УЧРЕЖДЕНИЙ ОБРАЗОВАНИЯ, ПОДВЕДОМСТВЕННЫХ МО РМ""","","ПВ ОГВ","Прочее","г. Саранск Ул. ТРАНСПОРТНАЯ 19","54.159832","45.146559","нет","нет","","400","100000"
"УС20","1328165397","ГБУ ДОПОЛНИТЕЛЬНОГО ПРОФЕССИОНАЛЬНОГО ОБРАЗОВАНИЯ РМ ""ЦЕНТР НЕПРЕРЫВНОГО ПОВЫШЕНИЯ ПРОФЕССИОНАЛЬНОГО МАСТЕРСТВА ПЕДАГОГИЧЕСКИХ РАБОТНИКОВ-""ПЕДАГОГ 13.РУ""","","ПВ ОГВ","Прочее","г. Саранск Ул. ТРАНСПОРТНАЯ 19","54.159832","45.146559","нет","нет","","400","100000"
"УС20","1328169673","МБУДО ""ДШИ № 7""","","ПВ ОМСУ","Школы","г. Саранск Ул. ПИОНЕРСКАЯ 41а","54.127513","45.128279","нет","нет","","180","45000"
"УС20","1328169680","МБУДО ""ДШИ № 8""","","ПВ ОМСУ","Школы","г. Саранск Ул. ОКТЯБРЬСКАЯ 29","54.148111","45.1545","нет","нет","","210","52500"
"УС24","1327017364","ООО ""ЮРИДИЧЕСКОЕ СОПРОВОЖДЕНИЕ”","","Прочее","","г. Саранск Ул. А.НЕВСКОГО 64","54.17008003578470","45.15947409525340","да","да","да","0","0"
"УС24","1327021762","ООО ""Рекламная Компания""","","Прочее","","г. Саранск Ул. А.НЕВСКОГО 64","54.17008003578470","45.15947409525340","да","да","да","0","0"
"УС24","1327028101","ООО ""ТОРГОВО-МОНТАЖНАЯ ПРОИЗВОДСТВЕННАЯ КОМПАНИЯ “СЕНАТ""","","Прочее","","г. Саранск Ул. А.НЕВСКОГО 64","54.17008003578470","45.15947409525340","да","да","да","0","0"
"УС24","1328009380","ФБУ ""Мордовский ЦСМ""","","Прочее","","г. Саранск Ул. А.НЕВСКОГО 64","54.17008003578470","45.15947409525340","да","да","да","0","0"
"УС24","5262130969","ПУМТУ Росстандарта","","Прочее","","г. Саранск Ул. А.НЕВСКОГО 64","54.17008003578470","45.15947409525340","да","да","да","0","0"
"УС24","7709018297","Мордовский ЦНТИ - филиал ФГБУ «РЭА» Минэнерго России","","Прочее","","г. Саранск Ул. А.НЕВСКОГО 64","54.17008003578470","45.15947409525340","да","да","да","0","0"
"УС28","1325126382","МП ГОРОДСКОГО ОКРУГА САРАНСК ""ГОРСВЕТ""","","ПВ ОМСУ","Прочее","г. Саранск Ул. ПРОЛЕТАРСКАЯ 133","54.218842","45.182501","нет","нет","да","360","90000"
"УС28","1326028980","РЕСПУБЛИКАНСКАЯ ВЕТЕРИНАРНАЯ СЛУЖБА РМ","","ОГВ","","г. Саранск Ул. ПРОЛЕТАРСКАЯ 139А","54.222916","45.184693","да","да","","0","0"
"УС28","1326136457","ГБОУ РМ ""САРАНСКАЯ ОБЩЕОБРАЗОВАТЕЛЬНАЯ ШКОЛА ДЛЯ ДЕТЕЙ С ОГРАНИЧЕННЫМИ ВОЗМОЖНОСТЯМИ ЗДОРОВЬЯ""","","ПВ ОГВ","Прочее","г. Саранск Пр. 60 ЛЕТ ОКТЯБРЯ 111","54.222100","45.127740","нет","нет","","650","162500"
"УС28","1326136947","ГБУЗ РМ ""ДЕТСКАЯ ПОЛИКЛИНИКА №1” (отделение 3)","","ПВ ОГВ","ЛПУ","г. Саранск Ул. ЭНЕРГЕТИЧЕСКАЯ 22","54.216194","45.190747","нет","нет","","900","225000"
"УС28","1326137066","ГБУЗ РМ ""ДЕТСКАЯ СТОМАТОЛОГИЧЕСКАЯ ПОЛИКЛИНИКА” (отделение 2)","","ПВ ОГВ","ЛПУ","г. Саранск Ул. ВОИНОВА 33","54.218663","45.113142","нет","нет","","1000","250000"
"УС28","1326188021","ГКУРМ ""Мордовская РАСС""","","ПВ ОГВ","Прочее","г. Саранск Ул. ЛОДЫГИНА 6А","54.219542","45.163025","нет","да","да","0","0"
"УС28","1326200945","ГБУ РМ ""СПОРТИВНАЯ ШКОЛА ОЛИМПИЙСКОГО РЕЗЕРВА ПО БОКСУ ИМЕНИ ОЛЕГА МАСКАЕВА""","","ПВ ОГВ","Спорт","г. Саранск Ул. КОВАЛЕНКО 38Б","54.211445","45.124443","нет","нет","","610","152500"
"УС28","1326209761","ГКУ ""СОЦЗАЩИТА НАСЕЛЕНИЯ ПО Г.О. САРАНСК""","","ПВ ОГВ","Прочее","г. Саранск Ул. ВОИНОВА 29","54.2185","45.114481","нет","нет","","150","37500"
"УС28","1326210855","ООО ""ЦНТИ ""Техэксперт""","","Прочее","","г. Саранск Ул. ЛОДЫГИНА 3","54.222390","45.159486","да","да","да","0","0"
"УС28","1326211344","ГБУ РМ ""СПОРТИВНАЯ ШКОЛА ОЛИМПИЙСКОГО РЕЗЕРВА ПО ФИГУРНОМУ КАТАНИЮ НА КОНЬКАХ""","","ПВ ОГВ","Спорт","г. Саранск Пр. 60 ЛЕТ ОКТЯБРЯ 2/3","54.219521","45.140163","да","нет","","320","80000"
"УС28","1326211834","АУ ""ТЕХНОПАРК - МОРДОВИЯ""","","ПВ ОГВ","Прочее","г. Саранск Ул. ЛОДЫГИНА 3","54.222390","45.159486","да","да","да","0","0"
"УС28","1326219230","ООО ""Новые Решения""","","Прочее","","г. Саранск Ул. ЛОДЫГИНА 3","54.222390","45.159486","да","да","да","0","0"
"УС28","1326233740","ГКУ РМ ""СЛУЖБА ЗАКАЗЧИКА” (112-Служба газа №2 Саранск)","LTE","ПВ ОГВ","Прочее","г. Саранск Ул. ПРОЛЕТАРСКАЯ 123","54.216394","45.182124","да","нет","","?","?"
"УС28","1326251749","ГАУЗ РМ ""МОРДОВСКАЯ РЕСПУБЛИКАНСКАЯ СТОМАТОЛОГИЧЕСКАЯ ПОЛИКЛИНИКА” (отделение 3)","","ПВ ОГВ","ЛПУ","г. Саранск Ул. ВЕСЕЛОВСКОГО 56А","54.223548","45.132806","нет","нет","","500","125000"
"УС28","1327007790","ГБУ РМ ""КОМПЛЕКСНЫЙ ЦЕНТР СОЦИАЛЬНОГО ОБСЛУЖИВАНИЯ ПО ГОРОДСКОМУ ОКРУГУ САРАНСК""","","ПВ ОГВ","Прочее","г. Саранск Ул. ВЕСЕЛОВСКОГО 16","54.223043","45.145508","да","да","","0","0"
"УС28","1327007790","ГБУ РМ ""КОМПЛЕКСНЫЙ ЦЕНТР СОЦИАЛЬНОГО ОБСЛУЖИВАНИЯ ПО ГОРОДСКОМУ ОКРУГУ САРАНСК""","","ПВ ОГВ","Прочее","г. Саранск Ул. ВОИНОВА 29","54.218500","45.114481","нет","нет","","500","125000"
"УС28","1327009268","ГКУ РМ ""ЦБ ОРГАНИЗАЦИЙ ВЕТЕРИНАРИИ, ПОДВЕДОМСТВЕННЫХ РЕСПУБЛИКАНСКОЙ ВЕТСЛУЖБЕ РМ""","","ПВ ОГВ","Прочее","г. Саранск Ул. ПРОЛЕТАРСКАЯ 139А","54.222916","45.184693","нет","да","да","0","0"
"УС28","1327013088","ООО ""Мир Климата""","","Прочее","","г. Саранск Ул. ЛОДЫГИНА 3","54.222390","45.159486","да","да","да","0","0"
"УС28","1327014331","МАОУ ""СРЕДНЯЯ ОБЩЕОБРАЗОВАТЕЛЬНАЯ ШКОЛА № 10""","","ПВ ОМСУ","Школы","г. Саранск Ул. СОЛНЕЧНАЯ 27","54.231759","45.14214","нет","нет","","230","57500"
"УС28","1327015600","ООО ""ЦЕНТР НАНОТЕХНОЛОГИЙ И НАНОМАТЕРИАЛОВ РЕСПУБЛИКИ МОРДОВИЯ”","","Прочее","","г. Саранск Ул. ЛОДЫГИНА 3","54.222390","45.159486","да","да","да","0","0"
"УС28","1327017727","МАДОУ ""ЦЕНТР РАЗВИТИЯ РЕБЕНКА - ДЕТСКИЙ САД № 6""","","ПВ ОМСУ","Дет. сады","г. Саранск Ул. СОЛНЕЧНАЯ 11","54.230527","45.147862","нет","нет","","190","47500"
"УС28","1327020374","ООО ""ТЕХНОЛОГИЧЕСКАЯ КОМПАНИЯ “ЖНФ""","","Прочее","","г. Саранск Ул. ЛОДЫГИНА 3","54.222390","45.159486","да","да","да","0","0"
"УС28","1327021850","ООО ""ТК ""Печатные Технологии""","","Прочее","","г. Саранск Ул. ЛОДЫГИНА 3","54.222390","45.159486","да","да","да","0","0"
"УС28","1327023093","ГБУЗ РМ ""ПОЛИКЛИНИКА № 2” (отделение №1)","","ПВ ОГВ","ЛПУ","г. Саранск Пр. 60 ЛЕТ ОКТЯБРЯ 6","54.219832","45.130318","нет","да","","0","0"
"УС28","1327023093","ГБУЗ РМ ""ПОЛИКЛИНИКА № 2” (отделение №3)","","ПВ ОГВ","ЛПУ","г. Саранск Ул. ПУШКИНА 44А","54.229091","45.125458","нет","нет","","950","237500"
"УС28","1327023400","ООО ""ТЕХНОЛОГИИ ИННОВАЦИОННЫХ КЛИНИНГОВЫХ РЕШЕНИЙ”","","Прочее","","г. Саранск Ул. ЛОДЫГИНА 3","54.222390","45.159486","да","да","да","0","0"
"УС28","1327024080","ООО ""Лембе""","","Прочее","","г. Саранск Ул. ЛОДЫГИНА 3","54.222390","45.159486","да","да","да","0","0"
"УС28","1327024964","ООО ""ЦЕНТР СЕРТИФИКАЦИИ ЭЛЕКТРИЧЕСКИХ ЛАМП И СВЕТОТЕХНИЧЕСКИХ ИЗДЕЛИЙ”","","Прочее","","г. Саранск Ул. ЛОДЫГИНА 3","54.222390","45.159486","да","да","да","0","0"
"УС28","1327025407","ООО “ЭЛСИК""","","Прочее","","г. Саранск Ул. ЛОДЫГИНА 3","54.222390","45.159486","да","да","да","0","0"
"УС28","1327025478","ООО ""НИИИС имени А. Н. Лодыгина""","","Прочее","","г. Саранск Ул. ЛОДЫГИНА 3","54.222390","45.159486","да","да","да","0","0"
"УС28","1327028133","ООО ""ТК ""Функциональные Аддитивы""","","Прочее","","г. Саранск Ул. ЛОДЫГИНА 3","54.222390","45.159486","да","да","да","0","0"
"УС28","1327029120","ООО ""ПЦ ""Элементпро""","","Прочее","","г. Саранск Ул. ЛОДЫГИНА 3","54.222390","45.159486","да","да","да","0","0"
"УС28","1327031009","ООО ""Принтосенс""","","Прочее","","г. Саранск Ул. ЛОДЫГИНА 3","54.222390","45.159486","да","да","да","0","0"
"УС28","1327031400","ООО ""Ризо-с""","","Прочее","","г. Саранск Ул. ЛОДЫГИНА 3","54.222390","45.159486","да","да","да","0","0"
"УС28","1327031707","ООО ""Гринбокс""","","Прочее","","г. Саранск Ул. ЛОДЫГИНА 3","54.222390","45.159486","да","да","да","0","0"
"УС28","1327033084","ГБУЗ РМ ""МОРДОВСКАЯ РЕСПУБЛИКАНСКАЯ ЦЕНТРАЛЬНАЯ КЛИНИЧЕСКАЯ БОЛЬНИЦА” (Перинатальный центр)","","ПВ ОГВ","ЛПУ","г. Саранск Ул. ПОБЕДЫ 14/3","54.206548","45.113474","нет","нет","","90","22500"
"УС28","1327036367","ГБУ ""Мордовская Республиканская СББЖ""","","ПВ ОГВ","Прочее","г. Саранск Ул. ПРОЛЕТАРСКАЯ 139А","54.222916","45.184693","да","да","","0","0"
"УС28","1327039551","ГУП РМ ""МЕДТЕХНИКА""","","ПВ ОГВ","Прочее","г. Саранск Ул. ПРОЛЕТАРСКАЯ 137","54.223327","45.182384","нет","нет","","100","25000"
"УС28","1327046118","МБУК ""ДОМ КУЛЬТУРЫ ""ЛУЧ""","","ПВ ОМСУ","Прочее","г. Саранск Ул. ВЕСЕЛОВСКОГО 40А","54.225285","45.136247","нет","нет","","330","82500"
"УС28","1327047880","ГАПОУ РМ ""САМТ""","","ПВ ОГВ","Прочее","г. Саранск Ул. СОЛНЕЧНАЯ 25","54.231375","45.144026","нет","нет","","780","195000"
"УС28","1327048066","МДОУ ""ДЕТСКИЙ САД №68""","","ПВ ОМСУ","Дет. сады","г. Саранск Ул. ВЕСЕЛОВСКОГО 46","54.223548","45.136148","нет","нет","","240","60000"
"УС28","1327048073","МАДОУ ""ДЕТСКИЙ САД №18""","","ПВ ОМСУ","Дет. сады","г. Саранск Ул. ВЕСЕЛОВСКОГО 55","54.223438","45.122646","нет","нет","","230","57500"
"УС28","1327048073","МАДОУ ""ДЕТСКИЙ САД №18""","","ПВ ОМСУ","Дет. сады","г. Саранск Ул. ЕСЕНИНА 5","54.225696","45.124101","нет","нет","","720","180000"
"УС28","1327048080","МДОУ ""ДЕТСКИЙ САД №78""","","ПВ ОМСУ","Дет. сады","г. Саранск Ул. ПУШКИНА 50","54.228159","45.122107","нет","нет","","480","120000"
"УС28","1327049366","МДОУ ""ДЕТСКИЙ САД № 121""","","ПВ ОМСУ","Дет. сады","г. Саранск Ул. КОВАЛЕНКО 55А","54.210871","45.114624","нет","нет","","330","82500"
"УС28","1327049373","МОУ ""СРЕДНЯЯ ШКОЛА №37""","","ПВ ОМСУ","Школы","г. Саранск Ул. КОВАЛЕНКО 38А","54.212435","45.123527","нет","нет","","140","35000"
"УС28","1327049398","МОУ ""ГИМНАЗИЯ №29""","","ПВ ОМСУ","Школы","г. Саранск Ул. ЕСЕНИНА 14А","54.224401","45.119861","нет","нет","","210","52500"
"УС28","1327049415","МОУ ""ЛИЦЕЙ № 25 ИМЕНИ ГЕРОЯ СОВЕТСКОГО СОЮЗА В.Ф.МАРГЕЛОВА""","","ПВ ОМСУ","Школы","г. Саранск Ул. ПУШКИНА 22","54.229543","45.135277","нет","нет","","620","155000"
"УС28","1327049422","МДОУ ""ДЕТСКИЙ САД №91""","","ПВ ОМСУ","Дет. сады","г. Саранск Пр. 60 ЛЕТ ОКТЯБРЯ 31","54.222222","45.141879","нет","нет","","180","45000"
"УС28","1327049430","МОУ ""СРЕДНЯЯ ШКОЛА № 1""","","ПВ ОМСУ","Школы","г. Саранск Пр. 60 ЛЕТ ОКТЯБРЯ 101","54.223074","45.130515","нет","нет","","320","80000"
"УС28","1327049454","МОУ ""СРЕДНЯЯ ШКОЛА № 27""","","ПВ ОМСУ","Школы","г. Саранск Ул. ВЕСЕЛОВСКОГО 39","54.226806","45.125269","нет","нет","","200","50000"
"УС28","1327049461","МДОУ ""ДЕТСКИЙ САД №86""","","ПВ ОМСУ","Дет. сады","г. Саранск Ул. ВЕСЕЛОВСКОГО 29","54.22848","45.13207","нет","нет","","300","75000"
"УС28","1327049479","МДОУ ""ДЕТСКИЙ САД №103""","","ПВ ОМСУ","Дет. сады","г. Саранск Ул. КОВАЛЕНКО 62","54.210713","45.122808","нет","нет","","160","40000"
"УС28","1327049486","МОУ ""СРЕДНЯЯ ШКОЛА №5""","","ПВ ОМСУ","Школы","г. Саранск Ул. ВЕСЕЛОВСКОГО 16А","54.223269","45.143325","нет","нет","","200","50000"
"УС28","1327049510","МДОУ ""ДЕТСКИЙ САД №98""","","ПВ ОМСУ","Дет. сады","г. Саранск Пр. 60 ЛЕТ ОКТЯБРЯ 24","54.221","45.118173","нет","нет","","100","25000"
"УС28","1327149177","МАДОУ ""ДЕТСКИЙ САД №89""","","ПВ ОМСУ","Дет. сады","г. Саранск Пр. 60 ЛЕТ ОКТЯБРЯ 12","54.219295","45.124847","нет","нет","","470","117500"
"УС28","1327149410","МОУ ""СРЕДНЯЯ ШКОЛА №35""","","ПВ ОМСУ","Школы","г. Саранск Ул. КОВАЛЕНКО 21","54.219263","45.116385","нет","нет","","200","50000"
"УС28","1327149924","ГАУ ДПО РМ ""МРУКК""","","ПВ ОГВ","Прочее","г. Саранск Ш. ЛЯМБИРСКОЕ 10А","54.230369","45.153728","нет","нет","","1400","350000"
"УС28","1327150197","МАДОУ ""ДЕТСКИЙ САД №42""","","ПВ ОМСУ","Дет. сады","г. Саранск Пр. 60 ЛЕТ ОКТЯБРЯ 23","54.221932","45.144152","нет","нет","","550","137500"
"УС28","1327150415","МАДОУ ""ДЕТСКИЙ САД № 104""","","ПВ ОМСУ","Дет. сады","г. Саранск Ул. КОВАЛЕНКО 10А","54.216673","45.12173","нет","нет","","320","80000"
"УС28","1327152691","МДОУ ""ДЕТСКИЙ САД №79""","","ПВ ОМСУ","Дет. сады","г. Саранск Ул. ПУШКИНА 6","54.226827","45.141744","нет","нет","","320","80000"
"УС28","1327152701","МАДОУ ""ЦРР - ДЕТСКИЙ САД № 58""","","ПВ ОМСУ","Дет. сады","г. Саранск Пр. 60 ЛЕТ ОКТЯБРЯ 99","54.221974","45.130866","нет","нет","","220","55000"
"УС28","1327153014","ГБУЗ РМ ""ДЕТСКАЯ ПОЛИКЛИНИКА №3""","","ПВ ОГВ","ЛПУ","г. Саранск Пр. 60 ЛЕТ ОКТЯБРЯ 6А","54.219926","45.132402","нет","да","","0","0"
"УС28","1327153575","ГБПОУ РМ ""САРАНСКИЙ СТРОИТЕЛЬНЫЙ ТЕХНИКУМ""","","ПВ ОГВ","Прочее","г. Саранск Ул. ВЕСЕЛОВСКОГО 3","54.225143","45.140756","нет","нет","","450","112500"
"УС28","1327154434","МП ГОРОДСКОГО ОКРУГА САРАНСК ""ГОРЭЛЕКТРОТРАНС""","","ПВ ОМСУ","Прочее","г. Саранск Ул. ЛОДЫГИНА 4","54.217573","45.163439","нет","нет","","500","125000"
"УС28","1327155685","МБУДО ""ДМШ № 4 ИМ. Л. ВОИНОВА""","","ПВ ОМСУ","Школы","г. Саранск Пр. 60 ЛЕТ ОКТЯБРЯ 12А","54.218947","45.123886","нет","нет","","100","25000"
"УС28","1327155692","МБУДО ""ДХШ № 2""","","ПВ ОМСУ","Школы","г. Саранск Ул. ВЕСЕЛОВСКОГО 38Б","54.223022","45.1379","нет","нет","","200","50000"
"УС28","1327157234","ГБУ ""МОРДОВСКАЯ РЕСПУБЛИКАНСКАЯ ВЕТЕРИНАРНАЯ ЛАБОРАТОРИЯ""","","ПВ ОГВ","Прочее","г. Саранск Ул. ПРОЛЕТАРСКАЯ 139","54.223222","45.183965","нет","нет","","100","25000"
"УС28","1328013115","АНО “НАРОДНОЕ ТЕЛЕВИДЕНИЕ МОРДОВИИ""","","Прочее","","г. Саранск Ул. ЛОДЫГИНА 3","54.222390","45.159486","да","да","да","0","0"
"УС28","1328049295","МОУ ""СРЕДНЯЯ ШКОЛА №3""","","ПВ ОМСУ","Школы","г. Саранск Ул. ЭНЕРГЕТИЧЕСКАЯ 10а","54.215151","45.194781","нет","нет","","1400","350000"
"УС28","1328159499","ГБУЗ РМ ""РЕСПУБЛИКАНСКИЙ ДЕТСКИЙ САНАТОРИЙ ""ЛЕСНАЯ СКАЗКА""","","ПВ ОГВ","ЛПУ","г. Саранск Ш. ЛЯМБИРСКОЕ 4","54.218410","45.152533","нет","нет","","1300","325000"
"УС28","1328159555","МДОУ ""ДЕТСКИЙ САД № 81""","","ПВ ОМСУ","Дет. сады","г. Саранск Ул. ВАКЕЕВА 1","54.217678","45.197790","нет","нет","","560","140000"
"УС28","1328160293","ГБУЗ РМ ""РОДИЛЬНЫЙ ДОМ” (Женская консультация №3)","","ПВ ОГВ","ЛПУ","г. Саранск Ул. КОВАЛЕНКО 40","54.211508","45.122781","нет","нет","","400","100000"
"УС28","1328161321","МДОУ ""ДЕТСКИЙ САД №116""","","ПВ ОМСУ","Дет. сады","г. Саранск Ул. КООПЕРАТИВНАЯ 9","54.21602","45.196092","нет","нет","","100","25000"
"УС28","1328165340","МУФКС ""КОННОСПОРТИВНЫЙ КОМПЛЕКС""","","ПВ ОМСУ","Прочее","г. Саранск Ул. ГОРНАЯ 14","54.213240","45.191969","нет","нет","","440","110000"
"УС28","7703476068","ООО ""Энерго Капитал""","","Прочее","","г. Саранск Ул. ЛОДЫГИНА 3","54.222390","45.159486","да","да","","0","0"
"УС28","7736522023","ООО “Фрезениус Нефрокеа""","","Прочее","","г. Саранск Ул. ПОБЕДЫ 8","54.207624","45.117121","нет","нет","","100","25000"
"УС28","132897893423","ИП Резниченко Антон Дмитриевич (AlterCPA)","","Прочее","","г. Саранск Ул. ЛОДЫГИНА 3","54.222390","45.159486","да","да","да","0","0"
"УС29","1300050318","МИНФИН РМ","","ОГВ","","г. Саранск Ул. ОСИПЕНКО 37","54.16560624352550","45.166348999999900","да","да","","0","0"
"УС29","1324002634","ООО ""РМР ЦТ""","","Прочее","","г. Саранск Ул. ОСИПЕНКО 37","54.16560624352550","45.166348999999900","да","да","","0","0"
"УС29","1325029741","ГБУ РМ ""ТЕРРИТОРИАЛЬНЫЙ ФОНД СОЦИАЛЬНОЙ ПОДДЕРЖКИ НАСЕЛЕНИЯ""","","ПВ ОГВ","Прочее","г. Саранск Ул. М.РАСКОВОЙ 14","54.173875","45.151653","нет","нет","","400","100000"
"УС29","1325031476","ГОСКОМИМУЩЕСТВО РМ","","ОГВ","","г. Саранск Ул. ОСИПЕНКО 37","54.16560624352550","45.166348999999900","да","да","","0","0"
"УС29","1325126865","ГБУЗ РМ ""РЕСПУБЛИКАНСКАЯ КЛИНИЧЕСКАЯ БОЛЬНИЦА №4""","","ПВ ОГВ","ЛПУ","г. Саранск Ул. УЛЬЯНОВА 32","54.167571","45.127785","нет","нет","","180","45000"
"УС29","1325127837","МИНЖИЛКОМХОЗ РМ","","ОГВ","","г. Саранск Ул. ОСИПЕНКО 37","54.16560624352550","45.166348999999900","да","да","","0","0"
"УС29","1326038178","ГБУЗ РМ ""МОРДОВСКИЙ РЕСПУБЛИКАНСКИЙ КОЖНО-ВЕНЕРОЛОГИЧЕСКИЙ ДИСПАНСЕР""","","ПВ ОГВ","ЛПУ","г. Саранск Ул. УЛЬЯНОВА 32","54.167571","45.127785","нет","нет","","520","130000"
"УС29","1326045802","ГБУЗ РМ ""ДЕТСКАЯ ПОЛИКЛИНИКА №2” (отделение 2)","","ПВ ОГВ","ЛПУ","г. Саранск Ул. СЕРАДЗСКАЯ 28","54.172267","45.136184","нет","нет","","360","90000"
"УС29","1326045802","ГБУЗ РМ ""ДЕТСКАЯ ПОЛИКЛИНИКА №2” (отделение 3)","","ПВ ОГВ","ЛПУ","г. Саранск ЯЛГА Ул. МИЧУРИНА 34","54.127523","45.129105","нет","нет","","5500","1375000"
"УС29","1326047197","МИНОБРАЗОВАНИЕ РМ","","ОГВ","","г. Саранск Ул. ОСИПЕНКО 37","54.16560624352550","45.166348999999900","да","да","","0","0"
"УС29","1326048105","МОУ ""СРЕДНЯЯ ШКОЛА № 8""","","ПВ ОМСУ","Школы","г. Саранск Ул. М.РАСКОВОЙ 17","54.172546","45.142777","нет","нет","","320","80000"
"УС29","1326048458","ГКУЗ РМ ""РПТД""","","ПВ ОГВ","ЛПУ","г. Саранск Ул. УЛЬЯНОВА 34","54.161219","45.139696","нет","нет","","930","232500"
"УС29","1326134266","ГБУЗ РМ ""РЕСПУБЛИКАНСКИЙ ОНКОЛОГИЧЕСКИЙ ДИСПАНСЕР""","","ПВ ОГВ","ЛПУ","г. Саранск Ул. УЛЬЯНОВА 30","54.166822","45.1295","нет","нет","","100","25000"
"УС29","1326134322","МИНСЕЛЬХОЗПРОД РМ","","ОГВ","","г. Саранск Ул. ОСИПЕНКО 37","54.16560624352550","45.166348999999900","да","да","","0","0"
"УС29","1326135220","МДОУ ""ДЕТСКИЙ САД №65""","","ПВ ОМСУ","Дет. сады","г. Саранск Ул. ПОПОВА 48","54.167323","45.144987","нет","нет","","140","35000"
"УС29","1326135319","МОУ ""СРЕДНЯЯ ШКОЛА № 33""","","ПВ ОМСУ","Школы","г. Саранск Ул. Р.ЛЮКСЕМБУРГ 28","54.17019","45.1235","нет","нет","","160","40000"
"УС29","1326135809","МУ ДО ""ЦЕНТР ДЕТСКОГО ТВОРЧЕСТВА №2""","","ПВ ОМСУ","Прочее","г. Саранск Ул. УЛЬЯНОВА 75","54.165642","45.144035","нет","нет","","210","52500"
"УС29","1326135968","МИНЭКОНОМИКИ РМ","","ОГВ","","г. Саранск Ул. ОСИПЕНКО 37","54.16560624352550","45.166348999999900","да","да","","0","0"
"УС29","1326136263","МДОУ ""ДЕТСКИЙ САД №70""","","ПВ ОМСУ","Дет. сады","г. Саранск Ул. ПОПОВА 61А","54.170855","45.137747","нет","нет","","145","36250"
"УС29","1326136714","МДОУ ""ДЕТСКИЙ САД №87""","","ПВ ОМСУ","Дет. сады","г. Саранск Ул. Р.ЛЮКСЕМБУРГ 34","54.168651","45.124614","нет","нет","","220","55000"
"УС29","1326141263","ГБУ РМ ""СПОРТИВНАЯ ШКОЛА ОЛИМПИЙСКОГО РЕЗЕРВА СПОРТИВНОЙ БОРЬБЫ И ДЗЮДО А.В. МИШИНА""","","ПВ ОГВ","Спорт","г. Саранск Ул. УЛЬЯНОВА 18А/1","54.162184","45.152012","да","нет","","100","25000"
"УС29","1326165144","ГБУЗ РМ ""ПОЛИКЛИНИКА № 4” (отделение №2)","","ПВ ОГВ","ЛПУ","г. Саранск НИКОЛАЕВКА Пл. ШКОЛЬНАЯ 2","54.147246","45.147368","нет","нет","","5000","1250000"
"УС29","1326165144","ГБУЗ РМ ""ПОЛИКЛИНИКА № 4” (кабинет медицинской профилактики)","","ПВ ОГВ","ЛПУ","г. Саранск Ул. УЛЬЯНОВА 30А","54.169236","45.130596","нет","нет","","390","97500"
"УС29","1326165144","ГБУЗ РМ ""ПОЛИКЛИНИКА № 4” (процедурный кабинет отделения №1)","","ПВ ОГВ","ЛПУ","г. Саранск ЯЛГА Ул. РОССИЙСКАЯ 27","54.128325","45.124452","нет","нет","","5000","1250000"
"УС29","1326184027","МБУДО ""ДХШ № 4""","","ПВ ОМСУ","Школы","г. Саранск Ул. М.РАСКОВОЙ 15","54.174549","45.14594","нет","нет","","100","25000"
"УС29","1326194787","МИНЛЕСХОЗ РМ","","ОГВ","","г. Саранск Ул. ОСИПЕНКО 37","54.16560624352550","45.166348999999900","да","да","","0","0"
"УС29","1326196216","МИНСОЦТРУДЗАНЯТОСТИ РМ","","ОГВ","","г. Саранск Ул. ОСИПЕНКО 37","54.16560624352550","45.166348999999900","да","да","","0","0"
"УС29","1326198485","МУФКС ""СТАДИОН ""САРАНСК""","","ПВ ОМСУ","Прочее","г. Саранск Ул. УЛЬЯНОВА 24","54.167481","45.1326","нет","нет","","100","25000"
"УС29","1326198661","ГАУ РМ ""ГОСИНФОРМ""","","ПВ ОГВ","Прочее","г. Саранск Ул. ОСИПЕНКО 37","54.16560624352550","45.166348999999900","нет","да","да","0","0"
"УС29","1326199584","МИНКУЛЬТНАЦ РМ","","ОГВ","","г. Саранск Ул. ОСИПЕНКО 37","54.16560624352550","45.166348999999900","да","да","","0","0"
"УС29","1326200279","ГАУ ""ГОСЭКСПЕРТИЗА РМ""","","ПВ ОГВ","Прочее","г. Саранск Ул. ОСИПЕНКО 37","54.16560624352550","45.166348999999900","да","да","","0","0"
"УС29","1326200737","ГАУ РМ ""СШОР ПО ЗИМНИМ ВИДАМ СПОРТА""","","ПВ ОГВ","Спорт","г. Саранск Ул. ЭНГЕЛЬСА 31","54.159084","45.128108","да","нет","","100","25000"
"УС29","1326201314","ГБУ РМ ""СПОРТИВНАЯ ШКОЛА ОЛИМПИЙСКОГО РЕЗЕРВА ПО СПОРТИВНОЙ ГИМНАСТИКЕ Л.Я. АРКАЕВА""","","ПВ ОГВ","Спорт","г. Саранск Ул. УЛЬЯНОВА 24Б","54.165916","45.134603","да","нет","","410","102500"
"УС29","1326208542","ГКУ ""УПРДОР РМ""","","ПВ ОГВ","Прочее","г. Саранск Ул. ОСИПЕНКО 37","54.16560624352550","45.166348999999900","да","да","","0","0"
"УС29","1326220483","ГБУЗ РМ ""ДЕТСКАЯ РЕСПУБЛИКАНСКАЯ КЛИНИЧЕСКАЯ БОЛЬНИЦА""","","ПВ ОГВ","ЛПУ","г. Саранск Ул. Р.ЛЮКСЕМБУРГ 15","54.168778","45.116250","нет","нет","","1400","350000"
"УС29","1326225065","МАДОУ ""ЦЕНТР РАЗВИТИЯ РЕБЕНКА - ДЕТСКИЙ САД №4""","","ПВ ОМСУ","Дет. сады","г. Саранск Ул. ПОПОВА 64Б","54.170591","45.133103","нет","нет","","100","25000"
"УС29","1326228210","МАДОУ ""ДЕТСКИЙ САД №76""","","ПВ ОМСУ","Дет. сады","г. Саранск Ул. ПОПОВА 67","54.172678","45.132456","нет","нет","","480","120000"
"УС29","1326230749","ГБУЗ РМ ""РЕСПУБЛИКАНСКИЙ ГОСПИТАЛЬ""","","ПВ ОГВ","ЛПУ","г. Саранск Ул. Р.ЛЮКСЕМБУРГ 11А","54.162199","45.106180","нет","нет","","1300","325000"
"УС29","1326233490","ООО ""ЕСК РМ""","","Прочее","","г. Саранск Ул. ОСИПЕНКО 37","54.16560624352550","45.166348999999900","да","да","","0","0"
"УС29","1326233531","ГКУ РМ ""УПРАВЛЕНИЕ ПО ОБЕСПЕЧЕНИЮ ДЕЯТЕЛЬНОСТИ ЖКК РМ""","","ПВ ОГВ","Прочее","г. Саранск Левжа","54.101793","45.053443","да","нет","","15000","3750000"
"УС29","1326233740","ГКУ РМ ""СЛУЖБА ЗАКАЗЧИКА” (112-ЦОВ Саранск)","VLAN ГУП","ПВ ОГВ","Прочее","г. Саранск Ул. ОСИПЕНКО 37","54.16560624352550","45.166348999999900","да","да","","0","0"
"УС29","1326248390","ГБУ РМ ""ЦЕНТР СПОРТИВНОЙ ПОДГОТОВКИ""","","ПВ ОГВ","Спорт","г. Саранск Ул. ЭНГЕЛЬСА 33","54.158867","45.126985","нет","нет","","1100","275000"
"УС29","1327150260","ГБПОУ РМ ""САРАНСКИЙ ТЕХНИКУМ СФЕРЫ УСЛУГ И ПРОМЫШЛЕННЫХ ТЕХНОЛОГИЙ""","","ПВ ОГВ","Прочее","г. Саранск Ул. ТРАНСПОРТНАЯ 9","54.159674","45.153243","нет","нет","","300","75000"
"УС29","1327155572","Межрайонная ИФНС России № 1 по Республике Мордовия","","Прочее","","г. Саранск Ул. ВЕСЕЛОВСКОГО 38А","54.2223","45.139301","нет","нет","да","300","75000"
"УС29","1328002441","МДОУ ""ДЕТСКИЙ САД №115""","","ПВ ОМСУ","Дет. сады","г. Саранск ЗЫКОВО Ул. ЮЖНАЯ 29","54.062242","45.085833","нет","нет","","500","125000"
"УС29","1328008531","МДОУ ""ДЕТСКИЙ САД №118""","","ПВ ОМСУ","Дет. сады","г. Саранск МОНАСТЫРСКОЕ Ул. ШКОЛЬНАЯ 19","54.086185","45.132492","нет","нет","","7300","1825000"
"УС29","1328159210","МОУ ""НИКОЛАЕВСКАЯ СРЕДНЯЯ ШКОЛА""","","ПВ ОМСУ","Школы","г. Саранск ПЛ ШКОЛЬНАЯ 16","54.148702","45.14655","нет","нет","","360","90000"
"УС29","1328159756","МОУ ""ЯЛГИНСКАЯ СРЕДНЯЯ ОБЩЕОБРАЗОВАТЕЛЬНАЯ ШКОЛА""","","ПВ ОМСУ","Школы","г. Саранск Ул. МИЧУРИНА 34а","54.125402","45.127371","нет","нет","","370","92500"
"УС29","1328159940","МОУ ""МОНАСТЫРСКАЯ ОСНОВНАЯ ОБЩЕОБРАЗОВАТЕЛЬНАЯ ШКОЛА""","","ПВ ОМСУ","Школы","г. Саранск Ул. ШКОЛЬНАЯ 19","54.086185","45.132492","нет","нет","","340","85000"
"УС29","1328160286","МОУ ""ЗЫКОВСКАЯ СРЕДНЯЯ ШКОЛА""","","ПВ ОМСУ","Школы","г. Саранск ЗЫКОВО Ул. СОВЕТСКАЯ 124А","54.070353","45.089723","нет","нет","","2300","575000"
"УС29","1328160328","ГБПОУ РМ ""САРАНСКИЙ ЭЛЕКТРОМЕХАНИЧЕСКИЙ КОЛЛЕДЖ""","","ПВ ОГВ","Прочее","г. Саранск Ул. ТРАНСПОРТНАЯ 11","54.159838","45.150979","нет","нет","","190","47500"
"УС29","1328160543","МОУ ""СРЕДНЯЯ ШКОЛА № 22""","","ПВ ОМСУ","Школы","г. Саранск Ул. ПАВЛИКА МОРОЗОВА 11","54.164898","45.159783","нет","нет","","810","202500"
"УС29","1328164724","МДОУ ""ДЕТСКИЙ САД №114""","","ПВ ОМСУ","Дет. сады","г. Саранск Ул. МОЛОДЕЖНАЯ 18","54.164029","45.157294","нет","нет","","190","47500"
"УС29","1328168327","МДОУ ""ДЕТСКИЙ САД №101""","","ПВ ОМСУ","Дет. сады","г. Саранск Ул. ЛОМОНОСОВА 4","54.166654","45.165316","нет","нет","","720","180000"
"УС29","5258097148","ООО ""Аэль-РТС"" Инжиниринг","","Прочее","","г. Саранск Ул. ОСИПЕНКО 37","54.16560624352550","45.166348999999900","да","да","","0","0"
"УС29","7725545445","АО ""Ретннет""","","Прочее","","г. Саранск Ул. ОСИПЕНКО 37","54.16560624352550","45.166348999999900","да","да","","0","0"